{"type":"Feature","properties":{"id":"AF-TKM-NORTH-BELT","country":"AF","name_en":"Northern Afghanistan Turkmen belt"},"geometry":{"type":"MultiPolygon","coordinates":[[[[63.94,35.84],[63.92,36.2],[64.16,36.48],[64.55,36.7],[64.92,36.94],[65.22,37.2],[65.46,37.08],[65.32,36.62],[65.03,36.24],[64.55,35.97],[63.94,35.84]]],[[[66.28,36.62],[66.34,37.34],[66.92,37.32],[67.55,37.16],[68.16,37.03],[68.75,37.13],[69.42,37.03],[69.38,36.66],[68.82,36.56],[68.18,36.51],[67.55,36.5],[66.86,36.54],[66.28,36.62]]]]}}
