{"type":"Feature","properties":{"id":"IT-SS-ALG","country":"IT","name_en":"Alghero"},"geometry":{"type":"MultiPolygon","coordinates":[[[[8.1397118,40.6051213],[8.1408048,40.602028],[8.1446667,40.6044651],[8.1397118,40.6051213]]],[[[8.1433459,40.6145504],[8.1492775,40.6052735],[8.1442706,40.6026907],[8.1481944,40.6016988],[8.145272,40.5998083],[8.1503726,40.5790244],[8.1558352,40.579346],[8.1575522,40.5669576],[8.1635663,40.5601127],[8.1656145,40.5728231],[8.1610349,40.5760854],[8.1656703,40.5840259],[8.1710989,40.580201],[8.1738575,40.5882299],[8.16801,40.5929826],[8.1762597,40.5936321],[8.1842837,40.6051378],[8.1903613,40.6063648],[8.1895728,40.6158588],[8.1932524,40.6180665],[8.2096034,40.6148137],[8.219415,40.6017965],[8.2162785,40.5936856],[8.2038179,40.5940079],[8.2082608,40.5875072],[8.1977443,40.5756508],[8.2035693,40.5681971],[8.2378566,40.5724586],[8.2448642,40.5689572],[8.2457241,40.5810647],[8.2510239,40.584472],[8.265855,40.5812527],[8.2675596,40.589381],[8.2759234,40.5935126],[8.2990067,40.591287],[8.3177494,40.5714002],[8.3168936,40.5650304],[8.3104958,40.5656371],[8.3078434,40.5646187],[8.3161881,40.5641144],[8.314816,40.5605333],[8.3052141,40.5655582],[8.3205328,40.550091],[8.3329908,40.5146961],[8.3392286,40.5092372],[8.338242,40.5000015],[8.3504862,40.5035929],[8.3666806,40.4957494],[8.3732298,40.5116009],[8.4196696,40.5301944],[8.4196873,40.5596083],[8.4074373,40.585176],[8.3912934,40.6024068],[8.3996964,40.6156845],[8.4130335,40.6181494],[8.4155689,40.6256045],[8.3982911,40.6260642],[8.3863381,40.6208213],[8.3750713,40.6284093],[8.3579731,40.6198383],[8.3629115,40.6338832],[8.3507561,40.637473],[8.3403074,40.6489628],[8.3459622,40.6706426],[8.3191715,40.6652448],[8.311657,40.6585519],[8.2965393,40.6720457],[8.2637914,40.6739946],[8.2560727,40.6658554],[8.224334,40.6646016],[8.199,40.6732183],[8.191456,40.6634031],[8.1925285,40.653499],[8.1848105,40.6365603],[8.1671798,40.6323317],[8.1605948,40.6336648],[8.1632325,40.6287128],[8.146565,40.6259335],[8.1433459,40.6145504]]],[[[8.1510454,40.5717634],[8.1517978,40.5688132],[8.1531644,40.5721444],[8.1510454,40.5717634]]],[[[8.161391,40.6339499],[8.161563,40.6337776],[8.1616415,40.63381],[8.161391,40.6339499]]],[[[8.176641,40.6374274],[8.1765775,40.6373002],[8.1768416,40.6373387],[8.176641,40.6374274]]],[[[8.1770777,40.6371711],[8.176679,40.6369976],[8.1770904,40.6369437],[8.1770777,40.6371711]]],[[[8.3002565,40.5726266],[8.3001775,40.5719871],[8.3006524,40.5719665],[8.3002565,40.5726266]]],[[[8.3370175,40.4998873],[8.3372148,40.4992288],[8.3376625,40.4993207],[8.3370175,40.4998873]]]]}}
