{"type":"FeatureCollection","features":[{"type":"Feature","properties":{"id":"RU-DA","country":"RU","name_en":"Republic of Dagestan"},"geometry":{"type":"MultiPolygon","coordinates":[[[[45.966372,42.022061],[45.947562,42.022914],[45.934126,42.028495],[45.923481,42.039631],[45.895162,42.091876],[45.881364,42.102031],[45.811601,42.115492],[45.701789,42.17275],[45.661585,42.186703],[45.631405,42.201172],[45.62138,42.224478],[45.736412,42.447539],[45.739506,42.470647],[45.760132,42.478028],[45.794859,42.47901],[45.804677,42.481464],[45.82111,42.487226],[45.829069,42.491438],[45.841884,42.500249],[45.860695,42.518129],[45.938313,42.567325],[45.948338,42.575076],[45.951128,42.580114],[45.952679,42.585851],[45.954229,42.59908],[45.956606,42.60665],[45.96198,42.615797],[45.968078,42.619001],[45.973659,42.618484],[45.977793,42.615177],[45.980584,42.610681],[45.987715,42.596444],[45.992056,42.592543],[45.998154,42.590062],[46.007352,42.589623],[46.013243,42.592026],[46.017067,42.596728],[46.018824,42.601095],[46.020375,42.610138],[46.021925,42.653676],[46.037118,42.679772],[46.04735,42.690263],[46.078356,42.709383],[46.087244,42.71282],[46.095409,42.715119],[46.141194,42.715739],[46.154837,42.718736],[46.163105,42.722871],[46.169513,42.729692],[46.172097,42.735841],[46.173854,42.741939],[46.174784,42.750647],[46.174784,42.75969],[46.174474,42.763101],[46.171167,42.778216],[46.168996,42.782996],[46.165792,42.787259],[46.161555,42.790928],[46.143571,42.800695],[46.139954,42.803408],[46.133443,42.811289],[46.127448,42.820074],[46.122591,42.830719],[46.121351,42.837928],[46.123211,42.843122],[46.127138,42.847152],[46.131169,42.850382],[46.160315,42.866557],[46.185016,42.889682],[46.196178,42.9041],[46.206203,42.909267],[46.214471,42.910301],[46.221499,42.908234],[46.225634,42.904668],[46.228424,42.900121],[46.233075,42.890509],[46.239173,42.881672],[46.242687,42.877771],[46.247544,42.874489],[46.254159,42.872577],[46.288679,42.871595],[46.298601,42.87281],[46.311003,42.876763],[46.315447,42.881311],[46.318548,42.892421],[46.335808,42.903996],[46.34697,42.901439],[46.350897,42.897563],[46.362679,42.888209],[46.393272,42.87219],[46.424588,42.876608],[46.438024,42.882654],[46.459521,42.899914],[46.48629,42.917613],[46.498899,42.924047],[46.530731,42.935002],[46.536932,42.940583],[46.539206,42.946319],[46.538173,42.951642],[46.536106,42.956655],[46.533522,42.961176],[46.528974,42.96482],[46.52329,42.967507],[46.503446,42.973165],[46.500035,42.975103],[46.496831,42.977635],[46.493938,42.981098],[46.49125,42.987144],[46.48908,42.994663],[46.48877,43.007608],[46.491147,43.014946],[46.494351,43.02032],[46.497968,43.023447],[46.500966,43.025384],[46.504996,43.027555],[46.510061,43.029725],[46.517399,43.033756],[46.52515,43.039285],[46.536312,43.050603],[46.540033,43.058509],[46.541067,43.065382],[46.539723,43.070756],[46.537553,43.075666],[46.534555,43.079955],[46.530525,43.083779],[46.520913,43.089618],[46.510267,43.093856],[46.459004,43.074322],[46.440401,43.074994],[46.423761,43.089928],[46.407845,43.107395],[46.403297,43.113751],[46.401127,43.119177],[46.400507,43.124707],[46.402057,43.129874],[46.405054,43.134525],[46.409705,43.138039],[46.426448,43.145713],[46.431512,43.148736],[46.435853,43.15256],[46.439471,43.156953],[46.442261,43.162017],[46.444742,43.16752],[46.446499,43.173567],[46.447739,43.18106],[46.447739,43.18925],[46.445672,43.200102],[46.442571,43.205167],[46.433373,43.209559],[46.408775,43.216639],[46.425931,43.267592],[46.429859,43.290588],[46.428929,43.301027],[46.427792,43.306349],[46.425828,43.310948],[46.423038,43.314721],[46.406398,43.3295],[46.396476,43.336011],[46.36702,43.350998],[46.360612,43.355804],[46.359889,43.360971],[46.361853,43.365725],[46.36547,43.370945],[46.368054,43.376991],[46.368571,43.385776],[46.364953,43.390685],[46.359269,43.394225],[46.34728,43.399573],[46.341699,43.404276],[46.336118,43.410219],[46.32878,43.420683],[46.326299,43.42797],[46.327126,43.434868],[46.332087,43.444687],[46.333534,43.448847],[46.337565,43.458175],[46.382317,43.472515],[46.398336,43.481894],[46.408878,43.498017],[46.43854,43.54096],[46.445052,43.559512],[46.443708,43.577237],[46.441124,43.591526],[46.443088,43.607209],[46.483499,43.672115],[46.48629,43.675577],[46.48908,43.678368],[46.492801,43.681313],[46.508717,43.689943],[46.533212,43.706635],[46.568765,43.758337],[46.584991,43.772367],[46.591813,43.773969],[46.633877,43.777328],[46.659819,43.78446],[46.673978,43.8042],[46.675529,43.815465],[46.669327,43.819393],[46.631397,43.817171],[46.619201,43.823708],[46.61238,43.839107],[46.61083,43.843681],[46.603595,43.854636],[46.585922,43.872232],[46.563804,43.874997],[46.544684,43.870914],[46.529594,43.866031],[46.518949,43.865101],[46.509647,43.865178],[46.464275,43.876082],[46.45518,43.881249],[46.451563,43.887089],[46.457661,43.90409],[46.463862,43.943675],[46.463965,43.953622],[46.463552,43.957421],[46.462312,43.961968],[46.456834,43.970753],[46.452183,43.976748],[46.43451,43.994421],[46.419007,44.000157],[46.349347,43.997728],[46.344076,43.995661],[46.340045,43.991475],[46.337875,43.986359],[46.334257,43.975869],[46.332914,43.968014],[46.313173,43.957007],[46.256949,43.9483],[46.246408,43.942796],[46.241447,43.936853],[46.246304,43.90869],[46.243514,43.899026],[46.237726,43.886779],[46.220259,43.863008],[46.209614,43.853293],[46.200002,43.84766],[46.192251,43.846988],[46.108535,43.859029],[46.09944,43.859545],[46.088898,43.858202],[46.083523,43.854429],[46.080526,43.849184],[46.079803,43.836601],[46.078252,43.830193],[46.074532,43.823553],[46.065023,43.820581],[46.056548,43.819935],[46.048693,43.821357],[46.043629,43.824509],[46.039908,43.828385],[46.034017,43.837247],[46.016447,43.876418],[46.015207,43.88081],[46.015207,43.885022],[46.018514,43.888484],[46.024095,43.890758],[46.037221,43.89466],[46.042802,43.897218],[46.046213,43.900938],[46.048383,43.904349],[46.050037,43.908199],[46.051381,43.913496],[46.052311,43.919593],[46.052207,43.92564],[46.05014,43.930549],[46.044663,43.933649],[45.927977,43.956878],[45.881985,43.970882],[45.831652,43.978505],[45.815013,43.97897],[45.80292,43.978143],[45.797029,43.975662],[45.791965,43.972458],[45.783387,43.964216],[45.770984,43.954527],[45.728506,43.951736],[45.71042,43.955147],[45.699878,43.961296],[45.679,43.976799],[45.670112,43.979848],[45.574097,43.992819],[45.546915,44.000054],[45.509398,44.015195],[45.507228,44.103406],[45.512499,44.130278],[45.516943,44.138857],[45.522524,44.154024],[45.523971,44.168674],[45.522524,44.178182],[45.517253,44.185288],[45.511569,44.188621],[45.506298,44.190481],[45.341346,44.2003],[45.333905,44.199163],[45.328944,44.196062],[45.320676,44.188104],[45.315095,44.185417],[45.307963,44.184022],[45.300212,44.183247],[45.29184,44.184358],[45.283469,44.186657],[45.275407,44.193685],[45.267036,44.196941],[45.258251,44.199111],[45.124099,44.202367],[45.11087,44.205545],[45.105909,44.210222],[45.104978,44.215803],[45.112627,44.232856],[45.130713,44.268306],[45.187557,44.271174],[45.260731,44.293162],[45.373593,44.307063],[45.392816,44.312179],[45.404495,44.317502],[45.441392,44.376051],[45.44594,44.3868],[45.44687,44.392407],[45.445733,44.397497],[45.443769,44.402458],[45.437361,44.411191],[45.422789,44.427728],[45.41049,44.4392],[45.405115,44.442223],[45.398397,44.444419],[45.237373,44.460129],[45.230656,44.462403],[45.226211,44.465968],[45.225591,44.474805],[45.227555,44.487156],[45.234066,44.5101],[45.239337,44.520694],[45.245538,44.527153],[45.265175,44.534775],[45.271997,44.538858],[45.273237,44.543199],[45.271687,44.546687],[45.267449,44.549581],[45.263418,44.554955],[45.260628,44.562319],[45.262178,44.577486],[45.265796,44.585134],[45.27086,44.59056],[45.277061,44.592808],[45.284192,44.594333],[45.336075,44.595159],[45.344137,44.597175],[45.352302,44.601567],[45.373386,44.617535],[45.382274,44.620584],[45.390026,44.620326],[45.410076,44.613815],[45.417001,44.612471],[45.423822,44.612471],[45.42961,44.614538],[45.434881,44.617484],[45.613991,44.766002],[45.646341,44.799746],[45.650268,44.817213],[45.649338,44.833646],[45.621123,44.898965],[45.622363,44.903435],[45.628977,44.908009],[45.646031,44.91762],[45.705975,44.975782],[45.853667,45.000509],[45.916505,44.984386],[45.938416,44.982423],[46.004252,44.986324],[46.070294,44.969814],[46.097269,44.966403],[46.179848,44.965886],[46.433683,44.93656],[46.603492,44.885323],[46.771957,44.81065],[46.776298,44.806361],[46.779295,44.801865],[46.781362,44.796853],[46.783016,44.77706],[46.786736,44.768896],[46.792937,44.765072],[46.800276,44.763392],[46.8072,44.7644],[46.813608,44.766338],[46.824253,44.772229],[46.84327,44.786362],[46.851125,44.788119],[46.860427,44.789049],[46.87562,44.787344],[46.883991,44.784554],[46.889882,44.780729],[46.892776,44.776259],[46.8935,44.770833],[46.89257,44.765123],[46.889469,44.754633],[46.88814,44.751868],[46.867931,44.740465],[46.854503,44.725409],[46.843516,44.709662],[46.831309,44.696357],[46.791677,44.706041],[46.766368,44.681464],[46.746267,44.654039],[46.722016,44.655341],[46.716319,44.638861],[46.707774,44.569729],[46.711599,44.566392],[46.718923,44.55801],[46.723155,44.549465],[46.718272,44.545478],[46.707205,44.545111],[46.694672,44.543036],[46.684581,44.537909],[46.680431,44.528469],[46.683604,44.506781],[46.697765,44.466457],[46.700938,44.446194],[46.711274,44.43183],[46.734386,44.414781],[46.758962,44.40058],[46.773204,44.39468],[46.817638,44.39468],[46.84018,44.397773],[46.851899,44.39761],[47.002615,44.367336],[47.025645,44.359605],[47.0442,44.346259],[47.055431,44.327704],[47.069184,44.284329],[47.078298,44.26435],[47.088715,44.251532],[47.104991,44.235907],[47.122244,44.222724],[47.136078,44.217108],[47.146332,44.214301],[47.166759,44.203315],[47.180024,44.202867],[47.190929,44.208564],[47.21046,44.226752],[47.22169,44.23078],[47.245942,44.211982],[47.265391,44.168647],[47.289887,44.093004],[47.316091,44.058051],[47.333995,44.039537],[47.348643,44.031562],[47.357921,44.020575],[47.386892,43.956488],[47.412283,43.925971],[47.42335,43.907945],[47.427745,43.884182],[47.432628,43.876166],[47.455251,43.870917],[47.461925,43.860297],[47.459483,43.851793],[47.445486,43.829739],[47.441417,43.819281],[47.452159,43.822984],[47.468272,43.826117],[47.482758,43.824897],[47.489268,43.815579],[47.502778,43.780992],[47.503429,43.770901],[47.495453,43.764838],[47.469412,43.760077],[47.458507,43.754462],[47.450206,43.745917],[47.444591,43.738471],[47.43393,43.716254],[47.455089,43.688951],[47.450938,43.681871],[47.443126,43.677395],[47.434581,43.67357],[47.427745,43.668443],[47.408051,43.636868],[47.393565,43.606391],[47.377126,43.616523],[47.37322,43.620673],[47.365733,43.620673],[47.366547,43.602851],[47.371755,43.579739],[47.379893,43.559719],[47.390147,43.551174],[47.404959,43.543769],[47.403819,43.527574],[47.404307,43.511379],[47.424327,43.503974],[47.448497,43.518134],[47.465343,43.552151],[47.474457,43.593451],[47.475841,43.629543],[47.477794,43.643744],[47.481781,43.653144],[47.48878,43.661322],[47.500011,43.671576],[47.507335,43.685736],[47.502696,43.715033],[47.506602,43.726752],[47.522634,43.748847],[47.533865,43.775946],[47.540863,43.804755],[47.543793,43.832343],[47.54184,43.854722],[47.544444,43.86522],[47.554698,43.877631],[47.588227,43.898139],[47.595714,43.90119],[47.625662,43.900336],[47.652843,43.896674],[47.677989,43.888617],[47.701508,43.874498],[47.643809,43.829901],[47.601573,43.765692],[47.543793,43.627509],[47.519705,43.520006],[47.490896,43.462836],[47.482188,43.42178],[47.483246,43.379706],[47.496755,43.346381],[47.488617,43.329535],[47.486827,43.310858],[47.493419,43.296332],[47.509613,43.291693],[47.534353,43.320624],[47.55421,43.325507],[47.570323,43.333726],[47.577403,43.329657],[47.582367,43.32099],[47.58546,43.312201],[47.585704,43.299547],[47.58074,43.29267],[47.574718,43.287787],[47.564952,43.268052],[47.549001,43.257636],[47.5171,43.243313],[47.506033,43.2355],[47.48585,43.212836],[47.481212,43.202338],[47.488292,43.180487],[47.48585,43.171942],[47.478038,43.159898],[47.478852,43.148668],[47.48227,43.138007],[47.482432,43.127265],[47.47641,43.118069],[47.459483,43.104438],[47.455089,43.099921],[47.45281,43.080797],[47.461925,43.020819],[47.530121,42.962104],[47.589854,42.942694],[47.599132,42.931708],[47.605642,42.917426],[47.621593,42.905097],[47.69809,42.867133],[47.701671,42.861762],[47.707774,42.837836],[47.711681,42.832424],[47.709972,42.82217],[47.716645,42.773586],[47.715099,42.75727],[47.721365,42.75727],[47.71697,42.747219],[47.715099,42.736233],[47.715587,42.696682],[47.727306,42.662787],[47.751801,42.636664],[47.837657,42.604926],[47.867686,42.584662],[47.938487,42.481106],[47.992931,42.419664],[48.023692,42.392971],[48.078787,42.362738],[48.095958,42.349799],[48.222341,42.175116],[48.249685,42.146552],[48.286143,42.120836],[48.304047,42.102729],[48.311697,42.081977],[48.315603,42.060289],[48.324962,42.038764],[48.386729,41.937201],[48.416352,41.915025],[48.462413,41.900784],[48.51002,41.8935],[48.552908,41.875556],[48.578624,41.845526],[48.578949,41.845282],[48.53066,41.787373],[48.462211,41.720992],[48.455419,41.714406],[48.413251,41.627615],[48.393046,41.598883],[48.370153,41.58015],[48.283698,41.539533],[48.23135,41.505478],[48.201843,41.493489],[48.086553,41.476643],[48.053532,41.461295],[48.034566,41.433648],[48.001648,41.362076],[47.979169,41.352412],[47.953228,41.355771],[47.942686,41.3474],[47.937931,41.331742],[47.929456,41.313552],[47.91478,41.300219],[47.901448,41.292985],[47.892146,41.283269],[47.889252,41.262444],[47.8938,41.241877],[47.898864,41.229061],[47.894627,41.219294],[47.871114,41.208183],[47.828739,41.198417],[47.813491,41.197388],[47.743731,41.192681],[47.724559,41.195729],[47.694889,41.207134],[47.642549,41.227252],[47.622498,41.229061],[47.603171,41.223273],[47.567773,41.205496],[47.547309,41.205651],[47.529171,41.216555],[47.500955,41.246321],[47.479148,41.251953],[47.375588,41.259447],[47.367292,41.261789],[47.344479,41.268232],[47.268411,41.302803],[47.250842,41.316032],[47.24092,41.338925],[47.24278,41.391273],[47.239059,41.415716],[47.231463,41.42755],[47.200509,41.45685],[47.195134,41.466979],[47.191827,41.476694],[47.187073,41.485634],[47.179219,41.49168],[47.176996,41.493489],[47.159323,41.503514],[47.152243,41.518139],[47.148729,41.535089],[47.141391,41.5524],[47.125578,41.566301],[47.107491,41.569919],[47.088267,41.566973],[47.069147,41.561289],[47.028262,41.557075],[47.027031,41.556948],[47.012613,41.5755],[47.003932,41.60542],[46.97923,41.635496],[46.929517,41.667225],[46.915978,41.680945],[46.912258,41.688619],[46.906883,41.706939],[46.902232,41.712752],[46.890553,41.717093],[46.864509,41.719677],[46.851899,41.722338],[46.834795,41.730245],[46.769114,41.77572],[46.759399,41.787295],[46.754024,41.800886],[46.745033,41.840135],[46.740795,41.851245],[46.732424,41.8514],[46.715577,41.838481],[46.709555,41.835066],[46.69749,41.828223],[46.657079,41.821996],[46.636512,41.816518],[46.603956,41.795176],[46.586593,41.786779],[46.567576,41.786675],[46.549851,41.79776],[46.544321,41.814761],[46.549127,41.855379],[46.543546,41.874293],[46.525511,41.882303],[46.479312,41.887005],[46.452337,41.886178],[46.430892,41.890442],[46.406552,41.91504],[46.382057,41.925246],[46.322629,41.929018],[46.294156,41.93863],[46.250489,41.977723],[46.224341,41.993484],[46.214574,41.9955],[46.206151,41.996094],[46.197676,41.9955],[46.189201,41.993769],[46.188891,41.993639],[46.188581,41.993536],[46.129876,41.984493],[46.099181,41.985061],[46.074996,41.993484],[46.068278,42.015318],[46.05846,42.02033],[46.044817,42.017721],[46.02673,42.01679],[46.018359,42.020046],[46.001615,42.030976],[45.995156,42.033456],[45.986733,42.031906],[45.973503,42.024154],[45.966372,42.022061]]],[[[47.851085,43.999213],[47.862071,43.99433],[47.866954,43.991441],[47.866873,43.983791],[47.76295,43.928412],[47.746267,43.926947],[47.709809,43.935777],[47.694184,43.936754],[47.684093,43.939521],[47.680186,43.951402],[47.673595,43.951077],[47.655772,43.943183],[47.642833,43.944403],[47.632986,43.952541],[47.628184,43.962592],[47.63738,43.98135],[47.665701,43.996283],[47.78061,43.994534],[47.813324,43.999254],[47.838552,44.000637],[47.851085,43.999213]]]]}},{"type":"Feature","properties":{"id":"IR-01","country":"IR","name_en":"East Azerbaijan"},"geometry":{"type":"Polygon","coordinates":[[[46.378233,38.924705],[46.391876,38.922354],[46.496056,38.886077],[46.514039,38.882176],[46.532074,38.883002],[46.553726,38.889824],[46.569849,38.89773],[46.585352,38.907704],[46.599202,38.919693],[46.610674,38.934007],[46.638838,38.979482],[46.65217,38.992944],[46.670412,39.004907],[46.728393,39.027955],[46.744826,39.040254],[46.761621,39.070588],[46.773765,39.085367],[46.781516,39.09038],[46.798053,39.097382],[46.806011,39.102395],[46.811695,39.108518],[46.837378,39.143245],[46.850969,39.155492],[46.866162,39.165362],[46.866391,39.165445],[46.883009,39.171409],[46.898718,39.171744],[46.926624,39.162055],[46.94161,39.158903],[46.953754,39.16066],[47.013628,39.186956],[47.021451,39.167196],[47.024965,39.16531],[47.026205,39.154949],[47.040054,39.142727],[47.07075,39.131178],[47.085529,39.110895],[47.103926,39.049839],[47.100206,39.029969],[47.093488,39.011857],[47.07292,38.989946],[46.986104,38.94336],[46.923989,38.936848],[46.883888,38.918736],[46.839963,38.912302],[46.793661,38.941758],[46.77299,38.940776],[46.770407,38.925557],[46.76989,38.89636],[46.762965,38.868661],[46.749323,38.85923],[46.695992,38.869204],[46.658889,38.866026],[46.648657,38.851737],[46.621888,38.839542],[46.581684,38.798201],[46.565665,38.735879],[46.59419,38.681153],[46.645246,38.659139],[46.713562,38.678466],[46.782189,38.707483],[46.847818,38.7219],[46.997473,38.688802],[47.039331,38.715182],[47.077158,38.755464],[47.139686,38.792361],[47.152089,38.805074],[47.137206,38.809466],[47.12346,38.825692],[47.238182,38.981394],[47.313422,39.020978],[47.354144,39.018187],[47.42153,39.049761],[47.486022,39.094668],[47.525606,39.083119],[47.511757,38.969508],[47.52726,38.95199],[47.52974,38.876645],[47.587618,38.763887],[47.577076,38.697121],[47.540075,38.658209],[47.540902,38.630278],[47.593405,38.606946],[47.612319,38.557957],[47.563536,38.531964],[47.491913,38.540929],[47.423803,38.52522],[47.381842,38.489641],[47.30195,38.443726],[47.270324,38.397295],[47.2449,38.371276],[47.224436,38.33487],[47.219681,38.283477],[47.23167,38.252394],[47.279729,38.26738],[47.343498,38.273478],[47.375124,38.249268],[47.388973,38.241206],[47.418119,38.237046],[47.642911,38.262988],[47.712778,38.235651],[47.742337,38.162322],[47.748641,38.08274],[47.799181,37.984116],[47.878143,37.899057],[47.944908,37.850171],[47.95545,37.832161],[47.945219,37.804514],[47.922688,37.766429],[47.913696,37.675323],[47.943668,37.566002],[48.041233,37.517994],[48.047538,37.520863],[48.070069,37.5174],[48.143449,37.487014],[48.169908,37.468514],[48.178073,37.39609],[48.204014,37.347126],[48.265406,37.314829],[48.286696,37.297439],[48.332068,37.267855],[48.329588,37.262403],[48.324627,37.247391],[48.332068,37.247391],[48.340957,37.256124],[48.356046,37.26031],[48.390153,37.261654],[48.404519,37.255504],[48.418575,37.232715],[48.42767,37.233748],[48.441519,37.227805],[48.455265,37.223878],[48.443689,37.218452],[48.408756,37.196231],[48.334135,37.172873],[48.09508,37.192691],[48.030071,37.184036],[47.935193,37.19574],[47.620691,37.166569],[47.585241,37.154709],[47.550824,37.138199],[47.49615,37.090889],[47.430108,37.065697],[47.400342,37.048333],[47.358278,36.992471],[47.206762,36.869068],[47.187642,36.8377],[47.187952,36.789228],[47.193843,36.756826],[46.956442,36.734761],[46.858877,36.745406],[46.82291,36.787471],[46.82384,36.853978],[46.784152,36.946582],[46.797278,36.961543],[46.792834,36.982652],[46.761311,37.004408],[46.710359,37.013503],[46.670671,37.033244],[46.638838,37.058927],[46.592743,37.064973],[46.550678,37.042778],[46.523186,37.021978],[46.498899,37.023994],[46.449496,37.015674],[46.389551,36.984409],[46.356685,36.951724],[46.341802,36.923638],[46.338702,36.914724],[46.322269,36.893872],[46.292916,36.877749],[46.246408,36.893356],[46.203309,36.925447],[46.078976,36.981619],[46.062129,37.008413],[45.923533,37.109208],[45.816666,37.110629],[45.686545,37.129155],[45.394677,37.281859],[45.356849,37.327179],[45.343103,37.381104],[45.354472,37.505308],[45.329771,37.551042],[45.262695,37.614965],[45.256184,37.633207],[45.242438,37.653154],[45.234893,37.668838],[45.23913,37.680129],[45.248536,37.68633],[45.257941,37.690516],[45.262178,37.695839],[45.25422,37.756042],[45.25298,37.760073],[45.248536,37.768134],[45.228485,37.78958],[45.193242,38.059253],[45.193862,38.092507],[45.196963,38.097727],[45.200993,38.102532],[45.199443,38.11341],[45.193242,38.131265],[45.186731,38.139429],[45.178669,38.144855],[45.172881,38.152194],[45.172778,38.165991],[45.165957,38.165991],[45.102601,38.233687],[45.089372,38.267019],[45.100328,38.310478],[45.156552,38.385358],[45.328221,38.524755],[45.365634,38.577801],[45.366048,38.627436],[45.34052,38.680223],[45.326774,38.737377],[45.355816,38.843417],[45.37783,38.885172],[45.488211,38.976898],[45.494529,38.981917],[45.510276,38.978655],[45.530843,38.969276],[45.535565,38.968453],[45.543142,38.967132],[45.570841,38.966382],[45.627788,38.955504],[45.716878,38.954781],[45.768074,38.93913],[45.791086,38.932095],[46.001822,38.897472],[46.067968,38.874114],[46.126052,38.862668],[46.135871,38.863701],[46.202482,38.870548],[46.219948,38.877163],[46.271935,38.906567],[46.291314,38.913931],[46.304543,38.916256],[46.343352,38.917471],[46.367588,38.92362],[46.378233,38.924705]]]}},{"type":"Feature","properties":{"id":"IR-03","country":"IR","name_en":"Ardabil"},"geometry":{"type":"Polygon","coordinates":[[[47.957258,39.707345],[47.957708,39.707256],[47.971418,39.704554],[47.990745,39.694271],[48.052033,39.650087],[48.220085,39.494025],[48.288608,39.445035],[48.31672,39.415166],[48.33894,39.378941],[48.328405,39.37633],[48.302457,39.369898],[48.24985,39.342354],[48.187218,39.332587],[48.153525,39.319048],[48.124587,39.297602],[48.10619,39.26918],[48.104329,39.234841],[48.117765,39.208047],[48.142157,39.181201],[48.199104,39.138232],[48.256258,39.119784],[48.271296,39.108312],[48.301475,39.05803],[48.306798,39.045396],[48.306281,39.031469],[48.30159,39.017946],[48.301423,39.017464],[48.293672,39.004597],[48.284629,38.994003],[48.284474,38.993952],[48.28437,38.993771],[48.243184,38.973875],[48.058544,38.948373],[48.055134,38.941914],[48.05534,38.934369],[48.052446,38.927909],[48.000046,38.902588],[47.990745,38.891219],[47.993122,38.850085],[48.012966,38.821559],[48.077974,38.780941],[48.21037,38.729756],[48.222979,38.721462],[48.225635,38.713193],[48.230317,38.698621],[48.226182,38.679087],[48.228043,38.662189],[48.276515,38.631777],[48.292225,38.613562],[48.310312,38.600151],[48.341059,38.599583],[48.391754,38.618109],[48.415267,38.618109],[48.426739,38.596457],[48.433715,38.569972],[48.446634,38.556407],[48.462654,38.544935],[48.479087,38.524756],[48.495933,38.510312],[48.510816,38.493776],[48.535641,38.469154],[48.548643,38.456258],[48.575929,38.420369],[48.607865,38.395978],[48.612962,38.395646],[48.618769,38.385306],[48.650705,38.362982],[48.671582,38.341743],[48.67706,38.322932],[48.701245,38.315233],[48.738969,38.308515],[48.754471,38.295518],[48.745583,38.277406],[48.519654,38.065816],[48.49888,38.027317],[48.490198,37.974272],[48.458366,37.935049],[48.456092,37.880324],[48.548076,37.678837],[48.71406,37.47146],[48.769251,37.426191],[48.83302,37.38622],[48.866609,37.352061],[48.86754,37.323562],[48.863199,37.279844],[48.87157,37.227392],[48.882526,37.202794],[48.81514,37.231475],[48.78,37.222948],[48.740622,37.201399],[48.704552,37.205171],[48.676027,37.217935],[48.656803,37.211992],[48.644711,37.194758],[48.644607,37.177834],[48.631172,37.160006],[48.600269,37.154787],[48.525648,37.218297],[48.48441,37.230286],[48.455265,37.223878],[48.441519,37.227805],[48.42767,37.233748],[48.418575,37.232715],[48.404519,37.255504],[48.390153,37.261654],[48.356046,37.26031],[48.340957,37.256124],[48.332068,37.247391],[48.324627,37.247391],[48.329588,37.262403],[48.332068,37.267855],[48.286696,37.297439],[48.265406,37.314829],[48.204014,37.347126],[48.178073,37.39609],[48.169908,37.468514],[48.143449,37.487014],[48.070069,37.5174],[48.047538,37.520863],[48.041233,37.517994],[47.943668,37.566002],[47.913696,37.675323],[47.922688,37.766429],[47.945219,37.804514],[47.95545,37.832161],[47.944908,37.850171],[47.878143,37.899057],[47.799181,37.984116],[47.748641,38.08274],[47.742337,38.162322],[47.712778,38.235651],[47.642911,38.262988],[47.418119,38.237046],[47.388973,38.241206],[47.375124,38.249268],[47.343498,38.273478],[47.279729,38.26738],[47.23167,38.252394],[47.219681,38.283477],[47.224436,38.33487],[47.2449,38.371276],[47.270324,38.397295],[47.30195,38.443726],[47.381842,38.489641],[47.423803,38.52522],[47.491913,38.540929],[47.563536,38.531964],[47.612319,38.557957],[47.593405,38.606946],[47.540902,38.630278],[47.540075,38.658209],[47.577076,38.697121],[47.587618,38.763887],[47.52974,38.876645],[47.52726,38.95199],[47.511757,38.969508],[47.525606,39.083119],[47.486022,39.094668],[47.42153,39.049761],[47.354144,39.018187],[47.313422,39.020978],[47.238182,38.981394],[47.12346,38.825692],[47.137206,38.809466],[47.152089,38.805074],[47.139686,38.792361],[47.077158,38.755464],[47.039331,38.715182],[46.997473,38.688802],[46.847818,38.7219],[46.782189,38.707483],[46.713562,38.678466],[46.645246,38.659139],[46.59419,38.681153],[46.565665,38.735879],[46.581684,38.798201],[46.621888,38.839542],[46.648657,38.851737],[46.658889,38.866026],[46.695992,38.869204],[46.749323,38.85923],[46.762965,38.868661],[46.76989,38.89636],[46.770407,38.925557],[46.77299,38.940776],[46.793661,38.941758],[46.839963,38.912302],[46.883888,38.918736],[46.923989,38.936848],[46.986104,38.94336],[47.07292,38.989946],[47.093488,39.011857],[47.100206,39.029969],[47.103926,39.049839],[47.085529,39.110895],[47.07075,39.131178],[47.040054,39.142727],[47.026205,39.154949],[47.024965,39.16531],[47.021451,39.167196],[47.013628,39.186956],[47.020468,39.18996],[47.030907,39.199598],[47.036074,39.207014],[47.052921,39.244944],[47.089094,39.289851],[47.092505,39.299825],[47.10222,39.308403],[47.150072,39.33114],[47.249705,39.361268],[47.26132,39.366384],[47.291356,39.379613],[47.324417,39.405877],[47.324532,39.405968],[47.374245,39.455577],[47.406904,39.476816],[47.448762,39.494696],[47.518732,39.513197],[47.54116,39.51516],[47.554079,39.521982],[47.606995,39.563581],[47.62498,39.571411],[47.745282,39.623784],[47.788212,39.657651],[47.803779,39.669931],[47.823106,39.680318],[47.846877,39.685279],[47.922945,39.684142],[47.935244,39.686519],[47.945683,39.693961],[47.957258,39.707345]]]}},{"type":"Feature","properties":{"id":"IR-11","country":"IR","name_en":"Zanjan"},"geometry":{"type":"Polygon","coordinates":[[[48.882526,37.202794],[49.033317,37.126055],[49.144215,37.032391],[49.186693,36.977433],[49.245811,36.813076],[49.164369,36.790623],[49.055538,36.732539],[49.014817,36.656781],[49.035695,36.593426],[49.089335,36.539656],[49.121581,36.474596],[49.15486,36.434004],[49.20447,36.413953],[49.234752,36.412403],[49.254183,36.403876],[49.272993,36.387288],[49.299038,36.375454],[49.317641,36.348169],[49.333971,36.298715],[49.365494,36.256728],[49.388438,36.215413],[49.404251,36.109269],[49.381203,36.081984],[49.198889,36.04209],[49.097913,35.995891],[49.036728,35.939615],[49.031354,35.900083],[49.032801,35.888869],[48.94154,35.923156],[48.876014,35.926748],[48.785374,35.906336],[48.729563,35.873056],[48.693183,35.866907],[48.650498,35.865666],[48.619183,35.860085],[48.598305,35.848717],[48.601199,35.817607],[48.728013,35.724796],[48.802531,35.635784],[48.803254,35.618085],[48.766564,35.577415],[48.690909,35.555815],[48.606884,35.572661],[48.519137,35.611522],[48.30437,35.61749],[48.259515,35.640202],[48.225718,35.690225],[48.216933,35.711645],[48.197193,35.739059],[48.178796,35.752934],[47.903567,35.888972],[47.889821,35.915534],[47.906255,35.95163],[47.945632,35.985091],[47.967646,36.058316],[47.967749,36.160041],[47.948939,36.216498],[47.931576,36.218306],[47.927442,36.219547],[47.926202,36.227014],[47.929406,36.233577],[47.93354,36.239959],[47.934883,36.246832],[47.928682,36.271042],[47.930749,36.279905],[47.941084,36.287811],[47.931679,36.298818],[47.920414,36.318455],[47.910905,36.34078],[47.906978,36.360107],[47.900053,36.370649],[47.868531,36.398967],[47.86512,36.403411],[47.361275,36.484182],[47.332336,36.507694],[47.193843,36.756826],[47.187952,36.789228],[47.187642,36.8377],[47.206762,36.869068],[47.358278,36.992471],[47.400342,37.048333],[47.430108,37.065697],[47.49615,37.090889],[47.550824,37.138199],[47.585241,37.154709],[47.620691,37.166569],[47.935193,37.19574],[48.030071,37.184036],[48.09508,37.192691],[48.334135,37.172873],[48.408756,37.196231],[48.443689,37.218452],[48.455265,37.223878],[48.48441,37.230286],[48.525648,37.218297],[48.600269,37.154787],[48.631172,37.160006],[48.644607,37.177834],[48.644711,37.194758],[48.656803,37.211992],[48.676027,37.217935],[48.704552,37.205171],[48.740622,37.201399],[48.78,37.222948],[48.81514,37.231475],[48.882526,37.202794]]]}},{"type":"Feature","properties":{"id":"IR-02","country":"IR","name_en":"West Azerbaijan"},"geometry":{"type":"Polygon","coordinates":[[[44.590435,39.771527],[44.605835,39.763155],[44.63281,39.731633],[44.646504,39.719541],[44.706294,39.698043],[44.725724,39.685331],[44.806993,39.639902],[44.809647,39.636962],[44.823953,39.63054],[44.827837,39.628797],[44.849231,39.625593],[44.872279,39.625076],[44.869281,39.620528],[44.865354,39.617583],[44.886438,39.605956],[44.898427,39.584355],[44.928399,39.488237],[44.940698,39.468083],[44.961627,39.453769],[44.953307,39.441625],[44.957028,39.434493],[44.982505,39.420179],[44.987724,39.419352],[44.998576,39.41961],[45.006379,39.417957],[45.009945,39.414029],[45.012115,39.409482],[45.015629,39.405968],[45.051237,39.387093],[45.051699,39.386848],[45.057177,39.381732],[45.060484,39.3746],[45.068649,39.364213],[45.078726,39.354757],[45.087976,39.350726],[45.096038,39.341114],[45.11435,39.30935],[45.120377,39.298894],[45.128904,39.289283],[45.135828,39.278482],[45.146267,39.228666],[45.152727,39.213525],[45.178927,39.219829],[45.283106,39.193061],[45.28569,39.194921],[45.292615,39.198616],[45.30171,39.201381],[45.311115,39.200528],[45.313905,39.19425],[45.311322,39.184844],[45.311115,39.176292],[45.320933,39.172597],[45.334886,39.170427],[45.348219,39.163916],[45.353903,39.153193],[45.345273,39.138439],[45.351939,39.12831],[45.360621,39.12322],[45.369923,39.118957],[45.379328,39.111154],[45.383462,39.103247],[45.391317,39.08175],[45.396381,39.073327],[45.405838,39.067875],[45.429712,39.059477],[45.434518,39.052785],[45.432296,39.042476],[45.428214,39.034104],[45.425268,39.025629],[45.427077,39.014881],[45.438601,39.004235],[45.45984,38.993125],[45.482577,38.984392],[45.494529,38.981917],[45.488211,38.976898],[45.37783,38.885172],[45.355816,38.843417],[45.326774,38.737377],[45.34052,38.680223],[45.366048,38.627436],[45.365634,38.577801],[45.328221,38.524755],[45.156552,38.385358],[45.100328,38.310478],[45.089372,38.267019],[45.102601,38.233687],[45.165957,38.165991],[45.172778,38.165991],[45.172881,38.152194],[45.178669,38.144855],[45.186731,38.139429],[45.193242,38.131265],[45.199443,38.11341],[45.200993,38.102532],[45.196963,38.097727],[45.193862,38.092507],[45.193242,38.059253],[45.228485,37.78958],[45.248536,37.768134],[45.25298,37.760073],[45.25422,37.756042],[45.262178,37.695839],[45.257941,37.690516],[45.248536,37.68633],[45.23913,37.680129],[45.234893,37.668838],[45.242438,37.653154],[45.256184,37.633207],[45.262695,37.614965],[45.329771,37.551042],[45.354472,37.505308],[45.343103,37.381104],[45.356849,37.327179],[45.394677,37.281859],[45.686545,37.129155],[45.816666,37.110629],[45.923533,37.109208],[46.062129,37.008413],[46.078976,36.981619],[46.203309,36.925447],[46.246408,36.893356],[46.292916,36.877749],[46.322269,36.893872],[46.338702,36.914724],[46.341802,36.923638],[46.356685,36.951724],[46.389551,36.984409],[46.449496,37.015674],[46.498899,37.023994],[46.523186,37.021978],[46.550678,37.042778],[46.592743,37.064973],[46.638838,37.058927],[46.670671,37.033244],[46.710359,37.013503],[46.761311,37.004408],[46.792834,36.982652],[46.797278,36.961543],[46.784152,36.946582],[46.82384,36.853978],[46.82291,36.787471],[46.858877,36.745406],[46.956442,36.734761],[47.193843,36.756826],[47.332336,36.507694],[47.307945,36.501493],[47.278386,36.487024],[47.274148,36.467309],[47.28128,36.450721],[47.276009,36.435089],[47.258749,36.407649],[47.216477,36.368194],[47.14103,36.341245],[47.027652,36.34928],[46.923782,36.372457],[46.885542,36.393877],[46.868488,36.409096],[46.848335,36.422583],[46.834279,36.437776],[46.826941,36.449868],[46.815158,36.457775],[46.297877,36.419121],[46.04642,36.448111],[45.958776,36.420206],[45.936659,36.397159],[45.935212,36.348944],[45.88705,36.289878],[45.724476,36.247607],[45.6944,36.221045],[45.682721,36.204974],[45.66081,36.186732],[45.646961,36.138001],[45.591564,36.086945],[45.575027,36.054363],[45.535857,36.022556],[45.501957,36.005968],[45.501424,36.005435],[45.47927,36.012015],[45.453122,36.011653],[45.419946,35.998269],[45.402169,35.994238],[45.401962,35.994083],[45.401859,35.994031],[45.4016,35.994031],[45.401549,35.99398],[45.381808,35.982973],[45.359587,35.976875],[45.33809,35.979304],[45.32052,35.99398],[45.320313,35.994031],[45.32021,35.994083],[45.32021,35.99429],[45.313699,36.010413],[45.31959,36.031032],[45.331889,36.051599],[45.344188,36.067464],[45.348322,36.087514],[45.33561,36.10772],[45.304604,36.140379],[45.299539,36.161411],[45.30202,36.207558],[45.297369,36.22673],[45.282796,36.238409],[45.264193,36.250192],[45.258508,36.262232],[45.282693,36.274893],[45.263934,36.294272],[45.25701,36.311687],[45.254478,36.354785],[45.24962,36.377936],[45.238871,36.402999],[45.221301,36.42093],[45.19598,36.422429],[45.139963,36.404394],[45.110817,36.402534],[45.083739,36.412817],[45.072266,36.423411],[45.068546,36.432506],[45.066892,36.442376],[45.062086,36.455347],[45.054076,36.464959],[45.045498,36.471625],[45.03909,36.479842],[45.03816,36.494001],[45.025344,36.505215],[45.009525,36.516196],[45.005914,36.518702],[44.991393,36.53374],[44.993408,36.549656],[44.997852,36.552085],[45.010255,36.556013],[45.013252,36.557925],[45.014182,36.579009],[45.024879,36.613167],[45.04431,36.64934],[45.045911,36.668047],[45.035266,36.689596],[45.010978,36.725563],[44.996199,36.741686],[44.979456,36.749024],[44.966433,36.749334],[44.954754,36.752331],[44.944419,36.758274],[44.935221,36.767111],[44.922715,36.775896],[44.908245,36.77786],[44.87724,36.776464],[44.851195,36.781219],[44.831248,36.791916],[44.823393,36.809331],[44.834141,36.834032],[44.869643,36.868965],[44.883441,36.886845],[44.888815,36.910926],[44.884061,36.933354],[44.874863,36.949658],[44.869178,36.967357],[44.874759,36.994022],[44.885715,37.005081],[44.887368,37.015933],[44.880754,37.024925],[44.858946,37.034123],[44.847577,37.044045],[44.840601,37.047197],[44.830938,37.046835],[44.811197,37.041926],[44.801895,37.043528],[44.797296,37.048489],[44.792232,37.063734],[44.788356,37.070245],[44.781121,37.074482],[44.773628,37.076343],[44.766549,37.078952],[44.760658,37.085644],[44.752699,37.103318],[44.752544,37.113136],[44.766135,37.14192],[44.772336,37.161247],[44.766135,37.178145],[44.75673,37.195198],[44.753526,37.215326],[44.760503,37.233232],[44.772957,37.241681],[44.786754,37.248115],[44.798485,37.260311],[44.801585,37.292686],[44.778951,37.313796],[44.721384,37.343277],[44.713012,37.356791],[44.707121,37.37095],[44.698026,37.380045],[44.661646,37.375653],[44.65224,37.384024],[44.638184,37.412601],[44.622785,37.421903],[44.585578,37.424668],[44.572142,37.430791],[44.565941,37.447173],[44.579273,37.476964],[44.575243,37.493837],[44.575243,37.493992],[44.56992,37.514404],[44.571832,37.539208],[44.578343,37.56391],[44.587438,37.584012],[44.583511,37.601091],[44.56098,37.614656],[44.540878,37.632717],[44.54527,37.663025],[44.553538,37.67181],[44.588162,37.693979],[44.598394,37.707028],[44.59612,37.716381],[44.559378,37.752012],[44.534418,37.769194],[44.506461,37.779349],[44.479228,37.776868],[44.466515,37.771132],[44.450496,37.766636],[44.43644,37.767799],[44.429102,37.779142],[44.429773,37.785137],[44.433752,37.801105],[44.433029,37.806117],[44.425484,37.810768],[44.418973,37.809683],[44.4121,37.807719],[44.4044,37.809735],[44.393238,37.821078],[44.387554,37.833402],[44.383833,37.844978],[44.377942,37.854125],[44.367142,37.860222],[44.331226,37.873968],[44.319238,37.876862],[44.254435,37.870842],[44.219605,37.875312],[44.202087,37.897171],[44.205006,37.904768],[44.206376,37.908333],[44.216711,37.918591],[44.225496,37.929314],[44.22467,37.942],[44.219657,37.956082],[44.221466,37.96882],[44.227564,37.98099],[44.236038,37.993832],[44.236142,37.993987],[44.245392,38.008379],[44.269525,38.030005],[44.27831,38.045327],[44.286578,38.066308],[44.29588,38.07902],[44.309006,38.087237],[44.328281,38.094627],[44.33381,38.10088],[44.325697,38.11969],[44.327092,38.128397],[44.335361,38.134056],[44.353137,38.139999],[44.360579,38.147853],[44.36709,38.162478],[44.373239,38.182115],[44.376702,38.201545],[44.372413,38.249501],[44.400576,38.274667],[44.43675,38.29694],[44.459177,38.322416],[44.458764,38.338333],[44.451116,38.354042],[44.438817,38.367556],[44.424657,38.377038],[44.409051,38.381793],[44.396339,38.379674],[44.363369,38.36461],[44.313398,38.371819],[44.29867,38.377194],[44.289524,38.382258],[44.286578,38.390991],[44.289885,38.407373],[44.290505,38.416597],[44.287405,38.441944],[44.287508,38.453726],[44.300169,38.494034],[44.301357,38.51119],[44.292159,38.56204],[44.29681,38.601624],[44.297017,38.622321],[44.289885,38.638883],[44.282547,38.645394],[44.274899,38.649373],[44.256812,38.653921],[44.244307,38.658959],[44.247407,38.665083],[44.256089,38.671956],[44.260481,38.679242],[44.255469,38.697277],[44.250508,38.709215],[44.248648,38.721824],[44.252678,38.741822],[44.279808,38.814221],[44.275002,38.843573],[44.221982,38.863443],[44.205756,38.875664],[44.192113,38.890754],[44.182502,38.91313],[44.178161,38.9207],[44.174854,38.928374],[44.17537,38.936694],[44.174647,38.945763],[44.167102,38.95199],[44.158007,38.957468],[44.151961,38.964625],[44.147775,38.980051],[44.144675,38.98682],[44.139197,38.993771],[44.139197,38.993952],[44.153356,39.012555],[44.169531,39.023046],[44.179143,39.034931],[44.169893,39.07436],[44.174957,39.090225],[44.194801,39.120533],[44.186636,39.145131],[44.148085,39.166448],[44.10354,39.184638],[44.077702,39.200063],[44.076565,39.208693],[44.08349,39.226832],[44.082663,39.235668],[44.070571,39.255486],[44.06716,39.264013],[44.066746,39.272953],[44.069227,39.279567],[44.069434,39.287009],[44.057651,39.306801],[44.05176,39.32804],[44.047395,39.337514],[44.047213,39.33791],[44.020961,39.361991],[44.014863,39.374084],[44.026025,39.386176],[44.046386,39.396046],[44.061372,39.400284],[44.076978,39.400594],[44.099199,39.398475],[44.122247,39.400439],[44.176507,39.411549],[44.200433,39.409482],[44.269525,39.382869],[44.29495,39.381215],[44.316964,39.385297],[44.368744,39.403591],[44.387967,39.414495],[44.404814,39.43439],[44.405227,39.452477],[44.401713,39.471339],[44.406674,39.493714],[44.406829,39.493714],[44.416803,39.505548],[44.417423,39.517486],[44.414012,39.530353],[44.412048,39.544461],[44.414012,39.560894],[44.41856,39.57433],[44.451684,39.625851],[44.457627,39.638719],[44.45825,39.64252],[44.460211,39.65448],[44.455043,39.687139],[44.459487,39.698457],[44.565734,39.765894],[44.590435,39.771527]]]}}]}
