{"type":"FeatureCollection","features":[{"type":"Feature","properties":{"id":"IN-WB","country":"IN","name_en":"West Bengal"},"geometry":{"type":"MultiPolygon","coordinates":[[[[88.733082,27.148972],[88.742572,27.142737],[88.805256,27.113023],[88.827632,27.097882],[88.840809,27.075248],[88.845615,27.049565],[88.845615,26.994943],[88.845615,26.994839],[88.851713,26.945437],[88.867113,26.964247],[88.88644,26.978975],[88.906645,26.981093],[88.924474,26.961663],[88.926954,26.949416],[88.925404,26.939029],[88.9253,26.929365],[88.932328,26.919237],[88.942767,26.913707],[88.954549,26.912622],[88.965815,26.915464],[88.975323,26.921717],[88.996614,26.922751],[89.021574,26.912674],[89.04488,26.897119],[89.060693,26.881461],[89.074335,26.856398],[89.082448,26.836037],[89.096504,26.821413],[89.128079,26.813455],[89.184613,26.810561],[89.212828,26.813041],[89.240837,26.819759],[89.252619,26.826787],[89.262954,26.836348],[89.273599,26.843892],[89.286364,26.844978],[89.300161,26.844409],[89.341657,26.854331],[89.368895,26.837359],[89.407338,26.813403],[89.442891,26.797022],[89.50542,26.803688],[89.546503,26.797539],[89.586087,26.784051],[89.611357,26.765964],[89.613475,26.748549],[89.597507,26.720954],[89.609806,26.712221],[89.628307,26.712531],[89.66324,26.725502],[89.685151,26.724571],[89.738739,26.703281],[89.75467,26.700989],[89.760288,26.70018],[89.800079,26.70049],[89.804058,26.699767],[89.81367,26.696149],[89.817287,26.696201],[89.822093,26.701007],[89.825245,26.707673],[89.826796,26.713513],[89.826744,26.715683],[89.827261,26.717905],[89.827674,26.722453],[89.829741,26.72762],[89.834961,26.731548],[89.839043,26.731238],[89.847001,26.72483],[89.850774,26.723176],[89.858701,26.722057],[89.853978,26.709429],[89.874649,26.654446],[89.87899,26.636979],[89.888498,26.532903],[89.873409,26.510372],[89.871858,26.507039],[89.870825,26.503938],[89.869895,26.500062],[89.858526,26.471046],[89.853565,26.451797],[89.843436,26.382163],[89.841576,26.379295],[89.839302,26.376995],[89.82659,26.369967],[89.818218,26.364205],[89.815221,26.360975],[89.814808,26.356247],[89.815118,26.347901],[89.825453,26.340382],[89.829794,26.334207],[89.828864,26.327851],[89.822042,26.324595],[89.806539,26.320409],[89.781528,26.308679],[89.778634,26.305578],[89.774293,26.297362],[89.75879,26.263178],[89.743184,26.253566],[89.732642,26.250646],[89.730368,26.244057],[89.732642,26.237546],[89.737913,26.230389],[89.738843,26.218503],[89.735329,26.211708],[89.727268,26.206204],[89.708354,26.201037],[89.687063,26.193001],[89.657829,26.187174],[89.658382,26.207859],[89.653008,26.22269],[89.634921,26.225842],[89.61332,26.219383],[89.606396,26.211011],[89.608463,26.180677],[89.615284,26.169101],[89.614406,26.164192],[89.593993,26.169722],[89.586759,26.169205],[89.579937,26.166104],[89.573426,26.16073],[89.562781,26.142591],[89.569395,26.130086],[89.585777,26.122903],[89.604225,26.120732],[89.592546,26.113963],[89.57787,26.107245],[89.566915,26.098977],[89.567018,26.087091],[89.57694,26.082647],[89.590789,26.085024],[89.603864,26.084662],[89.611357,26.072208],[89.602882,26.055258],[89.559163,26.022237],[89.550689,25.995055],[89.551825,25.981516],[89.549087,25.968855],[89.541697,25.959709],[89.528416,25.957125],[89.518184,25.962086],[89.509451,25.972628],[89.495343,25.995055],[89.490641,25.997329],[89.485628,25.998724],[89.480615,25.999241],[89.426407,25.995055],[89.426355,25.994952],[89.421187,25.993195],[89.416123,25.992626],[89.411266,25.993195],[89.406615,25.995055],[89.391422,26.015467],[89.379743,26.015312],[89.367754,26.005442],[89.351476,25.996864],[89.335301,25.998569],[89.315147,26.006786],[89.296906,26.018155],[89.272979,26.043476],[89.237633,26.0581],[89.229261,26.067196],[89.22306,26.086574],[89.212621,26.098977],[89.197842,26.10771],[89.131593,26.133755],[89.11919,26.146622],[89.111697,26.164502],[89.103377,26.22517],[89.095884,26.241035],[89.075885,26.271059],[89.069426,26.287389],[89.068857,26.314261],[89.08033,26.315604],[89.094799,26.309506],[89.103532,26.313692],[89.102912,26.327335],[89.095729,26.334518],[89.071855,26.340616],[89.055215,26.347023],[89.054078,26.353948],[89.057282,26.36263],[89.052631,26.374619],[89.043743,26.381078],[89.02178,26.386246],[89.010877,26.390173],[89.001781,26.39715],[88.986537,26.412704],[88.975323,26.417872],[88.959303,26.428569],[88.950157,26.43694],[88.94101,26.439421],[88.924577,26.432135],[88.911968,26.421231],[88.899462,26.404488],[88.891246,26.385781],[88.891866,26.368779],[88.912433,26.348935],[88.941217,26.340099],[88.966021,26.328472],[88.975323,26.299946],[88.981731,26.291833],[88.989689,26.289404],[88.998629,26.291523],[89.007983,26.297156],[89.004365,26.27571],[89.0116,26.269199],[89.023537,26.268837],[89.034338,26.265788],[89.039712,26.247185],[89.019455,26.234472],[88.975323,26.224344],[88.946849,26.232922],[88.902718,26.272919],[88.875794,26.277364],[88.855641,26.265116],[88.840654,26.232043],[88.824841,26.226566],[88.807995,26.233439],[88.798486,26.24765],[88.792027,26.2646],[88.784017,26.279947],[88.747947,26.292505],[88.663404,26.264444],[88.645834,26.27602],[88.653276,26.2831],[88.690121,26.299843],[88.702988,26.309661],[88.712238,26.328265],[88.709706,26.340616],[88.69627,26.350279],[88.673378,26.360718],[88.667435,26.368159],[88.66852,26.385729],[88.661079,26.388881],[88.652242,26.391517],[88.649865,26.39839],[88.651932,26.407071],[88.656273,26.415133],[88.633018,26.420094],[88.622373,26.424538],[88.611521,26.430843],[88.603563,26.440196],[88.597878,26.451461],[88.591161,26.461228],[88.579172,26.466034],[88.557984,26.465724],[88.549768,26.466654],[88.526823,26.475388],[88.506825,26.487635],[88.49866,26.49487],[88.487911,26.505773],[88.475405,26.514972],[88.462383,26.528821],[88.446467,26.535539],[88.411016,26.545099],[88.397891,26.55869],[88.394997,26.578379],[88.395927,26.599566],[88.394377,26.618015],[88.385282,26.623544],[88.372518,26.611607],[88.36027,26.593107],[88.352829,26.578689],[88.332365,26.514662],[88.319342,26.49487],[88.313865,26.481537],[88.315105,26.465052],[88.322546,26.451772],[88.335621,26.448206],[88.34022,26.454149],[88.34301,26.477196],[88.346524,26.484018],[88.353552,26.484586],[88.37691,26.475336],[88.434581,26.465156],[88.461143,26.45389],[88.475405,26.432031],[88.495456,26.378081],[88.497626,26.352708],[88.475405,26.355808],[88.467912,26.354051],[88.45799,26.353018],[88.448637,26.353431],[88.442022,26.356118],[88.431687,26.362216],[88.426003,26.357927],[88.421197,26.348729],[88.413807,26.340202],[88.366781,26.313434],[88.351692,26.30098],[88.336602,26.281808],[88.332933,26.267235],[88.334535,26.230803],[88.326267,26.21592],[88.308697,26.206102],[88.250303,26.188015],[88.229787,26.184036],[88.218884,26.18016],[88.211959,26.173752],[88.205654,26.166414],[88.196921,26.159645],[88.163796,26.140473],[88.155632,26.128484],[88.144469,26.095876],[88.141369,26.090502],[88.139922,26.085334],[88.141162,26.075464],[88.14478,26.070503],[88.150981,26.066989],[88.156407,26.061408],[88.157905,26.050452],[88.151032,26.031332],[88.125866,26.0134],[88.106539,25.979966],[88.088039,25.923225],[88.082664,25.915939],[88.077393,25.912786],[88.074396,25.908135],[88.082044,25.863849],[88.088969,25.848656],[88.087574,25.839974],[88.087574,25.830983],[88.103335,25.814808],[88.108038,25.806281],[88.114911,25.787264],[88.127726,25.774914],[88.146433,25.77574],[88.166225,25.783647],[88.18271,25.792432],[88.227462,25.804266],[88.259915,25.789021],[88.320273,25.725253],[88.392981,25.680759],[88.41944,25.653784],[88.423781,25.592237],[88.437785,25.579835],[88.475405,25.562575],[88.485586,25.542628],[88.512767,25.523714],[88.520467,25.509297],[88.530286,25.500202],[88.550956,25.496481],[88.593589,25.495086],[88.613175,25.486404],[88.645421,25.467336],[88.66635,25.462891],[88.67808,25.465889],[88.687072,25.473898],[88.69565,25.483614],[88.706192,25.491675],[88.71415,25.492812],[88.723142,25.491417],[88.732651,25.491003],[88.742572,25.495189],[88.741952,25.512759],[88.772338,25.501959],[88.780968,25.495189],[88.793112,25.48196],[88.805824,25.471676],[88.814919,25.458602],[88.816315,25.437208],[88.799313,25.401706],[88.799623,25.395609],[88.810372,25.388426],[88.813266,25.380054],[88.814041,25.370391],[88.81833,25.359642],[88.841998,25.332822],[88.849026,25.327189],[88.859258,25.324709],[88.880187,25.323468],[88.88613,25.319076],[88.902873,25.303418],[88.926489,25.300472],[88.975323,25.302643],[88.982713,25.294478],[88.984935,25.284969],[88.982351,25.274892],[88.975323,25.265229],[88.937754,25.240166],[88.929073,25.229417],[88.927988,25.21593],[88.930778,25.202649],[88.927884,25.192727],[88.909642,25.189161],[88.924163,25.167871],[88.898635,25.169318],[88.830216,25.191332],[88.823601,25.194846],[88.81709,25.196809],[88.809132,25.195259],[88.802517,25.188128],[88.792337,25.166579],[88.784224,25.160946],[88.724537,25.166475],[88.664593,25.186888],[88.634259,25.192262],[88.599119,25.19314],[88.590127,25.190143],[88.577725,25.177482],[88.570697,25.173245],[88.55938,25.170764],[88.554677,25.171126],[88.550026,25.173142],[88.523154,25.179808],[88.491838,25.191125],[88.475405,25.195104],[88.441299,25.18973],[88.43148,25.173038],[88.434168,25.116659],[88.425796,25.051056],[88.414117,25.021523],[88.391018,24.99509],[88.387865,24.968761],[88.37567,24.94561],[88.340892,24.90414],[88.322753,24.874684],[88.313606,24.868302],[88.296812,24.869698],[88.25485,24.879955],[88.242758,24.880601],[88.24188,24.898766],[88.232836,24.918273],[88.21878,24.935146],[88.20245,24.9453],[88.18302,24.94698],[88.16452,24.941114],[88.114911,24.916413],[88.114911,24.912021],[88.120337,24.906775],[88.124936,24.898145],[88.138062,24.863496],[88.140955,24.844583],[88.13124,24.831767],[88.117391,24.819261],[88.107779,24.801097],[88.094808,24.803112],[88.088245,24.796136],[88.085352,24.784018],[88.084008,24.770453],[88.07698,24.761177],[88.064268,24.759162],[88.053209,24.754976],[88.048455,24.711206],[88.035432,24.693817],[88.027164,24.67573],[88.02179,24.645603],[88.04091,24.640435],[88.05724,24.634105],[88.067265,24.613667],[88.081838,24.599869],[88.08499,24.593875],[88.08499,24.541733],[88.086023,24.53672],[88.090002,24.533],[88.098787,24.522484],[88.107934,24.507963],[88.10995,24.500986],[88.138785,24.49525],[88.401301,24.369418],[88.475405,24.315468],[88.49835,24.310972],[88.5631,24.308207],[88.612451,24.292885],[88.634517,24.294125],[88.649503,24.315364],[88.660149,24.338257],[88.681801,24.33389],[88.714564,24.315416],[88.737508,24.287097],[88.743038,24.247539],[88.74495,24.243379],[88.747482,24.226972],[88.749807,24.223251],[88.746397,24.214079],[88.734821,24.198421],[88.731617,24.189842],[88.731456,24.189771],[88.715907,24.182918],[88.69379,24.175321],[88.683765,24.166536],[88.67808,24.154289],[88.678287,24.144651],[88.68299,24.124291],[88.681801,24.112664],[88.675393,24.091838],[88.674101,24.08264],[88.67901,24.071219],[88.697821,24.056259],[88.700921,24.04365],[88.725002,24.038379],[88.725468,24.028896],[88.71384,24.014685],[88.701593,23.995281],[88.708363,23.98355],[88.714357,23.964404],[88.717148,23.943139],[88.71415,23.925156],[88.704435,23.913709],[88.666505,23.8795],[88.653121,23.869784],[88.633949,23.866141],[88.613175,23.867847],[88.593589,23.866916],[88.577621,23.85516],[88.574366,23.845626],[88.575451,23.836556],[88.577621,23.827616],[88.577518,23.818521],[88.57235,23.806894],[88.557674,23.785681],[88.552713,23.774984],[88.552507,23.765424],[88.559741,23.750283],[88.561188,23.741007],[88.540104,23.649953],[88.541551,23.638765],[88.550956,23.634424],[88.56124,23.632486],[88.566356,23.62874],[88.564392,23.616208],[88.561085,23.608612],[88.561705,23.602023],[88.57142,23.592334],[88.581549,23.588329],[88.601289,23.590344],[88.609247,23.588794],[88.624233,23.573859],[88.647643,23.535076],[88.664489,23.518307],[88.69379,23.499807],[88.704642,23.495182],[88.719421,23.468104],[88.731927,23.472625],[88.743709,23.489317],[88.756835,23.498799],[88.770168,23.488826],[88.767894,23.467277],[88.719266,23.348292],[88.69503,23.312609],[88.685935,23.293308],[88.686607,23.271604],[88.69658,23.252354],[88.710016,23.241218],[88.775697,23.221633],[88.786187,23.221529],[88.794197,23.224966],[88.800967,23.230754],[88.809545,23.236051],[88.822671,23.237963],[88.839621,23.23481],[88.909642,23.212434],[88.918066,23.208584],[88.926954,23.206517],[88.954239,23.207422],[88.959975,23.202693],[88.95982,23.194451],[88.954704,23.183806],[88.945868,23.174349],[88.919099,23.153859],[88.864787,23.100271],[88.8513,23.07513],[88.848716,23.023841],[88.839414,22.995368],[88.838794,22.975808],[88.842773,22.964568],[88.861738,22.942399],[88.872177,22.926767],[88.893468,22.879638],[88.905147,22.866435],[88.933103,22.858115],[88.944524,22.848012],[88.946798,22.834525],[88.945144,22.815094],[88.941217,22.795664],[88.936876,22.782331],[88.926231,22.767035],[88.914965,22.7544],[88.908144,22.740784],[88.910573,22.722593],[88.92251,22.693706],[88.92592,22.680839],[88.930003,22.658618],[88.942354,22.637482],[88.952017,22.611903],[88.95641,22.584979],[88.950312,22.561983],[88.927988,22.548134],[88.959045,22.536817],[88.970982,22.527928],[88.979974,22.490928],[88.998371,22.451241],[89.002505,22.427986],[89.000748,22.420131],[88.99217,22.406954],[88.989482,22.39667],[88.989586,22.386903],[89.001523,22.333677],[89.006949,22.321429],[89.023537,22.294816],[89.00912,22.285618],[89.018628,22.264689],[89.062295,22.211565],[89.070718,22.194822],[89.076196,22.17503],[89.078159,22.150845],[89.060693,22.130485],[89.060395,22.129869],[89.060313,22.130601],[89.043712,22.137397],[89.048595,22.122952],[89.045665,22.112047],[89.039887,22.100898],[89.036876,22.085598],[89.04005,22.069525],[89.054047,22.043647],[89.057384,22.031236],[89.065603,21.967108],[89.060883,21.938463],[89.036876,21.925116],[89.023123,21.931098],[89.013031,21.929429],[89.008067,21.920559],[89.009532,21.904608],[88.993012,21.912665],[88.96046,21.934312],[88.944672,21.938788],[88.937836,21.948717],[88.934581,21.969306],[88.928722,21.986558],[88.91391,21.986558],[88.90504,21.969428],[88.910818,21.946479],[88.924083,21.926337],[88.937836,21.91767],[88.951915,21.913886],[88.968272,21.904731],[88.99586,21.884182],[89.01588,21.853339],[89.030935,21.770453],[89.043712,21.733344],[89.047862,21.728013],[89.067882,21.709133],[89.082774,21.678209],[89.085216,21.674709],[89.088227,21.633734],[89.082693,21.617336],[89.06422,21.609198],[89.053233,21.609809],[89.044688,21.613511],[89.038829,21.619452],[89.036876,21.626899],[89.033946,21.633246],[89.027599,21.624579],[89.021658,21.611802],[89.019786,21.606106],[89.000255,21.60342],[88.975759,21.615912],[88.933849,21.643948],[88.896983,21.650133],[88.891612,21.65351],[88.886078,21.661811],[88.881602,21.672024],[88.872081,21.74901],[88.866059,21.766832],[88.858653,21.766832],[88.855724,21.748847],[88.841563,21.716254],[88.838227,21.701972],[88.842947,21.684149],[88.859874,21.652574],[88.858653,21.636542],[88.844249,21.622219],[88.823985,21.617255],[88.805837,21.62287],[88.797862,21.640204],[88.814789,21.653876],[88.81837,21.65762],[88.818533,21.665839],[88.816661,21.675035],[88.810883,21.691718],[88.804942,21.671861],[88.800466,21.661851],[88.7942,21.65762],[88.784028,21.655951],[88.779063,21.65119],[88.77711,21.643541],[88.776866,21.63345],[88.781749,21.614244],[88.791026,21.598863],[88.796641,21.584418],[88.790538,21.568264],[88.762462,21.555854],[88.727875,21.559882],[88.70753,21.578315],[88.722179,21.609198],[88.687999,21.678127],[88.684906,21.697211],[88.703624,21.810614],[88.698009,21.825507],[88.694509,21.83983],[88.714692,21.897854],[88.71697,21.951972],[88.722179,21.966132],[88.733165,21.9772],[88.746837,21.987128],[88.758311,21.999457],[88.763031,22.017279],[88.754649,22.037584],[88.717052,22.058051],[88.708507,22.072211],[88.714854,22.086982],[88.730154,22.103583],[88.763031,22.130561],[88.743907,22.12934],[88.726573,22.121161],[88.712169,22.109036],[88.701671,22.095852],[88.694835,22.081529],[88.692882,22.065863],[88.699474,22.053209],[88.718516,22.048041],[88.730724,22.037177],[88.723318,22.013088],[88.701671,21.97602],[88.698416,21.962592],[88.689952,21.94599],[88.678722,21.936672],[88.667003,21.945014],[88.656261,21.941067],[88.642589,21.940904],[88.63087,21.945461],[88.625987,21.955512],[88.627452,21.970404],[88.631684,21.979804],[88.646332,22.00023],[88.653494,22.018012],[88.652599,22.031806],[88.648774,22.046047],[88.64503,22.075141],[88.639496,22.097235],[88.639496,22.109524],[88.656993,22.151068],[88.674001,22.162055],[88.683116,22.184963],[88.679942,22.204413],[88.660167,22.205024],[88.661143,22.198961],[88.656016,22.183254],[88.649669,22.169094],[88.646332,22.167792],[88.644298,22.162299],[88.634939,22.144965],[88.63087,22.1258],[88.622081,22.116034],[88.619151,22.109524],[88.618337,22.102973],[88.619965,22.078315],[88.625499,22.059272],[88.625987,22.048041],[88.620372,22.029975],[88.60255,22.006415],[88.598643,21.990302],[88.600271,21.947211],[88.598399,21.929348],[88.567068,21.850816],[88.564626,21.832343],[88.56544,21.771186],[88.564626,21.766832],[88.581309,21.769436],[88.604177,21.778754],[88.624034,21.778022],[88.632823,21.750067],[88.630219,21.731757],[88.623383,21.710273],[88.612641,21.697496],[88.598643,21.70539],[88.591807,21.70539],[88.59962,21.637274],[88.595063,21.612128],[88.578136,21.62344],[88.578136,21.571682],[88.572276,21.557929],[88.55893,21.555569],[88.54477,21.561998],[88.536469,21.5751],[88.530284,21.564399],[88.529633,21.553371],[88.534434,21.542914],[88.543956,21.534084],[88.51295,21.524644],[88.493907,21.534817],[88.487966,21.556545],[88.495616,21.581855],[88.502126,21.589342],[88.5088,21.594387],[88.514008,21.600816],[88.516124,21.612616],[88.516612,21.62641],[88.518809,21.639146],[88.52296,21.649888],[88.529633,21.65762],[88.509532,21.712307],[88.504893,21.741523],[88.512706,21.763414],[88.532888,21.795315],[88.531016,21.824123],[88.51588,21.850816],[88.495616,21.876695],[88.514659,21.916205],[88.514985,21.937201],[88.495616,21.951809],[88.499848,21.933661],[88.492361,21.922024],[88.481212,21.909898],[88.474457,21.890326],[88.477061,21.871812],[88.492035,21.837144],[88.495616,21.818671],[88.4935,21.805162],[88.488292,21.803656],[88.481456,21.805162],[88.474457,21.800971],[88.468272,21.777248],[88.457693,21.758857],[88.45338,21.741767],[88.452159,21.722805],[88.454763,21.70539],[88.468598,21.677151],[88.472179,21.663275],[88.468272,21.643948],[88.456309,21.62401],[88.441905,21.616156],[88.426117,21.611029],[88.409679,21.59927],[88.393077,21.600246],[88.383556,21.631415],[88.382823,21.671332],[88.392589,21.698554],[88.380626,21.696194],[88.364513,21.686957],[88.355724,21.684963],[88.346202,21.688625],[88.340668,21.697496],[88.336436,21.708726],[88.331228,21.719062],[88.326345,21.711086],[88.324718,21.701361],[88.327403,21.691107],[88.345714,21.6706],[88.349457,21.660956],[88.348806,21.650295],[88.34547,21.636542],[88.33546,21.61579],[88.321788,21.605658],[88.309744,21.610175],[88.304454,21.63345],[88.302013,21.745185],[88.298188,21.764106],[88.289806,21.780219],[88.273123,21.797919],[88.261567,21.798651],[88.264171,21.775295],[88.295421,21.676581],[88.297048,21.653876],[88.294444,21.642808],[88.28419,21.621243],[88.283376,21.609198],[88.287608,21.600287],[88.300629,21.589342],[88.304454,21.581855],[88.305837,21.571682],[88.303722,21.568793],[88.297862,21.566555],[88.28712,21.558295],[88.278982,21.555162],[88.266124,21.55386],[88.254405,21.554674],[88.249278,21.558295],[88.245942,21.579901],[88.237478,21.601711],[88.224376,21.613023],[88.208263,21.602973],[88.189464,21.641791],[88.181895,21.665229],[88.180919,21.684963],[88.19044,21.704088],[88.203461,21.724351],[88.21046,21.74726],[88.201427,21.774319],[88.209727,21.78856],[88.203787,21.805406],[88.154063,21.888088],[88.156423,21.897854],[88.159434,21.906155],[88.146739,21.959215],[88.149913,21.976386],[88.156261,21.990871],[88.164317,22.003119],[88.206798,22.053371],[88.222423,22.077948],[88.212738,22.100043],[88.20338,22.15176],[88.198009,22.167792],[88.165294,22.185004],[88.118419,22.200181],[88.081309,22.217353],[88.077322,22.240424],[88.059744,22.229478],[88.043468,22.224758],[88.027029,22.227851],[88.009044,22.240424],[87.985118,22.265937],[87.972667,22.283189],[87.967459,22.298489],[87.964203,22.319281],[87.950694,22.356187],[87.94752,22.373847],[87.946137,22.394924],[87.94044,22.413031],[87.927989,22.424221],[87.906586,22.42475],[87.906586,22.418606],[87.922862,22.397773],[87.935802,22.35517],[87.94752,22.277655],[87.95281,22.262437],[87.965343,22.244818],[87.991954,22.215888],[88.008474,22.204901],[88.025401,22.200914],[88.057384,22.198879],[88.09547,22.19123],[88.132579,22.179145],[88.160981,22.156562],[88.173513,22.116889],[88.164317,22.089789],[88.140636,22.060126],[88.111176,22.034857],[88.084727,22.020697],[88.048595,22.020738],[88.043142,22.017279],[88.045177,22.006537],[88.049001,21.995429],[88.050792,21.985012],[88.046886,21.97602],[88.0324,21.95718],[87.983653,21.854193],[87.97047,21.836493],[87.957774,21.828925],[87.948009,21.825385],[87.909028,21.798814],[87.902192,21.79682],[87.899181,21.794827],[87.895681,21.789374],[87.894786,21.778754],[87.892914,21.774319],[87.867198,21.7508],[87.833995,21.729315],[87.755707,21.691718],[87.703787,21.655504],[87.683849,21.650133],[87.6421,21.652086],[87.621349,21.650621],[87.477387,21.613593],[87.468284,21.63005],[87.436555,21.675628],[87.43087,21.689322],[87.427873,21.703663],[87.42746,21.718184],[87.431284,21.746451],[87.431594,21.761592],[87.424463,21.774744],[87.408546,21.786138],[87.275014,21.813966],[87.251967,21.822105],[87.239668,21.832595],[87.231503,21.848098],[87.225612,21.863575],[87.219617,21.884995],[87.214656,21.92414],[87.206801,21.941426],[87.190678,21.956205],[87.155435,21.972096],[87.136625,21.977238],[87.120812,21.976928],[87.112957,21.971398],[87.106239,21.961735],[87.100761,21.951296],[87.094147,21.942201],[87.085155,21.93662],[87.076163,21.932899],[87.069135,21.927577],[87.063451,21.918171],[87.059213,21.90719],[87.047845,21.902178],[87.031412,21.907991],[87.004953,21.936982],[86.995858,21.957032],[86.993688,21.972483],[87.004747,22.000053],[87.005573,22.004833],[87.005677,22.01398],[87.004747,22.02571],[87.000922,22.045218],[86.999372,22.049895],[86.996272,22.055476],[86.987383,22.066586],[86.97126,22.079531],[86.943768,22.096404],[86.892712,22.116583],[86.876589,22.119813],[86.861396,22.120511],[86.848167,22.119296],[86.833904,22.121751],[86.781608,22.155185],[86.766725,22.167717],[86.749052,22.174306],[86.732102,22.178156],[86.715462,22.183504],[86.70461,22.188698],[86.686523,22.218024],[86.693344,22.224329],[86.706677,22.23301],[86.723937,22.242157],[86.728691,22.246472],[86.733859,22.24673],[86.750602,22.240503],[86.761867,22.240607],[86.767035,22.246704],[86.769205,22.257376],[86.767758,22.277349],[86.772306,22.283911],[86.780264,22.286702],[86.795767,22.285229],[86.833904,22.28833],[86.849614,22.294428],[86.852508,22.302024],[86.848374,22.310086],[86.831114,22.325692],[86.816644,22.336389],[86.803312,22.348378],[86.797731,22.365379],[86.79587,22.398659],[86.789876,22.415635],[86.773753,22.432352],[86.760937,22.44124],[86.729828,22.456097],[86.72311,22.461963],[86.718149,22.469404],[86.713602,22.482943],[86.712258,22.492762],[86.712051,22.498162],[86.712258,22.499816],[86.712568,22.500823],[86.713498,22.502167],[86.716289,22.505578],[86.721766,22.505888],[86.7413,22.502374],[86.750912,22.502684],[86.757113,22.505836],[86.759387,22.512089],[86.758973,22.518677],[86.757216,22.526429],[86.749362,22.5448],[86.74006,22.55821],[86.726521,22.571568],[86.702336,22.585883],[86.685386,22.590792],[86.639601,22.591541],[86.625028,22.595753],[86.611386,22.604254],[86.601257,22.619033],[86.594642,22.632546],[86.586891,22.680683],[86.524362,22.729414],[86.498731,22.743134],[86.490773,22.744064],[86.482608,22.742411],[86.469585,22.742824],[86.452325,22.745356],[86.399099,22.784966],[86.394758,22.799306],[86.395585,22.812665],[86.400236,22.839356],[86.400649,22.862998],[86.401889,22.872868],[86.411398,22.894882],[86.414808,22.905941],[86.413878,22.915423],[86.410261,22.926249],[86.410468,22.935784],[86.414808,22.943458],[86.441473,22.964025],[86.452842,22.968908],[86.467208,22.972474],[86.483021,22.974179],[86.495217,22.976944],[86.501108,22.97927],[86.505862,22.98405],[86.506482,22.988339],[86.503072,22.992034],[86.49501,22.994979],[86.47775,22.995522],[86.468345,22.998467],[86.464004,22.99932],[86.462867,23.00025],[86.462144,23.000844],[86.459043,23.00255],[86.450465,23.004203],[86.314039,23.008596],[86.260503,23.01981],[86.218025,23.019887],[86.207586,23.013841],[86.19291,23.007743],[86.178027,23.005728],[86.163558,23.011051],[86.142474,23.028259],[86.020207,23.152592],[86.001914,23.165098],[85.982587,23.175046],[85.959952,23.179128],[85.942486,23.180343],[85.900111,23.166364],[85.888432,23.163083],[85.885538,23.166338],[85.880267,23.177009],[85.8782,23.188792],[85.871172,23.210702],[85.839133,23.240623],[85.829831,23.260803],[85.832725,23.283127],[85.843991,23.307027],[85.85939,23.3293],[85.87479,23.346766],[85.880681,23.356301],[85.883368,23.36785],[85.885022,23.391131],[85.889052,23.402577],[85.89422,23.409838],[85.89484,23.416478],[85.885022,23.425883],[85.87851,23.428053],[85.847194,23.425883],[85.84151,23.430095],[85.836963,23.439241],[85.830658,23.448388],[85.823113,23.453866],[85.82239,23.470196],[85.82549,23.479317],[85.828901,23.483063],[85.849468,23.493192],[85.903005,23.502674],[85.919025,23.501796],[85.942486,23.502855],[85.996436,23.511511],[86.004808,23.514224],[86.010595,23.518565],[86.015866,23.529313],[86.014419,23.538434],[86.001397,23.572334],[86.000363,23.579517],[86.002224,23.585641],[86.007288,23.593625],[86.015556,23.60179],[86.024651,23.606751],[86.039121,23.607164],[86.056381,23.602513],[86.098342,23.578742],[86.129141,23.578354],[86.134515,23.558872],[86.12356,23.514224],[86.121493,23.500891],[86.1217,23.499264],[86.122423,23.497197],[86.126454,23.492468],[86.134205,23.488282],[86.149088,23.486577],[86.157666,23.483812],[86.184848,23.472263],[86.203865,23.461204],[86.214304,23.449163],[86.227946,23.443246],[86.242829,23.443582],[86.273008,23.453737],[86.302464,23.478076],[86.313729,23.484562],[86.323548,23.494096],[86.328095,23.497843],[86.329749,23.49991],[86.330679,23.500607],[86.332436,23.502674],[86.336467,23.508436],[86.340188,23.518332],[86.341221,23.529908],[86.340911,23.542388],[86.342461,23.554144],[86.348352,23.567942],[86.360962,23.582075],[86.379875,23.598017],[86.410468,23.616569],[86.458527,23.638609],[86.542449,23.66021],[86.58317,23.677392],[86.646112,23.6969],[86.764038,23.71478],[86.799798,23.725529],[86.817885,23.750127],[86.822432,23.776895],[86.815921,23.796377],[86.811373,23.806532],[86.81003,23.812552],[86.80972,23.818081],[86.815094,23.836685],[86.821915,23.848932],[86.827186,23.855831],[86.846307,23.868104],[86.855505,23.878956],[86.857675,23.882909],[86.859639,23.888155],[86.861396,23.895441],[86.8646,23.902159],[86.869768,23.908386],[86.877209,23.913063],[86.889818,23.912003],[86.907285,23.905776],[86.958961,23.873091],[86.979942,23.863867],[86.996272,23.862084],[87.007847,23.861877],[87.015599,23.859603],[87.036993,23.839114],[87.056733,23.825549],[87.079677,23.815213],[87.131871,23.803121],[87.166287,23.810227],[87.170318,23.823533],[87.168457,23.829424],[87.16329,23.83777],[87.146133,23.852705],[87.139415,23.859939],[87.137245,23.867742],[87.139312,23.873323],[87.144686,23.878129],[87.154298,23.879938],[87.165047,23.878465],[87.186027,23.872781],[87.196673,23.871282],[87.205354,23.868879],[87.213003,23.862911],[87.225095,23.846297],[87.232536,23.845832],[87.241218,23.850844],[87.246489,23.864952],[87.248246,23.875959],[87.247626,23.897508],[87.250416,23.905544],[87.255791,23.909988],[87.267263,23.909833],[87.275634,23.915543],[87.282662,23.927945],[87.285143,23.940684],[87.282972,23.954869],[87.276151,23.966134],[87.256721,23.980707],[87.25238,23.987063],[87.25145,23.993213],[87.25145,24.000499],[87.247109,24.00577],[87.231296,24.019206],[87.225715,24.027345],[87.227162,24.033701],[87.235533,24.040419],[87.254757,24.046672],[87.301576,24.056852],[87.309017,24.056206],[87.316149,24.05109],[87.32173,24.042667],[87.32452,24.030782],[87.32545,24.017527],[87.328138,24.007605],[87.332168,24.002747],[87.33806,24.001843],[87.397177,24.023392],[87.417641,24.023934],[87.44658,24.0167],[87.458156,24.019826],[87.472005,24.034063],[87.48172,24.040187],[87.488748,24.046853],[87.491228,24.055922],[87.489988,24.081579],[87.492572,24.097909],[87.486888,24.124135],[87.488541,24.132429],[87.49774,24.13832],[87.506628,24.140232],[87.517273,24.138914],[87.529676,24.132972],[87.55169,24.1138],[87.563265,24.112069],[87.57205,24.117572],[87.581869,24.136537],[87.58683,24.149224],[87.58931,24.170825],[87.594065,24.178447],[87.605433,24.18209],[87.636129,24.178163],[87.650909,24.17948],[87.661554,24.186198],[87.663414,24.200409],[87.652769,24.21891],[87.645948,24.223483],[87.6414,24.223431],[87.634889,24.220537],[87.628998,24.219607],[87.624554,24.22294],[87.623313,24.230227],[87.623313,24.239994],[87.621866,24.250665],[87.623727,24.260483],[87.631478,24.269372],[87.652872,24.276891],[87.666102,24.280198],[87.691836,24.296553],[87.720568,24.317792],[87.733798,24.334691],[87.775759,24.419311],[87.77979,24.435486],[87.778446,24.446002],[87.775345,24.45551],[87.776276,24.464295],[87.78041,24.471788],[87.789298,24.479901],[87.794156,24.485767],[87.798497,24.494526],[87.80046,24.500779],[87.800047,24.50822],[87.797256,24.515041],[87.788575,24.52641],[87.787128,24.533826],[87.790848,24.562455],[87.788988,24.56956],[87.782373,24.574288],[87.771728,24.578293],[87.759843,24.581497],[87.752401,24.587233],[87.750851,24.593331],[87.757465,24.5993],[87.767697,24.601599],[87.782167,24.599817],[87.792915,24.596587],[87.803147,24.591858],[87.811932,24.586536],[87.822991,24.581394],[87.834877,24.579146],[87.849243,24.579534],[87.864229,24.582712],[87.877251,24.58868],[87.888,24.597362],[87.894821,24.604416],[87.899989,24.620952],[87.888,24.626921],[87.881592,24.626998],[87.873841,24.629789],[87.87012,24.634698],[87.873427,24.644258],[87.880662,24.65002],[87.890791,24.65586],[87.895338,24.661828],[87.895442,24.670303],[87.88893,24.680974],[87.883039,24.687124],[87.879008,24.694384],[87.877458,24.702963],[87.876838,24.716192],[87.874771,24.726088],[87.86795,24.736862],[87.861128,24.750996],[87.857924,24.755285],[87.853274,24.758437],[87.830433,24.761383],[87.823301,24.763605],[87.81741,24.767352],[87.812449,24.775697],[87.811002,24.785542],[87.81586,24.794663],[87.823715,24.796885],[87.830743,24.794818],[87.841181,24.788306],[87.848623,24.787092],[87.854204,24.789702],[87.856684,24.796058],[87.857924,24.800528],[87.861955,24.851532],[87.866709,24.86241],[87.879112,24.878688],[87.881902,24.891969],[87.880869,24.915508],[87.877458,24.938866],[87.858855,25.008887],[87.849553,25.030643],[87.844075,25.041547],[87.8356,25.047102],[87.79736,25.083741],[87.792605,25.086583],[87.786921,25.087539],[87.78103,25.08989],[87.776276,25.096789],[87.775139,25.1033],[87.776482,25.117925],[87.776276,25.12472],[87.770385,25.147949],[87.768731,25.15924],[87.769454,25.173141],[87.773278,25.18451],[87.779066,25.191977],[87.78351,25.200297],[87.783717,25.214094],[87.8171,25.246676],[87.838081,25.27776],[87.839011,25.288302],[87.829192,25.302151],[87.821234,25.322873],[87.81679,25.341115],[87.813689,25.347342],[87.806868,25.35499],[87.798807,25.365946],[87.796326,25.368116],[87.792709,25.369124],[87.788885,25.368917],[87.782063,25.366721],[87.778239,25.366204],[87.774829,25.366979],[87.772038,25.368969],[87.770385,25.371682],[87.766664,25.381965],[87.763357,25.388735],[87.761186,25.391474],[87.758396,25.393515],[87.74775,25.397391],[87.74496,25.399458],[87.743823,25.402636],[87.74558,25.406873],[87.749714,25.411317],[87.759533,25.417906],[87.764183,25.42235],[87.766974,25.426381],[87.767904,25.429714],[87.768317,25.433177],[87.768007,25.436277],[87.786094,25.446122],[87.819374,25.457439],[87.849966,25.471107],[87.863195,25.4786],[87.869707,25.486067],[87.878182,25.499762],[87.878492,25.500072],[87.878802,25.500356],[87.880352,25.501286],[87.88552,25.503663],[87.922623,25.514438],[87.94288,25.525367],[87.9558,25.534075],[87.97492,25.528313],[87.988666,25.518288],[87.990216,25.514593],[87.990526,25.507694],[88.005822,25.501209],[88.067421,25.49108],[88.06525,25.506531],[88.06494,25.519864],[88.06277,25.524592],[88.058946,25.529915],[88.050471,25.537511],[88.04613,25.542627],[88.043133,25.547097],[88.044063,25.556916],[88.052124,25.584563],[88.056775,25.614122],[88.056672,25.621279],[88.055535,25.627428],[88.050471,25.64567],[88.04644,25.668873],[88.042823,25.678149],[88.032901,25.691326],[88.005099,25.710808],[87.94257,25.735329],[87.932235,25.751297],[87.910531,25.76512],[87.904123,25.773311],[87.897509,25.786566],[87.892651,25.804188],[87.88707,25.813308],[87.882419,25.81876],[87.878078,25.822558],[87.865056,25.843901],[87.854927,25.849844],[87.824335,25.86284],[87.805421,25.873666],[87.800977,25.878782],[87.79829,25.883123],[87.79736,25.886999],[87.796119,25.890487],[87.794466,25.893665],[87.789195,25.902373],[87.787955,25.906352],[87.787438,25.911675],[87.789505,25.919168],[87.793226,25.923379],[87.80077,25.926196],[87.811002,25.928547],[87.814413,25.931802],[87.8171,25.937073],[87.824541,25.966296],[87.828366,25.975443],[87.829916,25.986579],[87.828882,25.999964],[87.828986,26.000119],[87.828986,26.000429],[87.831363,26.010557],[87.839424,26.022314],[87.86733,26.049185],[87.936679,26.099002],[87.970269,26.138302],[87.979364,26.145795],[87.985565,26.146983],[87.992387,26.146828],[87.999415,26.146027],[88.006546,26.146906],[88.016468,26.150885],[88.038068,26.171116],[88.047474,26.177111],[88.067731,26.18512],[88.079823,26.19282],[88.09791,26.211114],[88.11858,26.226487],[88.154444,26.265426],[88.167466,26.277182],[88.180489,26.285528],[88.208911,26.293589],[88.220073,26.299454],[88.251079,26.326765],[88.263688,26.332708],[88.276504,26.334904],[88.292523,26.335137],[88.297174,26.336222],[88.300171,26.338935],[88.302445,26.343896],[88.303892,26.351751],[88.303685,26.359968],[88.299551,26.368804],[88.292213,26.376452],[88.278674,26.383558],[88.25945,26.390844],[88.254489,26.396038],[88.253766,26.403582],[88.257797,26.410869],[88.263998,26.415675],[88.27423,26.420842],[88.278364,26.423685],[88.282291,26.428439],[88.278674,26.435002],[88.270819,26.444226],[88.237436,26.474638],[88.227824,26.481459],[88.216456,26.484844],[88.208704,26.488694],[88.199609,26.49598],[88.195268,26.50014],[88.195268,26.500243],[88.194958,26.501483],[88.196198,26.51262],[88.20581,26.539724],[88.203433,26.547191],[88.194028,26.549517],[88.150206,26.535306],[88.130983,26.531197],[88.121888,26.5305],[88.104628,26.535435],[88.087136,26.5391],[88.101681,26.581944],[88.14664,26.661216],[88.163383,26.705141],[88.167517,26.725037],[88.169067,26.744002],[88.167827,26.762915],[88.159042,26.802551],[88.155321,26.845598],[88.151394,26.862806],[88.142816,26.878412],[88.12044,26.90885],[88.11181,26.924301],[88.096824,26.959337],[88.076877,26.99179],[88.055948,27.018042],[88.042822,27.028946],[88.027371,27.035353],[88.009491,27.045637],[87.9913,27.081501],[87.975488,27.095143],[87.970733,27.10274],[87.969183,27.110801],[87.970837,27.119224],[87.985461,27.14837],[87.989337,27.218391],[88.004663,27.249163],[88.023186,27.242446],[88.036208,27.22932],[88.069591,27.209037],[88.077343,27.198831],[88.081167,27.1894],[88.081993,27.169582],[88.084474,27.159428],[88.088815,27.15165],[88.100597,27.143382],[88.118167,27.138499],[88.148553,27.137853],[88.193408,27.143537],[88.233095,27.137104],[88.336552,27.098966],[88.343166,27.091525],[88.34854,27.087959],[88.357429,27.085117],[88.371692,27.084574],[88.403628,27.090827],[88.423988,27.099897],[88.447656,27.114495],[88.518039,27.176223],[88.542327,27.178083],[88.613537,27.168135],[88.66449,27.173355],[88.671725,27.17121],[88.693326,27.155113],[88.719371,27.146199],[88.73291,27.148937],[88.733082,27.148972]]],[[[88.872895,21.595526],[88.88852,21.589545],[88.902029,21.580268],[88.911306,21.566881],[88.91391,21.548407],[88.90797,21.530707],[88.895763,21.528469],[88.879731,21.529975],[88.862478,21.523586],[88.838715,21.531928],[88.830821,21.577379],[88.841319,21.614],[88.872895,21.595526]]],[[[88.050548,21.70539],[88.090017,21.808661],[88.119314,21.859524],[88.146739,21.869859],[88.167003,21.765448],[88.163422,21.705471],[88.132579,21.684963],[88.144379,21.657782],[88.146007,21.643744],[88.139415,21.630316],[88.130056,21.625922],[88.1185,21.627672],[88.091563,21.636542],[88.063487,21.636664],[88.051768,21.641588],[88.043142,21.65762],[88.042247,21.668158],[88.043956,21.680854],[88.050548,21.70539]]],[[[88.636241,21.921373],[88.650157,21.927436],[88.663259,21.921291],[88.670584,21.907416],[88.667003,21.890326],[88.655284,21.866604],[88.649181,21.842353],[88.646332,21.787909],[88.636241,21.79267],[88.59962,21.803656],[88.591807,21.804389],[88.590505,21.812893],[88.584972,21.826606],[88.584321,21.835761],[88.586274,21.843004],[88.598643,21.869859],[88.616466,21.897935],[88.636241,21.921373]]],[[[88.080903,21.849351],[88.072276,21.856757],[88.071056,21.873603],[88.073904,21.892157],[88.077322,21.904608],[88.084727,21.921576],[88.094249,21.937893],[88.105724,21.947577],[88.118907,21.945014],[88.132579,21.920478],[88.125011,21.888658],[88.104991,21.861151],[88.080903,21.849351]]]]}},{"type":"Feature","properties":{"id":"IN-TR","country":"IN","name_en":"Tripura"},"geometry":{"type":"Polygon","coordinates":[[[92.259737,23.702641],[92.259309,23.706487],[92.238741,23.716848],[92.222102,23.707779],[92.209389,23.661606],[92.1943,23.648144],[92.180761,23.665378],[92.170632,23.703645],[92.150788,23.731653],[92.108414,23.718243],[92.092187,23.701345],[92.059631,23.659487],[92.042371,23.64556],[92.019013,23.640057],[92.00351,23.647421],[91.961652,23.691139],[91.949147,23.709768],[91.936641,23.72354],[91.922688,23.722972],[91.916487,23.709872],[91.91442,23.688323],[91.915971,23.65016],[91.942325,23.53443],[91.940775,23.495182],[91.918141,23.459939],[91.905118,23.446632],[91.889099,23.435935],[91.833805,23.413895],[91.817682,23.400924],[91.791637,23.368342],[91.762595,23.321549],[91.743681,23.272327],[91.749159,23.232407],[91.763938,23.200626],[91.779028,23.131767],[91.791947,23.101149],[91.795564,23.089496],[91.791327,23.080375],[91.776237,23.06526],[91.773757,23.064898],[91.764248,23.065647],[91.760941,23.065492],[91.75598,23.061539],[91.755567,23.056837],[91.75629,23.05216],[91.75505,23.048233],[91.738307,23.024668],[91.731279,23.01733],[91.714432,23.003119],[91.706991,22.995368],[91.694692,22.988133],[91.667614,22.982629],[91.654074,22.978056],[91.646943,22.976583],[91.639915,22.978004],[91.632784,22.980304],[91.625756,22.981544],[91.616661,22.978056],[91.61201,22.969839],[91.608289,22.960331],[91.602398,22.952967],[91.586068,22.944466],[91.582968,22.947903],[91.583071,22.957799],[91.576766,22.968806],[91.563124,22.974981],[91.549791,22.977229],[91.536562,22.981854],[91.523643,22.995213],[91.519406,23.005625],[91.518165,23.035081],[91.515582,23.038802],[91.506073,23.041179],[91.503283,23.044408],[91.498115,23.069962],[91.475067,23.143085],[91.470416,23.153291],[91.463595,23.184116],[91.461218,23.184426],[91.446438,23.197887],[91.445405,23.203029],[91.446748,23.208791],[91.446438,23.215535],[91.439927,23.223519],[91.439617,23.22264],[91.436207,23.215716],[91.436517,23.214863],[91.428145,23.229513],[91.413572,23.248634],[91.394349,23.262664],[91.372128,23.261889],[91.360966,23.247523],[91.355695,23.224139],[91.355901,23.179646],[91.374608,23.095723],[91.370887,23.062779],[91.337401,23.071074],[91.313527,23.101046],[91.300504,23.142309],[91.27725,23.303256],[91.272909,23.313488],[91.267535,23.321549],[91.265778,23.329352],[91.272909,23.338499],[91.282934,23.347646],[91.287275,23.355552],[91.283968,23.361443],[91.270945,23.364596],[91.25813,23.373639],[91.247898,23.393767],[91.234462,23.436271],[91.229707,23.461179],[91.22733,23.468775],[91.220819,23.477896],[91.203352,23.487921],[91.195084,23.495182],[91.185886,23.511563],[91.177514,23.544275],[91.169866,23.561974],[91.140824,23.6121],[91.136276,23.629515],[91.139687,23.65357],[91.152296,23.655095],[91.166456,23.654087],[91.175241,23.670313],[91.168936,23.685377],[91.1524,23.69101],[91.136587,23.69889],[91.132349,23.720646],[91.141754,23.739896],[91.157567,23.744986],[91.176584,23.746536],[91.194981,23.755166],[91.205213,23.771573],[91.225263,23.826144],[91.228157,23.84498],[91.224023,23.857485],[91.212758,23.88074],[91.211931,23.89446],[91.216272,23.908387],[91.250378,23.964042],[91.26092,23.977271],[91.274149,23.988227],[91.291616,23.994816],[91.304948,23.99386],[91.308433,23.992501],[91.316214,23.989467],[91.327066,23.987865],[91.339055,23.995229],[91.349287,24.036053],[91.350837,24.074242],[91.363033,24.099848],[91.404581,24.103129],[91.480442,24.088014],[91.517545,24.085198],[91.55868,24.089668],[91.581831,24.096101],[91.596507,24.10499],[91.606015,24.118865],[91.613767,24.140104],[91.624515,24.203459],[91.629063,24.215319],[91.639502,24.211702],[91.657175,24.171368],[91.666167,24.155917],[91.68415,24.145478],[91.703684,24.142946],[91.72115,24.148992],[91.732623,24.164314],[91.732002,24.181678],[91.725801,24.202064],[91.723011,24.220977],[91.732933,24.234284],[91.796598,24.221598],[91.807037,24.221133],[91.809724,24.214544],[91.811377,24.192039],[91.813755,24.183124],[91.844244,24.155323],[91.864501,24.150594],[91.87711,24.158036],[91.884345,24.175554],[91.905945,24.260639],[91.906875,24.280354],[91.896437,24.320119],[91.899847,24.33805],[91.921862,24.34451],[91.930957,24.336965],[91.953074,24.322987],[91.972194,24.316062],[91.971368,24.329679],[91.948837,24.363527],[91.949974,24.375387],[92.033379,24.36885],[92.062732,24.37102],[92.08826,24.38164],[92.107587,24.405979],[92.111204,24.434298],[92.105933,24.49525],[92.110894,24.514293],[92.123193,24.525378],[92.138593,24.533723],[92.14998,24.542183],[92.158851,24.538296],[92.221689,24.500417],[92.22789,24.495379],[92.232024,24.488402],[92.234401,24.479385],[92.234712,24.448172],[92.236262,24.437863],[92.239466,24.428923],[92.257759,24.396005],[92.26024,24.385489],[92.260756,24.36704],[92.258379,24.352002],[92.254349,24.337068],[92.220242,24.264333],[92.22541,24.25498],[92.230991,24.248029],[92.29848,24.23772],[92.304165,24.222088],[92.310056,24.21537],[92.312846,24.213044],[92.317394,24.208316],[92.321218,24.202993],[92.323905,24.196172],[92.325352,24.188343],[92.328763,24.103077],[92.327936,24.095041],[92.318737,24.057395],[92.318117,24.035949],[92.319047,24.026958],[92.320804,24.020782],[92.322665,24.017914],[92.328763,24.005822],[92.331036,23.999982],[92.331967,23.994841],[92.328763,23.979984],[92.316154,23.950296],[92.314707,23.944404],[92.313776,23.936446],[92.313466,23.912055],[92.314087,23.905802],[92.315017,23.902495],[92.319874,23.893245],[92.320908,23.889085],[92.321115,23.883762],[92.320598,23.876192],[92.321115,23.866735],[92.319978,23.857381],[92.318634,23.850534],[92.316877,23.847459],[92.312743,23.84516],[92.309332,23.845857],[92.306645,23.847718],[92.304681,23.850379],[92.302304,23.85273],[92.299204,23.854255],[92.29538,23.854591],[92.292072,23.853506],[92.289489,23.851542],[92.287111,23.849165],[92.278637,23.842137],[92.274916,23.837796],[92.270678,23.829114],[92.268508,23.822009],[92.268198,23.816118],[92.270988,23.810227],[92.270885,23.805059],[92.267061,23.796532],[92.26086,23.775655],[92.268095,23.71956],[92.259737,23.702641]]]}}]}
