{"type":"FeatureCollection","features":[{"type":"Feature","properties":{"id":"CN-XZ","country":"CN","name_en":"Tibet"},"geometry":{"type":"Polygon","coordinates":[[[78.917694,33.386258],[78.915948,33.387656],[78.824263,33.461059],[78.800905,33.494236],[78.781372,33.552785],[78.794084,33.74391],[78.787263,33.808428],[78.770313,33.872352],[78.721117,33.994386],[78.730109,34.079265],[78.806073,34.122983],[78.903225,34.158123],[78.976192,34.217163],[78.985494,34.239901],[78.988491,34.263129],[78.98539,34.286358],[78.976192,34.309173],[78.95694,34.339961],[78.985391,34.3501],[78.998724,34.3578],[79.027094,34.379504],[79.037688,34.384672],[79.204499,34.439449],[79.218917,34.44074],[79.239846,34.440534],[79.338393,34.430819],[79.364438,34.434488],[79.380922,34.439061],[79.434149,34.461721],[79.453063,34.46663],[79.481123,34.471178],[79.512646,34.471695],[79.602511,34.458672],[79.653877,34.441826],[79.705657,34.416504],[79.710588,34.414933],[79.717336,34.412784],[79.727878,34.411182],[79.742606,34.410277],[79.757024,34.41113],[79.769633,34.41423],[79.78064,34.419088],[79.793972,34.431025],[79.862702,34.521227],[79.87929,34.550243],[79.913758,34.62551],[79.937725,34.656924],[79.94311,34.663983],[79.956288,34.684757],[79.960009,34.697391],[79.963419,34.72093],[79.962179,34.735865],[79.958458,34.74868],[79.953032,34.757827],[79.916704,34.798393],[79.911123,34.807746],[79.907557,34.81834],[79.902596,34.856064],[79.89841,34.866399],[79.88115,34.893917],[79.880117,34.906035],[79.883838,34.9196],[79.900271,34.938074],[79.913138,34.947919],[79.926316,34.95474],[79.938408,34.958848],[79.951637,34.961897],[80.000988,34.968409],[80.00998,34.97107],[80.019436,34.975281],[80.029358,34.981173],[80.037885,34.989958],[80.043776,35.001223],[80.046928,35.017708],[80.045171,35.030188],[80.04021,35.040652],[80.033389,35.048765],[80.025948,35.056155],[80.019281,35.064268],[80.014165,35.073415],[80.014165,35.085921],[80.020367,35.09977],[80.036645,35.119924],[80.097313,35.179274],[80.15054,35.219453],[80.165474,35.235602],[80.176171,35.253249],[80.235599,35.375205],[80.254203,35.402723],[80.259474,35.417322],[80.262884,35.435667],[80.262729,35.468946],[80.261024,35.48631],[80.257923,35.501709],[80.258594,35.506609],[80.259629,35.514163],[80.274201,35.527599],[80.312144,35.512135],[80.319211,35.509254],[80.365042,35.474872],[80.365464,35.474556],[80.388096,35.457578],[80.486023,35.404248],[80.511965,35.396341],[80.541265,35.390915],[80.65609,35.3843],[80.67056,35.381432],[80.676761,35.379184],[80.719239,35.357119],[80.744095,35.347714],[80.758203,35.34438],[80.766109,35.343424],[80.790966,35.343631],[80.829878,35.347972],[80.846363,35.34823],[80.858455,35.347145],[80.875818,35.343424],[80.893182,35.33743],[80.955607,35.303143],[80.978861,35.293402],[80.988163,35.292394],[80.999945,35.292885],[81.019065,35.296295],[81.028832,35.299706],[81.035188,35.304202],[81.036894,35.310791],[81.033483,35.341357],[81.033328,35.348334],[81.034103,35.355052],[81.037204,35.363501],[81.04263,35.374404],[81.050691,35.383267],[81.060923,35.388564],[81.073532,35.389468],[81.091361,35.383784],[81.106554,35.374017],[81.130635,35.35376],[81.177815,35.328748],[81.210217,35.316914],[81.232902,35.31402],[81.259723,35.314176],[81.357339,35.332391],[81.377648,35.331849],[81.417387,35.326035],[81.441727,35.318981],[81.461777,35.310248],[81.54508,35.251776],[81.558722,35.244774],[81.576602,35.238986],[81.604198,35.236919],[81.711426,35.245653],[81.924333,35.292213],[82.00221,35.319447],[82.012286,35.32526],[82.02257,35.332831],[82.029856,35.340582],[82.036988,35.351977],[82.043654,35.368074],[82.056366,35.419285],[82.060242,35.426391],[82.066133,35.433651],[82.075642,35.442075],[82.086029,35.447992],[82.222248,35.505843],[82.289169,35.544962],[82.29816,35.55274],[82.304517,35.560956],[82.309788,35.571576],[82.312888,35.582738],[82.314283,35.619144],[82.318934,35.633743],[82.327926,35.643664],[82.338468,35.650434],[82.360689,35.65679],[82.373091,35.661803],[82.400531,35.679089],[82.414536,35.685729],[82.428178,35.68976],[82.458461,35.687589],[82.671781,35.65108],[82.710435,35.650176],[82.731519,35.657281],[82.784591,35.684541],[82.802781,35.689243],[82.825415,35.691775],[82.885153,35.688855],[82.912593,35.682939],[82.935899,35.674076],[82.956828,35.657204],[82.968817,35.641907],[82.976569,35.621444],[82.978429,35.600773],[82.967577,35.516179],[82.96706,35.504448],[82.96799,35.497937],[82.971763,35.490444],[82.985405,35.480677],[83.006334,35.469515],[83.042353,35.455045],[83.063902,35.440705],[83.082092,35.424686],[83.09868,35.412774],[83.121779,35.404428],[83.156713,35.407193],[83.210094,35.422774],[83.226217,35.423471],[83.246113,35.421249],[83.278049,35.413291],[83.311432,35.401044],[83.32864,35.397065],[83.35267,35.39399],[83.452612,35.393551],[83.498552,35.385153],[83.540152,35.366524],[83.564801,35.36071],[83.615083,35.359005],[83.870674,35.374534],[83.984414,35.41603],[84.009064,35.41851],[84.024257,35.418097],[84.039191,35.415616],[84.051128,35.411741],[84.113657,35.383293],[84.133191,35.377531],[84.155256,35.375567],[84.174325,35.376807],[84.214684,35.388951],[84.563449,35.559484],[84.585566,35.566667],[84.777647,35.600489],[84.847462,35.633536],[84.923633,35.689321],[85.149769,35.749808],[85.177054,35.750531],[85.214468,35.747224],[85.22408,35.745002],[85.253381,35.732238],[85.260254,35.730403],[85.270796,35.730248],[85.283508,35.731669],[85.315961,35.739473],[85.341541,35.748955],[85.36743,35.754924],[85.389341,35.756707],[85.429339,35.754381],[85.442568,35.752056],[85.452025,35.749394],[85.523855,35.71627],[85.527576,35.713298],[85.530676,35.708157],[85.543544,35.677978],[85.548711,35.668986],[85.554602,35.661984],[85.561889,35.65741],[85.571346,35.656041],[85.582663,35.657772],[85.598321,35.663844],[85.619766,35.675394],[85.716866,35.759265],[85.728855,35.766086],[85.745289,35.770401],[85.768233,35.772571],[85.929928,35.761693],[85.951219,35.764071],[85.973233,35.772235],[85.986721,35.779884],[85.993232,35.784844],[86.02801,35.826444],[86.073331,35.86037],[86.087438,35.875588],[86.110744,35.916258],[86.112605,35.921064],[86.120149,35.95765],[86.126092,35.97566],[86.128573,35.98044],[86.133172,35.985349],[86.159113,36.000232],[86.169242,36.009404],[86.178544,36.020308],[86.18676,36.034338],[86.191876,36.048704],[86.202418,36.095601],[86.206759,36.107357],[86.21234,36.115935],[86.224329,36.12503],[86.233941,36.130663],[86.245258,36.135934],[86.272388,36.145649],[86.399512,36.170041],[86.411294,36.174511],[86.419356,36.179756],[86.428503,36.187611],[86.437649,36.199109],[86.448708,36.210297],[86.459405,36.219443],[86.474753,36.223939],[86.496457,36.225283],[86.589578,36.216549],[86.661305,36.220063],[86.690295,36.225102],[86.71386,36.231458],[86.786982,36.260268],[86.820158,36.265074],[87.000819,36.274091],[87.009914,36.278199],[87.03043,36.28484],[87.063451,36.292152],[87.179878,36.301015],[87.193831,36.30396],[87.345604,36.374059],[87.364208,36.375609],[87.39449,36.370132],[87.451748,36.349254],[87.500582,36.336542],[87.514896,36.334966],[87.570914,36.333803],[87.765785,36.359745],[87.852085,36.362949],[87.887587,36.369098],[87.924535,36.38256],[87.942519,36.393309],[87.96722,36.41385],[87.976367,36.420051],[87.985979,36.425038],[87.992955,36.427234],[88.000086,36.428371],[88.078479,36.424134],[88.148759,36.428423],[88.276762,36.448577],[88.398253,36.454829],[88.459231,36.448887],[88.474786,36.445218],[88.490444,36.43788],[88.4968,36.432919],[88.500521,36.429405],[88.502846,36.426278],[88.506257,36.422868],[88.510804,36.419612],[88.516179,36.416744],[88.52238,36.414315],[88.711722,36.368401],[88.828098,36.373672],[88.83864,36.371656],[88.851249,36.367315],[88.88272,36.350185],[88.958271,36.287294],[88.974911,36.278716],[88.98292,36.276081],[88.993204,36.273962],[89.040074,36.27143],[89.078108,36.264324],[89.110509,36.262257],[89.204716,36.266365],[89.223629,36.263575],[89.677813,36.081958],[89.592961,36.072734],[89.514671,36.053252],[89.493484,36.044364],[89.466922,36.027052],[89.444908,36.006614],[89.439482,36.000335],[89.438706,35.998837],[89.437311,35.995323],[89.435141,35.987804],[89.436381,35.972792],[89.442427,35.952276],[89.45886,35.916568],[89.4724,35.89476],[89.484647,35.880187],[89.494414,35.873004],[89.511622,35.863909],[89.542214,35.851197],[89.581437,35.839777],[89.633733,35.832516],[89.676108,35.831431],[89.744838,35.838433],[89.760082,35.83802],[89.772019,35.835591],[89.781786,35.831612],[89.788763,35.826857],[89.792638,35.818047],[89.793724,35.803758],[89.788866,35.775543],[89.781321,35.753425],[89.77233,35.734615],[89.727939,35.667281],[89.715072,35.642347],[89.712902,35.629453],[89.713677,35.615759],[89.722203,35.580283],[89.722824,35.566253],[89.717397,35.550802],[89.696469,35.529253],[89.690681,35.519848],[89.690267,35.508582],[89.699879,35.497575],[89.711661,35.491012],[89.725614,35.485741],[89.736776,35.478765],[89.743442,35.469256],[89.741582,35.457216],[89.737551,35.449981],[89.73011,35.443651],[89.618696,35.387168],[89.575856,35.372854],[89.511777,35.359625],[89.50077,35.355672],[89.491623,35.350401],[89.484337,35.34221],[89.480461,35.332211],[89.479996,35.321643],[89.484492,35.294642],[89.485422,35.280689],[89.483097,35.266892],[89.478394,35.257331],[89.47395,35.251647],[89.463356,35.242604],[89.458964,35.238056],[89.455295,35.232165],[89.454054,35.22462],[89.45483,35.212838],[89.470229,35.189067],[89.493018,35.162298],[89.540199,35.115945],[89.560198,35.091967],[89.57167,35.073312],[89.573375,35.058997],[89.573375,35.044218],[89.567019,35.004375],[89.560663,34.978847],[89.560508,34.966703],[89.562678,34.95642],[89.569189,34.948048],[89.583607,34.940917],[89.609704,34.93469],[89.645412,34.933682],[89.724994,34.938488],[89.760857,34.935465],[89.778221,34.930426],[89.787677,34.926396],[89.807986,34.905983],[89.825246,34.84609],[89.812017,34.812294],[89.787677,34.786663],[89.723909,34.739637],[89.717708,34.731472],[89.715847,34.725064],[89.717087,34.715917],[89.720343,34.705324],[89.724994,34.696487],[89.73166,34.688891],[89.742202,34.68269],[89.752899,34.674318],[89.761788,34.662742],[89.791088,34.554119],[89.797134,34.505646],[89.792018,34.439681],[89.793103,34.421672],[89.795739,34.408417],[89.799305,34.403068],[89.803852,34.399244],[89.808813,34.397436],[89.824626,34.394542],[89.832998,34.390511],[89.840284,34.383328],[89.845555,34.369995],[89.84447,34.357955],[89.839302,34.347284],[89.824781,34.330256],[89.81858,34.317492],[89.795894,34.225095],[89.786592,34.198533],[89.780856,34.19104],[89.756517,34.171868],[89.739257,34.153781],[89.730575,34.148665],[89.718483,34.14572],[89.692541,34.144841],[89.680914,34.14342],[89.669907,34.139829],[89.65797,34.130966],[89.647893,34.117763],[89.636731,34.093371],[89.635904,34.074484],[89.640141,34.057973],[89.658125,34.030455],[89.664481,34.018079],[89.671457,34.000767],[89.681069,33.983404],[89.741892,33.909507],[89.761477,33.892764],[89.771399,33.887803],[89.791088,33.883436],[89.800752,33.880155],[89.877233,33.822742],[89.887,33.813854],[89.892116,33.801606],[89.89196,33.785328],[89.88948,33.766466],[89.892219,33.755614],[89.900022,33.747579],[89.928134,33.737062],[89.942552,33.729414],[89.952784,33.715513],[89.96131,33.689055],[89.964256,33.658308],[89.968803,33.64203],[89.975108,33.630557],[89.981516,33.625416],[89.988337,33.621152],[89.997949,33.616605],[90.037223,33.605081],[90.059857,33.601567],[90.081871,33.600688],[90.097426,33.597278],[90.140576,33.578209],[90.150601,33.570768],[90.160213,33.560432],[90.170186,33.540149],[90.18817,33.516998],[90.197833,33.507722],[90.201554,33.502762],[90.203208,33.500074],[90.202174,33.49209],[90.194836,33.470877],[90.192356,33.454496],[90.194216,33.431035],[90.199384,33.41486],[90.205688,33.401502],[90.243257,33.348016],[90.262015,33.3267],[90.274004,33.31608],[90.288887,33.305048],[90.30563,33.295074],[90.3232,33.288718],[90.359632,33.283808],[90.37498,33.283912],[90.410844,33.289803],[90.424383,33.288046],[90.436268,33.282181],[90.469496,33.252002],[90.582616,33.188646],[90.660337,33.155858],[90.682558,33.149346],[90.741521,33.140691],[90.773819,33.139114],[90.80405,33.140536],[90.823945,33.146013],[90.841618,33.154617],[90.857121,33.165573],[90.895465,33.201953],[90.94001,33.236628],[90.949932,33.239393],[91.020367,33.233579],[91.037472,33.234768],[91.127906,33.254327],[91.137983,33.260347],[91.142478,33.267427],[91.144339,33.276367],[91.146354,33.296624],[91.14899,33.306236],[91.152917,33.314685],[91.157671,33.321997],[91.162994,33.327113],[91.169815,33.331558],[91.177567,33.334555],[91.189194,33.336958],[91.361587,33.336958],[91.370733,33.335717],[91.37926,33.333108],[91.391404,33.326493],[91.39714,33.321274],[91.39993,33.31652],[91.399775,33.31267],[91.398225,33.309569],[91.394814,33.306029],[91.390319,33.30267],[91.384738,33.299932],[91.378536,33.298226],[91.373265,33.29727],[91.369958,33.295539],[91.368098,33.292025],[91.369028,33.284454],[91.376469,33.271251],[91.475171,33.140665],[91.542661,33.080333],[91.597438,33.05005],[91.631131,33.037467],[91.720324,32.982509],[91.735414,32.976876],[91.749366,32.975429],[91.778874,32.977807],[91.794377,32.976489],[91.813135,32.968272],[91.825744,32.955896],[91.83856,32.938403],[91.85489,32.923107],[91.924395,32.871508],[91.952352,32.857039],[91.976846,32.848615],[91.99607,32.848357],[92.009712,32.84952],[92.031003,32.853783],[92.042785,32.858279],[92.053327,32.864919],[92.061595,32.8728],[92.072913,32.880526],[92.08609,32.885642],[92.10149,32.887812],[92.119318,32.887347],[92.160608,32.880371],[92.182002,32.874454],[92.196109,32.86864],[92.20231,32.86355],[92.203809,32.858201],[92.202155,32.852362],[92.198125,32.844869],[92.191407,32.836342],[92.187738,32.827635],[92.187583,32.81531],[92.203241,32.761541],[92.210372,32.75043],[92.221379,32.744978],[92.232851,32.742601],[92.24577,32.742911],[92.256622,32.744436],[92.265769,32.747097],[92.274812,32.751593],[92.29016,32.761231],[92.297447,32.762497],[92.307059,32.760455],[92.31729,32.75521],[92.327109,32.751567],[92.334654,32.752161],[92.342457,32.756838],[92.350518,32.763194],[92.359975,32.768259],[92.372998,32.771152],[92.3854,32.769137],[92.410256,32.757846],[92.419093,32.755908],[92.425449,32.75813],[92.431805,32.762548],[92.440074,32.767018],[92.451081,32.769809],[92.465809,32.769421],[92.507977,32.756838],[92.526787,32.753427],[92.549008,32.752265],[92.5611,32.75273],[92.649983,32.740431],[92.727291,32.760559],[92.850023,32.728881],[92.90666,32.726943],[92.926194,32.72945],[92.98588,32.743661],[92.997766,32.741516],[93.005931,32.734617],[93.011873,32.716298],[93.016059,32.697694],[93.023501,32.67798],[93.031252,32.66351],[93.043964,32.652322],[93.053783,32.651625],[93.061638,32.655914],[93.069596,32.661366],[93.081688,32.665293],[93.159823,32.669014],[93.195738,32.667154],[93.218527,32.65979],[93.304827,32.609819],[93.345341,32.577702],[93.362395,32.568968],[93.382238,32.566255],[93.427559,32.570338],[93.442596,32.563336],[93.452518,32.549538],[93.461407,32.533544],[93.475463,32.518816],[93.494893,32.514036],[93.510396,32.516103],[93.534632,32.528816],[93.558662,32.54636],[93.597161,32.564576],[93.644651,32.573516],[93.734155,32.572457],[93.775134,32.566281],[93.802006,32.555197],[93.835492,32.511401],[93.852391,32.499774],[93.877402,32.495381],[93.902103,32.499128],[93.906547,32.501246],[93.910268,32.503598],[93.921327,32.50799],[93.930939,32.509618],[93.952643,32.496699],[94.004629,32.480628],[94.110773,32.478225],[94.134699,32.48763],[94.147256,32.495071],[94.151287,32.499567],[94.153561,32.503598],[94.160124,32.510031],[94.178262,32.522253],[94.207614,32.529488],[94.316858,32.540753],[94.334997,32.549951],[94.34466,32.564576],[94.347864,32.581035],[94.348174,32.596744],[94.350861,32.606098],[94.356753,32.614082],[94.370395,32.618242],[94.38042,32.614134],[94.397835,32.595272],[94.410599,32.591473],[94.426257,32.596538],[94.43773,32.60416],[94.451372,32.611085],[94.503669,32.624701],[94.520567,32.631264],[94.53731,32.640669],[94.568419,32.664131],[94.582217,32.672192],[94.60051,32.675835],[94.614928,32.672735],[94.627537,32.665913],[94.658078,32.631936],[94.67141,32.62049],[94.684484,32.612428],[94.710219,32.6],[94.721847,32.592869],[94.729753,32.58181],[94.738951,32.552639],[94.744843,32.542872],[94.75523,32.535456],[94.852226,32.50011],[94.915065,32.463342],[94.924366,32.45603],[94.931808,32.447555],[94.936769,32.438046],[94.938939,32.42815],[94.945606,32.359524],[94.948086,32.347354],[94.951342,32.337225],[94.953822,32.332652],[94.956923,32.328415],[94.968395,32.319578],[95.000072,32.30653],[95.061826,32.261209],[95.078259,32.254517],[95.116603,32.247386],[95.259075,32.244079],[95.269462,32.240901],[95.277678,32.235242],[95.28481,32.225268],[95.297367,32.202247],[95.307185,32.191679],[95.317572,32.184263],[95.333851,32.178372],[95.382116,32.170052],[95.396224,32.162068],[95.404751,32.150699],[95.408006,32.124086],[95.412399,32.113492],[95.419013,32.104966],[95.425266,32.09476],[95.426506,32.084373],[95.422321,32.073391],[95.412399,32.061041],[95.407024,32.051661],[95.406611,32.043522],[95.411158,32.036753],[95.417463,32.030629],[95.422321,32.024428],[95.424336,32.018304],[95.421494,32.012878],[95.413019,32.008331],[95.37669,32.000838],[95.372505,31.999417],[95.361963,31.989598],[95.355451,31.979935],[95.351989,31.96761],[95.354314,31.954406],[95.383977,31.90472],[95.390178,31.887925],[95.394364,31.839607],[95.398549,31.824957],[95.406766,31.810668],[95.4186,31.798499],[95.455652,31.774107],[95.486864,31.746667],[95.497096,31.741655],[95.506863,31.741784],[95.526397,31.745324],[95.557299,31.755478],[95.592698,31.761576],[95.622102,31.762351],[95.644943,31.760361],[95.725041,31.746357],[95.740699,31.737236],[95.754187,31.724291],[95.765555,31.707186],[95.773772,31.697988],[95.784779,31.694655],[95.798732,31.697006],[95.818782,31.707109],[95.833665,31.712535],[95.848858,31.714266],[95.899294,31.705636],[95.952366,31.705404],[96.027452,31.715015],[96.045332,31.715455],[96.062075,31.713775],[96.077733,31.709047],[96.094218,31.700546],[96.107963,31.688635],[96.116697,31.673545],[96.120262,31.654993],[96.121813,31.636571],[96.124758,31.621533],[96.132975,31.607296],[96.149305,31.587039],[96.155196,31.57567],[96.160467,31.561485],[96.167288,31.548049],[96.177055,31.538204],[96.193023,31.534742],[96.210283,31.539703],[96.229351,31.558022],[96.235398,31.568874],[96.236018,31.577737],[96.232142,31.582336],[96.22005,31.59138],[96.215709,31.59926],[96.214624,31.606753],[96.216019,31.620163],[96.219895,31.633677],[96.225476,31.647914],[96.230127,31.666181],[96.232297,31.681968],[96.229506,31.702148],[96.22284,31.719976],[96.212918,31.735117],[96.200154,31.74659],[96.164187,31.767932],[96.147754,31.779921],[96.141243,31.797052],[96.144964,31.819453],[96.168373,31.842811],[96.176435,31.85511],[96.181241,31.865497],[96.182636,31.871156],[96.197054,31.88193],[96.22222,31.893067],[96.278186,31.90906],[96.307435,31.906192],[96.331619,31.890948],[96.382675,31.818472],[96.413526,31.791006],[96.434507,31.776433],[96.464583,31.760671],[96.483238,31.753463],[96.560184,31.7369],[96.602094,31.732895],[96.63682,31.72641],[96.649533,31.725712],[96.664157,31.721139],[96.710407,31.691038],[96.737382,31.679798],[96.74932,31.677602],[96.763737,31.680909],[96.779912,31.69158],[96.795415,31.715455],[96.796655,31.737365],[96.791074,31.755891],[96.780532,31.772712],[96.760223,31.799015],[96.75211,31.812348],[96.748545,31.823898],[96.752885,31.838677],[96.763944,31.854671],[96.784873,31.88007],[96.789679,31.896839],[96.786372,31.910146],[96.744049,31.941849],[96.735367,31.951538],[96.733042,31.960349],[96.737692,31.96885],[96.754126,31.973837],[96.785493,31.971046],[96.803787,31.972958],[96.853913,31.990916],[96.871741,31.994352],[96.888381,31.993784],[96.902024,31.990683],[96.914581,31.990141],[96.932926,31.994404],[96.982432,32.017012],[96.999795,32.021741],[97.018089,32.022904],[97.082323,32.011896],[97.124077,32.009338],[97.142836,32.012672],[97.158649,32.020191],[97.175444,32.034402],[97.179319,32.057733],[97.183505,32.064606],[97.199783,32.067965],[97.225105,32.062979],[97.239677,32.065873],[97.25487,32.075794],[97.273164,32.100806],[97.276574,32.113802],[97.274611,32.12083],[97.267169,32.122975],[97.260348,32.123931],[97.255594,32.125094],[97.250995,32.128323],[97.247119,32.13592],[97.244793,32.148477],[97.244638,32.164471],[97.254405,32.203952],[97.265412,32.232581],[97.276936,32.252295],[97.291664,32.264956],[97.314608,32.266506],[97.335434,32.261623],[97.359773,32.260486],[97.376517,32.265964],[97.388505,32.280769],[97.388195,32.290045],[97.374863,32.306297],[97.374863,32.317304],[97.394087,32.353633],[97.395947,32.371435],[97.393156,32.384974],[97.384785,32.392545],[97.371556,32.397894],[97.351092,32.400632],[97.336364,32.405154],[97.325977,32.412234],[97.326287,32.423577],[97.334504,32.436728],[97.347681,32.453058],[97.354192,32.467398],[97.357448,32.480783],[97.358533,32.491066],[97.360859,32.500187],[97.36613,32.50166],[97.376413,32.503598],[97.400753,32.50321],[97.50116,32.484736],[97.562293,32.484348],[97.576711,32.48148],[97.589578,32.474246],[97.611644,32.452929],[97.621566,32.445798],[97.630868,32.444092],[97.642754,32.447477],[97.652779,32.454944],[97.65836,32.468639],[97.661254,32.480292],[97.666731,32.489258],[97.676808,32.495381],[97.693551,32.499774],[97.695102,32.50042],[97.696342,32.501272],[97.702853,32.509696],[97.713757,32.537265],[97.715721,32.54419],[97.817833,32.513261],[97.838039,32.511582],[97.856487,32.519126],[97.886821,32.497629],[98.014152,32.464505],[98.066965,32.422802],[98.076215,32.412983],[98.080556,32.404689],[98.090943,32.401821],[98.113733,32.402441],[98.123086,32.400297],[98.129339,32.395051],[98.135488,32.388359],[98.14448,32.381951],[98.187475,32.366707],[98.205768,32.355648],[98.213365,32.337871],[98.211814,32.296246],[98.213571,32.273173],[98.220186,32.252192],[98.271759,32.190774],[98.309586,32.128711],[98.374699,32.080419],[98.384724,32.063521],[98.393509,32.040138],[98.436917,32.003783],[98.452988,31.984095],[98.456657,31.960504],[98.452988,31.932935],[98.444978,31.908001],[98.435573,31.892214],[98.423016,31.881698],[98.419037,31.879889],[98.420846,31.878184],[98.435263,31.838419],[98.434902,31.824647],[98.425651,31.813407],[98.445495,31.803615],[98.468543,31.766873],[98.501512,31.749768],[98.541717,31.689875],[98.547918,31.684707],[98.553602,31.681348],[98.558718,31.677111],[98.563421,31.669385],[98.565953,31.660678],[98.569054,31.631842],[98.575927,31.615977],[98.592153,31.598821],[98.841027,31.396844],[98.864488,31.36775],[98.867692,31.364959],[98.884952,31.354081],[98.874565,31.341291],[98.830795,31.298374],[98.803044,31.257886],[98.781909,31.239024],[98.767801,31.230368],[98.761445,31.234295],[98.756174,31.24445],[98.731576,31.277962],[98.723928,31.285197],[98.713954,31.29101],[98.68269,31.315918],[98.665223,31.320569],[98.6491,31.316693],[98.637938,31.309278],[98.621195,31.288917],[98.611377,31.25618],[98.620265,31.187942],[98.60378,31.169751],[98.613134,31.164971],[98.638713,31.159804],[98.651581,31.155463],[98.693129,31.124741],[98.721344,31.066424],[98.726202,31.059732],[98.745219,31.040638],[98.764856,31.015187],[98.775088,31.007513],[98.79705,30.997178],[98.803044,30.990977],[98.80537,30.966353],[98.798032,30.940902],[98.78625,30.918268],[98.775088,30.902223],[98.787697,30.88088],[98.801029,30.867884],[98.833482,30.84357],[98.880559,30.793185],[98.898594,30.778716],[98.938592,30.760267],[98.954301,30.747865],[98.960709,30.727195],[98.953268,30.708229],[98.936163,30.700504],[98.917611,30.694948],[98.905467,30.682494],[98.905364,30.663813],[98.922159,30.623764],[98.926551,30.603972],[98.927481,30.593792],[98.931822,30.579555],[98.931202,30.500102],[98.932752,30.490697],[98.938178,30.485349],[98.947687,30.479225],[98.956679,30.471164],[98.960709,30.459976],[98.986754,30.144362],[99.029852,30.067932],[99.03409,30.055323],[99.036777,29.975612],[99.043392,29.944994],[99.056311,29.915332],[99.017657,29.853346],[99.005461,29.820092],[99.001017,29.784978],[99.003187,29.781102],[99.012541,29.773067],[99.014711,29.767925],[99.012851,29.764798],[99.004014,29.761672],[99.001017,29.757047],[98.988408,29.688705],[98.986754,29.650904],[98.992129,29.634703],[99.015538,29.604447],[99.024168,29.581554],[99.038741,29.567395],[99.041996,29.562459],[99.041996,29.528017],[99.058998,29.41805],[99.048818,29.387741],[99.059101,29.367174],[99.062925,29.348183],[99.062512,29.308289],[99.067473,29.296765],[99.09021,29.266793],[99.096618,29.250566],[99.108814,29.224185],[99.108814,29.223772],[99.103905,29.222919],[99.060445,29.215504],[99.043392,29.209535],[99.028974,29.207391],[99.005668,29.206745],[98.998123,29.205143],[98.990165,29.20199],[98.980243,29.193154],[98.974972,29.18163],[98.972181,29.159022],[98.977142,29.140547],[98.983654,29.125303],[98.994816,29.105717],[99.000397,29.092721],[99.006288,29.073161],[99.008355,29.057891],[99.007735,29.043731],[99.003497,29.033913],[98.992645,29.022467],[98.948927,29.000168],[98.943759,28.996525],[98.932442,28.986345],[98.917094,28.961488],[98.908413,28.936425],[98.907172,28.922188],[98.908878,28.91237],[98.91911,28.899477],[98.938023,28.880201],[98.947067,28.868548],[98.950891,28.859376],[98.949961,28.848472],[98.94562,28.842012],[98.911978,28.822143],[98.897044,28.816329],[98.873479,28.811808],[98.860767,28.813229],[98.85069,28.820076],[98.841233,28.836716],[98.820408,28.886041],[98.785009,29.000246],[98.785009,29.000349],[98.784596,29.000737],[98.783046,29.001589],[98.778705,29.003036],[98.772762,29.00345],[98.765786,29.002804],[98.76036,29.000582],[98.751833,28.994019],[98.742531,28.988903],[98.728992,28.985234],[98.66481,28.974175],[98.651271,28.970067],[98.646155,28.964382],[98.642124,28.954435],[98.635303,28.941386],[98.638248,28.930534],[98.638713,28.878651],[98.641659,28.871029],[98.654526,28.855164],[98.655095,28.850255],[98.652976,28.844984],[98.651581,28.83594],[98.653079,28.825579],[98.656697,28.819068],[98.661141,28.813229],[98.665223,28.804909],[98.678143,28.757056],[98.678659,28.749124],[98.677522,28.742354],[98.672355,28.736205],[98.618715,28.704243],[98.607346,28.694864],[98.597579,28.683211],[98.589207,28.670292],[98.584505,28.649156],[98.585022,28.626548],[98.594013,28.583165],[98.612824,28.539421],[98.635768,28.500302],[98.640212,28.485858],[98.642899,28.473146],[98.644449,28.4594],[98.644294,28.443897],[98.640419,28.424131],[98.629567,28.397363],[98.613547,28.367571],[98.575823,28.317548],[98.55722,28.299875],[98.489885,28.248069],[98.479602,28.242643],[98.447562,28.231714],[98.431543,28.236623],[98.409994,28.250602],[98.373665,28.28985],[98.34576,28.326023],[98.336768,28.335428],[98.326019,28.344446],[98.299768,28.354807],[98.282921,28.315352],[98.270829,28.261893],[98.261475,28.239672],[98.247678,28.220035],[98.23016,28.202878],[98.211969,28.191587],[98.136263,28.156447],[98.115179,28.143993],[98.115002,28.143888],[98.048619,28.199624],[98.031359,28.208331],[97.991052,28.214015],[97.984851,28.224221],[97.993842,28.25254],[97.992912,28.268922],[97.978753,28.2806],[97.94475,28.298842],[97.897518,28.355325],[97.85907,28.37013],[97.797265,28.34393],[97.765329,28.352431],[97.740008,28.38261],[97.699597,28.48803],[97.670451,28.511284],[97.641099,28.498365],[97.613607,28.481984],[97.589939,28.494696],[97.567512,28.525495],[97.546221,28.538466],[97.527721,28.529526],[97.513975,28.494696],[97.50302,28.47772],[97.488137,28.441934],[97.474598,28.426199],[97.471497,28.414959],[97.465709,28.406691],[97.450103,28.391912],[97.445349,28.382971],[97.446796,28.374006],[97.450206,28.364859],[97.452377,28.35548],[97.452377,28.317678],[97.447829,28.297602],[97.436667,28.286414],[97.41672,28.286052],[97.39822,28.288895],[97.384371,28.284838],[97.377859,28.263599],[97.369591,28.25347],[97.333831,28.235254],[97.323496,28.217478],[97.285255,28.235668],[97.229651,28.274606],[97.220763,28.283391],[97.210531,28.308092],[97.20278,28.311555],[97.193271,28.3114],[97.182729,28.314991],[97.11555,28.366564],[97.078446,28.375143],[97.032971,28.35703],[96.997417,28.337083],[96.965791,28.330468],[96.933959,28.336618],[96.897889,28.354704],[96.716924,28.436539],[96.604426,28.444534],[96.561518,28.447293],[96.512382,28.428808],[96.495226,28.42147],[96.441127,28.395416],[96.369644,28.378116],[96.301852,28.420711],[96.336459,28.479667],[96.409019,28.558929],[96.502375,28.644476],[96.501044,28.687631],[96.59801,28.70991],[96.592584,28.757884],[96.576668,28.808527],[96.523751,28.864415],[96.510832,28.885525],[96.500394,28.929243],[96.492229,28.948002],[96.474659,28.962058],[96.460086,28.96335],[96.452128,28.970378],[96.451198,28.981385],[96.457605,28.994588],[96.366568,29.036537],[96.294655,28.992324],[96.248588,28.945343],[96.195323,28.941106],[96.175954,29.017354],[96.174625,29.108845],[96.183514,29.123779],[96.193642,29.136931],[96.210075,29.145767],[96.316425,29.171864],[96.327484,29.180442],[96.342367,29.210647],[96.366862,29.244211],[96.366241,29.257233],[96.349912,29.274235],[96.337096,29.279713],[96.323247,29.27501],[96.304126,29.261212],[96.26785,29.24173],[96.235293,29.241214],[96.205424,29.256949],[96.176279,29.286456],[96.166047,29.303174],[96.150957,29.354075],[96.141966,29.368467],[96.074536,29.369286],[96.014135,29.364252],[95.953735,29.359219],[95.863134,29.323985],[95.79594,29.352886],[95.776407,29.345548],[95.744781,29.340432],[95.747365,29.273651],[95.717165,29.218284],[95.646697,29.22835],[95.592335,29.249689],[95.58169,29.247467],[95.572905,29.24726],[95.56443,29.245606],[95.553785,29.239043],[95.550684,29.230284],[95.552028,29.22013],[95.550167,29.212482],[95.515337,29.209433],[95.511927,29.197547],[95.522675,29.161193],[95.521435,29.137861],[95.511307,29.131789],[95.487577,29.068994],[95.429824,29.046525],[95.367406,29.036496],[95.281553,29.052672],[95.224916,29.059364],[95.216338,29.064997],[95.214064,29.073084],[95.212824,29.081869],[95.207863,29.089595],[95.199698,29.094246],[95.191533,29.09683],[95.116912,29.108095],[95.099032,29.11378],[95.047666,29.140806],[94.989065,29.153984],[94.891293,29.160495],[94.854086,29.170004],[94.815432,29.168867],[94.798792,29.166438],[94.776571,29.166696],[94.761482,29.174706],[94.767683,29.213851],[94.756417,29.230517],[94.704224,29.284699],[94.668464,29.30661],[94.63043,29.319452],[94.599941,29.316635],[94.582681,29.302915],[94.528628,29.23124],[94.514778,29.22106],[94.498242,29.21522],[94.474987,29.210802],[94.422381,29.210492],[94.396439,29.207081],[94.372875,29.196307],[94.36254,29.185326],[94.346313,29.159074],[94.335771,29.149617],[94.323782,29.146026],[94.287505,29.147938],[94.270786,29.09793],[94.309048,29.059668],[94.347311,29.024349],[94.291389,28.977256],[94.250183,28.933107],[94.173658,28.930164],[94.135396,28.897788],[94.079474,28.883072],[94.026849,28.864182],[94.01145,28.85302],[93.992019,28.844649],[93.993136,28.801887],[93.981591,28.768131],[93.961093,28.729943],[93.927786,28.682752],[93.86308,28.704871],[93.781744,28.680504],[93.722475,28.696647],[93.705525,28.691893],[93.664908,28.690239],[93.64341,28.68024],[93.62553,28.67236],[93.607133,28.672204],[93.551736,28.678948],[93.446213,28.671894],[93.355432,28.624065],[93.31717,28.603463],[93.302843,28.556921],[93.286972,28.520517],[93.259068,28.496023],[93.218838,28.457436],[93.186286,28.431995],[93.218073,28.394647],[93.207825,28.340539],[93.129828,28.325962],[93.046399,28.302097],[92.974924,28.282306],[92.960351,28.270214],[92.922007,28.258638],[92.903817,28.249698],[92.889554,28.235823],[92.86537,28.205205],[92.85028,28.19195],[92.834777,28.183526],[92.819895,28.179263],[92.805322,28.178023],[92.790232,28.178901],[92.785375,28.183294],[92.782894,28.190942],[92.779174,28.195903],[92.770079,28.192182],[92.70786,28.155414],[92.678611,28.133064],[92.65484,28.105831],[92.63727,28.071983],[92.638924,28.057487],[92.65422,28.052087],[92.689257,28.048315],[92.701349,28.037825],[92.701349,28.025241],[92.736392,27.985909],[92.71077,27.949702],[92.683674,27.91045],[92.636468,27.89537],[92.592912,27.868193],[92.574977,27.847806],[92.518151,27.839468],[92.475109,27.846596],[92.439039,27.82329],[92.427567,27.821171],[92.417335,27.828948],[92.404416,27.853831],[92.392841,27.856027],[92.381058,27.842462],[92.375581,27.821119],[92.367933,27.803834],[92.350053,27.802542],[92.339821,27.815564],[92.334653,27.831274],[92.329175,27.832928],[92.31729,27.803679],[92.303854,27.78616],[92.288764,27.793085],[92.275225,27.811689],[92.258275,27.848198],[92.24918,27.862642],[92.239568,27.865277],[92.126294,27.812722],[92.10616,27.786081],[92.064878,27.761721],[91.988898,27.769398],[91.968001,27.746278],[91.952247,27.72482],[91.908736,27.7319],[91.864914,27.729988],[91.856373,27.764539],[91.826589,27.807627],[91.729871,27.804136],[91.680131,27.849823],[91.628339,27.852694],[91.637124,27.87724],[91.648907,27.897213],[91.652834,27.916747],[91.637951,27.939743],[91.621725,27.950724],[91.600641,27.959276],[91.578627,27.964702],[91.537492,27.969353],[91.497495,27.984081],[91.460908,27.984365],[91.446438,27.986355],[91.436483,27.989375],[91.418843,27.994726],[91.341432,28.030564],[91.309599,28.056402],[91.290169,28.091413],[91.269705,28.072861],[91.246141,28.071466],[91.220612,28.074877],[91.194671,28.070587],[91.175861,28.057487],[91.133796,28.014105],[91.119637,27.994881],[91.11943,27.994726],[91.092558,27.971679],[91.051941,27.96279],[91.008842,27.96677],[90.975149,27.982092],[90.960577,27.994726],[90.90952,28.032657],[90.850919,28.044026],[90.788701,28.047488],[90.755278,28.055173],[90.726896,28.061699],[90.683901,28.087072],[90.667468,28.090328],[90.651035,28.086995],[90.621889,28.072965],[90.597395,28.070587],[90.575277,28.065833],[90.510061,28.074101],[90.492595,28.074412],[90.475232,28.072344],[90.485669,28.124657],[90.515299,28.154287],[90.54822,28.157579],[90.567973,28.1905],[90.597602,28.200376],[90.587726,28.233298],[90.54822,28.246466],[90.505422,28.249758],[90.45604,28.28268],[90.416535,28.28268],[90.386905,28.299141],[90.353984,28.299141],[90.329504,28.255796],[90.29147,28.261351],[90.261804,28.299141],[90.261804,28.335354],[90.225591,28.358399],[90.199254,28.348523],[90.176209,28.325478],[90.153164,28.322185],[90.123535,28.335354],[90.07086,28.34523],[89.990455,28.320624],[89.971593,28.31804],[89.952524,28.308247],[89.91613,28.315601],[89.881314,28.297525],[89.873615,28.300599],[89.862918,28.295793],[89.854029,28.287267],[89.83863,28.267914],[89.829741,28.259155],[89.796048,28.24019],[89.780855,28.228769],[89.773621,28.212775],[89.755844,28.184379],[89.71781,28.169083],[89.597817,28.149807],[89.579421,28.14464],[89.561489,28.13464],[89.515032,28.081905],[89.495343,28.068004],[89.475344,28.061337],[89.458808,28.047798],[89.444545,28.031184],[89.421187,27.994726],[89.420981,27.994726],[89.417364,27.988654],[89.370131,27.909357],[89.336025,27.869075],[89.299489,27.844245],[89.258717,27.827553],[89.22492,27.807813],[89.21659,27.771142],[89.205843,27.747435],[89.198203,27.730582],[89.156021,27.665686],[89.127359,27.62729],[89.124655,27.614852],[89.119484,27.618201],[89.109565,27.622258],[89.105865,27.622952],[89.102351,27.623611],[89.091531,27.625865],[89.064029,27.615946],[89.050954,27.608282],[89.039682,27.594305],[89.03337,27.578976],[89.016238,27.57582],[89.002712,27.560491],[89.004966,27.54967],[88.992793,27.537497],[88.978366,27.530283],[88.972955,27.517659],[88.97521,27.506839],[88.980046,27.49798],[88.982966,27.492632],[88.966202,27.47803],[88.957549,27.456939],[88.95106,27.433144],[88.964011,27.392924],[88.981175,27.354635],[88.997019,27.330869],[88.971933,27.312385],[88.950808,27.328229],[88.91516,27.330869],[88.892331,27.315543],[88.864632,27.33239],[88.852023,27.342363],[88.830836,27.367323],[88.819829,27.373627],[88.808202,27.378382],[88.795386,27.385926],[88.773578,27.408509],[88.759781,27.435071],[88.754355,27.464216],[88.757197,27.494964],[88.757559,27.511448],[88.741642,27.53168],[88.741022,27.54571],[88.748154,27.560128],[88.767377,27.586198],[88.783087,27.622036],[88.805669,27.655109],[88.853884,27.843676],[88.855072,27.859179],[88.851558,27.877163],[88.842773,27.892407],[88.818899,27.915196],[88.810682,27.927857],[88.809752,27.944497],[88.819674,27.977337],[88.81771,27.994726],[88.81771,27.994881],[88.817503,27.994881],[88.802931,28.011005],[88.780141,28.028342],[88.735648,28.055265],[88.71012,28.061983],[88.652035,28.069399],[88.631675,28.083352],[88.610488,28.105831],[88.594003,28.106606],[88.552817,28.078055],[88.530802,28.059012],[88.51716,28.039582],[88.50207,28.028885],[88.475405,28.036248],[88.455768,28.03152],[88.399906,27.994881],[88.399854,27.994726],[88.399751,27.994726],[88.37877,27.982634],[88.197851,27.958295],[88.174855,27.949768],[88.16297,27.9469],[88.151187,27.94721],[88.126693,27.95044],[88.115737,27.947262],[88.099924,27.928322],[88.097496,27.904008],[88.104885,27.879721],[88.118218,27.860885],[88.095739,27.865329],[88.052795,27.886516],[88.029954,27.893337],[88.018121,27.892149],[87.991817,27.88264],[87.978433,27.880522],[87.966392,27.882744],[87.945205,27.892304],[87.93456,27.895301],[87.856115,27.898608],[87.836685,27.908323],[87.825884,27.906566],[87.814154,27.89096],[87.798651,27.863468],[87.779841,27.839439],[87.756379,27.82037],[87.726821,27.807761],[87.700466,27.805642],[87.678529,27.813351],[87.659951,27.819879],[87.636077,27.823652],[87.621091,27.819543],[87.589981,27.804609],[87.573342,27.805022],[87.565073,27.810862],[87.559802,27.819078],[87.555978,27.827088],[87.551327,27.831894],[87.531587,27.836803],[87.514534,27.835201],[87.47557,27.826701],[87.38679,27.804402],[87.369116,27.803937],[87.369116,27.819078],[87.380692,27.835821],[87.385343,27.849412],[87.363845,27.855252],[87.335837,27.846363],[87.313926,27.828587],[87.290516,27.816081],[87.232897,27.829724],[87.181996,27.824504],[87.155796,27.825796],[87.116522,27.844581],[87.062003,27.908427],[87.030532,27.938089],[87.005676,27.951499],[86.988726,27.952481],[86.982093,27.950674],[86.970226,27.947443],[86.940357,27.943102],[86.914725,27.945117],[86.893073,27.954186],[86.876898,27.970645],[86.868165,27.994726],[86.868165,27.994881],[86.840466,28.014777],[86.76998,28.01209],[86.739801,28.021495],[86.732204,28.034957],[86.735977,28.064851],[86.731739,28.076918],[86.717683,28.088261],[86.699648,28.098751],[86.680063,28.105727],[86.661976,28.106838],[86.64947,28.10118],[86.627146,28.083481],[86.612315,28.080277],[86.596864,28.086504],[86.583118,28.098028],[86.569527,28.106606],[86.553559,28.104151],[86.544154,28.093015],[86.54126,28.07821],[86.540743,28.062164],[86.538366,28.047178],[86.530925,28.03369],[86.522295,28.023717],[86.516197,28.012245],[86.516455,27.994726],[86.516764,27.971432],[86.510461,27.952429],[86.496921,27.937882],[86.475476,27.927599],[86.438837,27.910856],[86.425298,27.909925],[86.405713,27.917005],[86.371968,27.941965],[86.362976,27.946099],[86.353674,27.944807],[86.345613,27.940931],[86.337551,27.938037],[86.327733,27.939691],[86.318224,27.945789],[86.29466,27.972376],[86.278072,27.983694],[86.259003,27.987647],[86.238539,27.989559],[86.218385,27.994726],[86.21792,27.994933],[86.217765,27.994985],[86.203038,28.002581],[86.19601,28.01457],[86.189137,28.043612],[86.18185,28.054878],[86.17446,28.062448],[86.172238,28.071828],[86.180765,28.088752],[86.187173,28.108699],[86.186036,28.133529],[86.176011,28.153011],[86.15596,28.156525],[86.068731,28.076763],[86.070177,28.066712],[86.081546,28.0517],[86.084699,28.043871],[86.083923,28.038548],[86.079531,28.02165],[86.079531,28.01333],[86.077619,28.006948],[86.079169,28.001134],[86.089298,27.994881],[86.089401,27.994881],[86.089401,27.994726],[86.098134,27.985631],[86.098031,27.977518],[86.095085,27.968888],[86.095602,27.957855],[86.100563,27.950233],[86.107178,27.944239],[86.112242,27.937262],[86.112862,27.926798],[86.107178,27.922845],[86.075655,27.894784],[86.061703,27.889048],[86.0546,27.888013],[86.051419,27.88755],[86.026459,27.889927],[85.98026,27.885172],[85.96269,27.891374],[85.951218,27.91623],[85.951838,27.936797],[85.956283,27.956873],[85.956593,27.976226],[85.943984,27.994726],[85.908947,28.022425],[85.898302,28.036016],[85.890447,28.059193],[85.889827,28.071259],[85.891067,28.080897],[85.889103,28.090276],[85.87174,28.110921],[85.867037,28.132935],[85.863368,28.143348],[85.848279,28.158928],[85.826885,28.170478],[85.782753,28.1881],[85.756605,28.203241],[85.734487,28.221534],[85.715574,28.243368],[85.699761,28.269102],[85.698004,28.313441],[85.692939,28.335222],[85.679142,28.332897],[85.67599,28.324732],[85.676196,28.31512],[85.675059,28.306387],[85.668135,28.300548],[85.646947,28.2937],[85.639093,28.287887],[85.611807,28.251145],[85.59894,28.250835],[85.585504,28.263186],[85.565299,28.275381],[85.543698,28.280394],[85.52065,28.282926],[85.497551,28.282616],[85.475692,28.279102],[85.44665,28.29215],[85.43156,28.297059],[85.41523,28.296439],[85.401381,28.288791],[85.377817,28.265976],[85.362572,28.259672],[85.345364,28.261248],[85.334822,28.268689],[85.325727,28.277397],[85.312601,28.282771],[85.301025,28.281066],[85.27312,28.269826],[85.259581,28.266932],[85.243406,28.267914],[85.223924,28.271686],[85.205734,28.278275],[85.173591,28.30432],[85.154574,28.300858],[85.134162,28.291969],[85.109409,28.292254],[85.087395,28.304113],[85.080212,28.318789],[85.081867,28.331702],[85.08569,28.361526],[85.08569,28.381008],[85.077577,28.435681],[85.083674,28.445526],[85.109461,28.459298],[85.115559,28.472733],[85.115662,28.491492],[85.117212,28.497331],[85.123155,28.504592],[85.140363,28.510922],[85.14765,28.515832],[85.153748,28.524901],[85.156952,28.533143],[85.16801,28.583192],[85.160982,28.595],[85.11189,28.608823],[85.075044,28.631664],[85.054942,28.638692],[85.032101,28.634067],[85.02528,28.628409],[85.018769,28.619856],[85.009157,28.602545],[85.002491,28.594431],[84.994067,28.590814],[84.984766,28.588592],[84.954948,28.574303],[84.948954,28.568283],[84.936448,28.54477],[84.92849,28.538466],[84.918723,28.535675],[84.907871,28.537019],[84.891438,28.541773],[84.879294,28.543634],[84.823949,28.540533],[84.81196,28.54198],[84.799144,28.546631],[84.781781,28.558904],[84.755632,28.585414],[84.736615,28.594173],[84.69083,28.596137],[84.677756,28.604405],[84.682975,28.650759],[84.671141,28.658949],[84.65228,28.662386],[84.632642,28.668794],[84.625821,28.67608],[84.616209,28.69365],[84.607218,28.698198],[84.551821,28.706388],[84.531977,28.712693],[84.515647,28.7214],[84.498594,28.72786],[84.475753,28.727292],[84.450845,28.73388],[84.437822,28.753336],[84.422733,28.799173],[84.41431,28.808269],[84.393071,28.82434],[84.376586,28.848835],[84.366302,28.856741],[84.354003,28.861289],[84.285997,28.873743],[84.235147,28.90002],[84.225291,28.914115],[84.206725,28.940664],[84.231427,29.025981],[84.220575,29.0389],[84.198199,29.045308],[84.175461,29.057401],[84.169725,29.088923],[84.166211,29.098458],[84.160113,29.105486],[84.137996,29.124657],[84.13226,29.143804],[84.141716,29.160263],[84.155204,29.175946],[84.161663,29.192534],[84.155462,29.206642],[84.141975,29.20827],[84.126007,29.206255],[84.112364,29.209097],[84.105336,29.219923],[84.099135,29.247001],[84.08973,29.256613],[84.072057,29.256975],[84.05304,29.25036],[84.035211,29.247622],[84.021517,29.259766],[84.012525,29.270204],[84.000898,29.27253],[83.988237,29.269532],[83.975835,29.263745],[83.973251,29.277025],[83.967257,29.284699],[83.957955,29.28904],[83.945553,29.291831],[83.93315,29.291779],[83.914392,29.289402],[83.883438,29.282012],[83.877391,29.276767],[83.868865,29.263435],[83.86163,29.260205],[83.837859,29.254004],[83.79321,29.234754],[83.770628,29.232248],[83.745358,29.23447],[83.719727,29.233591],[83.69549,29.226176],[83.675078,29.208761],[83.66774,29.192328],[83.663399,29.174809],[83.65601,29.160779],[83.654992,29.160414],[83.639266,29.154759],[83.624435,29.155457],[83.583818,29.162149],[83.572035,29.168402],[83.56139,29.176231],[83.535965,29.179228],[83.523718,29.183594],[83.517052,29.191708],[83.514571,29.20181],[83.512504,29.223489],[83.502996,29.261032],[83.493384,29.276147],[83.475814,29.286921],[83.448219,29.296766],[83.437212,29.305241],[83.428168,29.333456],[83.417781,29.340898],[83.405017,29.346479],[83.393132,29.356245],[83.388274,29.370224],[83.389411,29.382445],[83.38724,29.393504],[83.35701,29.415363],[83.355201,29.427972],[83.357785,29.442752],[83.355201,29.460735],[83.327968,29.485023],[83.26394,29.473008],[83.247197,29.494738],[83.248748,29.506572],[83.254019,29.51329],[83.25991,29.518768],[83.26332,29.527088],[83.26084,29.542048],[83.252572,29.5552],[83.229317,29.575948],[83.221876,29.579824],[83.204926,29.584914],[83.197175,29.589099],[83.194487,29.593647],[83.19087,29.606902],[83.187253,29.612095],[83.173558,29.621268],[83.162086,29.62517],[83.150046,29.625635],[83.126688,29.623413],[83.100281,29.617676],[83.093357,29.615144],[83.088447,29.604421],[83.085553,29.590391],[83.079559,29.579643],[83.064935,29.57879],[83.054496,29.586051],[83.040905,29.610287],[83.032895,29.620467],[82.975896,29.66403],[82.964321,29.665891],[82.9421,29.662945],[82.931919,29.664185],[82.923703,29.669663],[82.90913,29.684623],[82.899725,29.688422],[82.880088,29.681109],[82.857454,29.666201],[82.836576,29.659793],[82.822365,29.677957],[82.815544,29.690127],[82.805157,29.695966],[82.793065,29.699506],[82.781076,29.705113],[82.77012,29.714156],[82.751517,29.739323],[82.690952,29.780741],[82.681754,29.797717],[82.684648,29.809706],[82.689195,29.819576],[82.688988,29.827741],[82.67731,29.834407],[82.666974,29.835028],[82.646407,29.829343],[82.635865,29.829033],[82.618502,29.839833],[82.541814,29.923239],[82.524244,29.932386],[82.475823,29.945512],[82.457065,29.95409],[82.438926,29.965769],[82.422855,29.97967],[82.409781,29.994604],[82.394433,30.003131],[82.379137,30.003234],[82.363737,30.001167],[82.347304,30.003441],[82.339087,30.009229],[82.32715,30.025714],[82.318882,30.031811],[82.296506,30.036824],[82.27599,30.036927],[82.255733,30.039666],[82.210671,30.064419],[82.192171,30.061474],[82.17424,30.055479],[82.153827,30.058166],[82.144526,30.069432],[82.135224,30.089741],[82.128713,30.110773],[82.127576,30.124364],[82.150985,30.162243],[82.155688,30.181363],[82.140391,30.194024],[82.114243,30.202189],[82.095898,30.213454],[82.084994,30.230817],[82.0821,30.257327],[82.093211,30.31474],[82.088767,30.330088],[82.073212,30.337219],[82.049854,30.339235],[82.007635,30.336806],[81.998178,30.334067],[81.988463,30.329778],[81.978851,30.326832],[81.969032,30.328279],[81.962108,30.333653],[81.950119,30.348381],[81.941231,30.353962],[81.92149,30.357373],[81.887177,30.354996],[81.844389,30.371171],[81.822788,30.368173],[81.801497,30.3613],[81.779018,30.358045],[81.757366,30.362902],[81.635719,30.410961],[81.614015,30.416904],[81.591588,30.414269],[81.585077,30.408119],[81.581976,30.399438],[81.576705,30.390963],[81.563269,30.385588],[81.544252,30.382643],[81.536811,30.37856],[81.531953,30.370344],[81.520688,30.331948],[81.509371,30.328382],[81.483067,30.331896],[81.46281,30.341353],[81.42612,30.372514],[81.407413,30.37918],[81.387518,30.373909],[81.384882,30.360939],[81.387259,30.345126],[81.382143,30.331276],[81.37155,30.31691],[81.368036,30.301046],[81.369017,30.266061],[81.370516,30.257276],[81.376924,30.241204],[81.377854,30.232626],[81.374392,30.223118],[81.361834,30.204772],[81.357287,30.17356],[81.350052,30.15723],[81.33827,30.143536],[81.322405,30.133769],[81.309538,30.132064],[81.29326,30.132839],[81.277705,30.131857],[81.266956,30.125087],[81.266336,30.117749],[81.274501,30.102195],[81.275948,30.095373],[81.272021,30.079922],[81.267903,30.072053],[81.266801,30.069949],[81.257086,30.063541],[81.239516,30.058787],[81.225719,30.050467],[81.227269,30.022458],[81.21683,30.008195],[81.194506,30.004475],[81.148101,30.023233],[81.124588,30.022768],[81.097768,30.016929],[81.084849,30.026179],[81.084454,30.027876],[81.074203,30.071912],[81.066607,30.087157],[81.043663,30.12023],[81.030898,30.152734],[81.019426,30.172268],[81.006507,30.188908],[80.996017,30.196969],[81.003303,30.212731],[80.996275,30.22689],[80.976018,30.255209],[80.943772,30.270143],[80.866981,30.288488],[80.781663,30.320993],[80.767194,30.331431],[80.754998,30.345797],[80.735361,30.378199],[80.723062,30.392048],[80.694743,30.411737],[80.596351,30.459796],[80.575267,30.466255],[80.559971,30.465118],[80.545088,30.461036],[80.525141,30.458607],[80.508295,30.462328],[80.475429,30.480466],[80.424992,30.497829],[80.325877,30.546509],[80.252806,30.565009],[80.21622,30.566818],[80.179839,30.559479],[80.188418,30.576998],[80.197823,30.591364],[80.2033,30.60635],[80.19989,30.625884],[80.190588,30.637976],[80.177255,30.649862],[80.16692,30.661902],[80.16661,30.674408],[80.172915,30.679162],[80.18201,30.680041],[80.191725,30.679679],[80.19989,30.680712],[80.207021,30.686138],[80.231412,30.724947],[80.224591,30.734094],[80.196066,30.748098],[80.169297,30.785254],[80.157102,30.79316],[80.140669,30.793212],[80.109249,30.778122],[80.092196,30.774505],[80.062534,30.784789],[80.044447,30.8067],[80.028634,30.830781],[80.005586,30.847266],[79.934893,30.872535],[79.91937,30.881182],[79.914635,30.883819],[79.903164,30.890209],[79.880426,30.912843],[79.862856,30.941523],[79.85035,30.954494],[79.833504,30.961522],[79.76064,30.977232],[79.739039,30.979247],[79.6885,30.967413],[79.648192,30.96576],[79.630312,30.962504],[79.589488,30.940231],[79.577809,30.938371],[79.565923,30.942454],[79.544219,30.947414],[79.529646,30.953564],[79.512697,30.966173],[79.497607,30.981211],[79.488202,30.994492],[79.486858,31.000228],[79.484275,31.005447],[79.480761,31.010046],[79.47642,31.014025],[79.46164,31.021105],[79.446344,31.023792],[79.430738,31.023172],[79.414408,31.020382],[79.401592,31.023637],[79.394978,31.036711],[79.388363,31.069474],[79.382593,31.078335],[79.372343,31.094072],[79.367048,31.111559],[79.319417,31.14228],[79.302162,31.16345],[79.303209,31.183104],[79.298078,31.203242],[79.288321,31.225474],[79.278316,31.240044],[79.25286,31.245437],[79.24843,31.256704],[79.262024,31.278513],[79.25411,31.299006],[79.239239,31.311724],[79.238319,31.329656],[79.207628,31.351373],[79.192442,31.369789],[79.179218,31.393796],[79.157693,31.414926],[79.131397,31.438433],[79.07799,31.461664],[79.07021,31.461381],[79.049937,31.422953],[79.015529,31.383397],[78.988801,31.343256],[78.959552,31.325117],[78.940282,31.301576],[78.921008,31.269685],[78.89261,31.281772],[78.886972,31.284171],[78.861987,31.291476],[78.848654,31.290908],[78.821989,31.293698],[78.796048,31.288117],[78.784472,31.288272],[78.753156,31.301966],[78.745095,31.308116],[78.740857,31.317728],[78.73848,31.334988],[78.745508,31.373538],[78.760081,31.412037],[78.762561,31.44511],[78.733003,31.467744],[78.695382,31.488105],[78.699516,31.510016],[78.796978,31.578849],[78.814031,31.595023],[78.818889,31.607374],[78.795324,31.633781],[78.758117,31.666595],[78.739824,31.666027],[78.731349,31.668042],[78.724011,31.673313],[78.71843,31.6806],[78.710472,31.69817],[78.698069,31.711037],[78.693212,31.71853],[78.692592,31.7284],[78.695175,31.737961],[78.695589,31.746694],[78.670887,31.770517],[78.674091,31.78695],[78.700343,31.821676],[78.706648,31.840797],[78.714192,31.883016],[78.720187,31.902912],[78.741994,31.945338],[78.744578,31.9642],[78.733829,31.984664],[78.722151,31.994586],[78.678329,32.016755],[78.649287,32.036444],[78.551825,32.15039],[78.534978,32.181344],[78.513068,32.20757],[78.476481,32.224417],[78.469017,32.226533],[78.468541,32.226668],[78.457981,32.229662],[78.456327,32.242116],[78.461391,32.260151],[78.462735,32.281803],[78.43886,32.373296],[78.435966,32.377973],[78.434519,32.383761],[78.43638,32.396163],[78.441444,32.404948],[78.448162,32.410658],[78.452193,32.416782],[78.448782,32.426782],[78.409198,32.476623],[78.380983,32.528041],[78.384807,32.547549],[78.408165,32.558376],[78.447542,32.566256],[78.589859,32.569925],[78.630166,32.578013],[78.647736,32.585971],[78.664893,32.599019],[78.694452,32.629663],[78.713262,32.637518],[78.736827,32.629844],[78.750986,32.612791],[78.749126,32.595867],[78.740651,32.578684],[78.734966,32.560649],[78.73693,32.545792],[78.754707,32.493806],[78.77145,32.461663],[78.855682,32.400452],[78.881521,32.376268],[78.911286,32.354745],[78.943429,32.346373],[78.976192,32.361618],[78.989834,32.364098],[79.014742,32.373994],[79.028178,32.377095],[79.039651,32.375984],[79.066316,32.370067],[79.075307,32.37079],[79.09174,32.390556],[79.102902,32.449855],[79.112928,32.472386],[79.132875,32.48546],[79.1614,32.496467],[79.191166,32.50427],[79.215247,32.507914],[79.235608,32.504296],[79.287412,32.532579],[79.320466,32.592267],[79.379477,32.57645],[79.40682,32.529683],[79.443497,32.534773],[79.472113,32.565472],[79.515741,32.60812],[79.531201,32.648317],[79.57617,32.670646],[79.620673,32.728725],[79.613913,32.765035],[79.564093,32.793928],[79.471089,32.908959],[79.414089,32.972053],[79.378462,32.978881],[79.333586,32.994292],[79.339787,33.013257],[79.399273,33.026878],[79.381063,33.061768],[79.37317,33.11214],[79.423475,33.157825],[79.456096,33.250399],[79.420084,33.275169],[79.340307,33.275132],[79.260061,33.291776],[79.150213,33.292555],[79.125038,33.290203],[79.098028,33.287655],[79.075048,33.295743],[79.053278,33.307873],[79.023041,33.31798],[78.993449,33.330782],[78.964986,33.344254],[78.917694,33.386258]]]}}]}
