{"type":"FeatureCollection","features":[{"type":"Feature","properties":{"id":"ES-B","country":"ES","name_en":"Barcelona"},"geometry":{"type":"Polygon","coordinates":[[[2.778497,41.645582],[2.651866,41.605292],[2.449474,41.535224],[2.428966,41.518948],[2.371349,41.489203],[2.296723,41.465318],[2.267345,41.448635],[2.240408,41.420966],[2.191905,41.356757],[2.163259,41.326646],[2.130544,41.303656],[2.060313,41.274604],[2.019705,41.265855],[1.951345,41.260688],[1.884125,41.247504],[1.86378,41.238105],[1.854015,41.235989],[1.819835,41.237128],[1.62436,41.192165],[1.627829,41.217984],[1.624226,41.223169],[1.617238,41.225916],[1.584235,41.228838],[1.57393,41.234353],[1.574677,41.245252],[1.578962,41.249207],[1.605505,41.258974],[1.612163,41.264785],[1.615503,41.272399],[1.613942,41.281792],[1.608603,41.288494],[1.586081,41.301029],[1.566064,41.334109],[1.563449,41.358246],[1.559626,41.366255],[1.536818,41.385239],[1.485271,41.40752],[1.471867,41.426636],[1.480964,41.454124],[1.482766,41.476602],[1.458969,41.490631],[1.404719,41.506682],[1.397424,41.52125],[1.427658,41.552396],[1.436623,41.566657],[1.431108,41.573963],[1.418408,41.576116],[1.392678,41.575028],[1.407092,41.590464],[1.388723,41.600374],[1.36998,41.602933],[1.374199,41.619336],[1.389448,41.628521],[1.436843,41.63676],[1.438513,41.643506],[1.406806,41.704151],[1.409487,41.782538],[1.41219,41.789251],[1.420759,41.797161],[1.432273,41.801445],[1.444643,41.802017],[1.455827,41.798776],[1.474065,41.780044],[1.482238,41.776836],[1.510473,41.781319],[1.519416,41.779967],[1.543432,41.76374],[1.553078,41.763718],[1.560241,41.767838],[1.630224,41.829054],[1.633916,41.838491],[1.633234,41.84872],[1.614624,41.884173],[1.615612,41.895686],[1.643188,41.929162],[1.643562,41.95443],[1.646242,41.961593],[1.653449,41.968097],[1.662458,41.970338],[1.694077,41.970108],[1.70469,41.973755],[1.712358,41.980039],[1.715808,41.987894],[1.714358,41.996046],[1.707282,42.00322],[1.700493,42.00578],[1.693791,42.005626],[1.669138,41.997617],[1.664084,41.998925],[1.659777,42.003594],[1.657844,42.01168],[1.660854,42.018425],[1.682607,42.033565],[1.688781,42.041881],[1.692385,42.051648],[1.693132,42.061865],[1.689441,42.079257],[1.690144,42.084695],[1.694121,42.088782],[1.707063,42.092254],[1.712578,42.096022],[1.715698,42.104811],[1.706755,42.130794],[1.707019,42.134837],[1.708183,42.138869],[1.7126,42.145878],[1.716071,42.148526],[1.727717,42.153755],[1.733518,42.16005],[1.737165,42.16829],[1.738088,42.177178],[1.735803,42.185429],[1.732067,42.189373],[1.701064,42.201051],[1.695022,42.205995],[1.690627,42.212356],[1.683134,42.249347],[1.6832,42.256115],[1.68632,42.262124],[1.715588,42.288118],[1.842546,42.306311],[1.913913,42.318374],[1.938237,42.314287],[1.973086,42.294962],[1.987324,42.29416],[2.015954,42.299401],[2.029973,42.29872],[2.036125,42.296599],[2.040651,42.293523],[2.043881,42.289107],[2.046167,42.282932],[2.046716,42.272726],[2.043112,42.264827],[2.029182,42.251325],[2.023886,42.227341],[2.025249,42.223441],[2.045749,42.204138],[2.050869,42.19681],[2.054187,42.185297],[2.055615,42.152964],[2.058845,42.143439],[2.065546,42.137155],[2.073545,42.135957],[2.090903,42.138374],[2.098044,42.137287],[2.124082,42.12095],[2.129333,42.119588],[2.158886,42.12763],[2.204172,42.128003],[2.20861,42.129915],[2.219904,42.138286],[2.231286,42.142153],[2.280153,42.14345],[2.286394,42.13833],[2.294084,42.123444],[2.307795,42.112963],[2.327175,42.112644],[2.365891,42.121345],[2.405442,42.08108],[2.419548,42.073236],[2.459143,42.073357],[2.478435,42.063821],[2.494299,42.04677],[2.502649,42.02594],[2.499309,42.005055],[2.489377,41.990872],[2.439851,41.94942],[2.439279,41.943433],[2.444157,41.938017],[2.452353,41.932194],[2.462966,41.9209],[2.462263,41.910606],[2.442751,41.887644],[2.424426,41.889017],[2.39351,41.873812],[2.382854,41.871472],[2.337546,41.889094],[2.331745,41.886721],[2.324604,41.879382],[2.31531,41.864848],[2.317946,41.846193],[2.32968,41.825484],[2.346049,41.807916],[2.362705,41.798666],[2.370901,41.798303],[2.394543,41.804313],[2.436599,41.802874],[2.547429,41.719158],[2.636989,41.73322],[2.667839,41.747195],[2.683989,41.749678],[2.701501,41.748854],[2.747929,41.735725],[2.767771,41.721344],[2.774033,41.700382],[2.771528,41.695493],[2.762256,41.687363],[2.759597,41.682815],[2.760783,41.673543],[2.778497,41.645582]]]}},{"type":"Feature","properties":{"id":"ES-GI","country":"ES","name_en":"Girona"},"geometry":{"type":"MultiPolygon","coordinates":[[[[1.712174,42.493712],[1.730571,42.488054],[1.792686,42.481723],[1.813667,42.475238],[1.869787,42.44679],[1.893248,42.442733],[1.911955,42.441958],[1.927458,42.436894],[1.941101,42.420099],[1.954227,42.382685],[1.963735,42.367234],[1.983372,42.354548],[1.995671,42.348682],[2.00921,42.34708],[2.035255,42.349251],[2.051688,42.352351],[2.063264,42.357907],[2.08011,42.371265],[2.103985,42.38483],[2.108739,42.390644],[2.116284,42.405397],[2.121038,42.410617],[2.136954,42.416223],[2.184187,42.411805],[2.245992,42.426119],[2.277411,42.428626],[2.305316,42.416973],[2.317305,42.409609],[2.375493,42.389326],[2.406602,42.384262],[2.422518,42.383693],[2.429856,42.367544],[2.445566,42.351964],[2.464893,42.340621],[2.483393,42.336978],[2.50365,42.328451],[2.514812,42.325661],[2.525251,42.325893],[2.531969,42.330776],[2.540341,42.346977],[2.548092,42.352248],[2.567419,42.352636],[2.613411,42.340957],[2.635425,42.337882],[2.662194,42.339019],[2.66178,42.34336],[2.649378,42.353721],[2.640283,42.372841],[2.648241,42.381471],[2.690409,42.406172],[2.708082,42.41289],[2.728546,42.414027],[2.767717,42.409557],[2.788594,42.412012],[2.804614,42.419557],[2.834793,42.441312],[2.850813,42.448366],[2.866936,42.449632],[2.884092,42.449193],[2.900835,42.45126],[2.933702,42.470225],[2.966051,42.461001],[2.983104,42.469321],[2.99375,42.467616],[3.022998,42.467047],[3.029613,42.465652],[3.036021,42.454619],[3.043876,42.445266],[3.053591,42.437643],[3.06558,42.432011],[3.086147,42.427179],[3.111675,42.425008],[3.137824,42.425939],[3.18097,42.431484],[3.178722,42.417996],[3.170177,42.396593],[3.17449,42.380886],[3.17449,42.363796],[3.187348,42.349514],[3.204194,42.339586],[3.226492,42.342515],[3.249848,42.343207],[3.263031,42.32921],[3.269867,42.32921],[3.28061,42.336859],[3.293712,42.334988],[3.317719,42.322984],[3.294037,42.288031],[3.290375,42.278062],[3.287039,42.262926],[3.279389,42.255642],[3.270356,42.250108],[3.263031,42.239854],[3.247162,42.245714],[3.210134,42.239732],[3.178722,42.249701],[3.170177,42.25967],[3.151622,42.256822],[3.1303,42.239732],[3.118826,42.218329],[3.117442,42.182847],[3.116466,42.158433],[3.122488,42.140489],[3.138601,42.127631],[3.173106,42.112006],[3.192299,42.092921],[3.214496,42.068334],[3.213009,42.055986],[3.19986,42.04619],[3.195896,42.033118],[3.201589,42.017442],[3.20696,41.99669],[3.207856,41.990017],[3.211843,41.984605],[3.230561,41.973009],[3.235688,41.965522],[3.232188,41.946031],[3.207449,41.913926],[3.194916,41.888292],[3.178559,41.87523],[3.150165,41.845351],[3.116829,41.847569],[3.078631,41.826618],[3.069058,41.799076],[3.040341,41.78689],[2.950938,41.73428],[2.932991,41.712464],[2.90087,41.706706],[2.877254,41.701958],[2.851085,41.69717],[2.84018,41.694648],[2.83546,41.692572],[2.82016,41.681952],[2.817068,41.677639],[2.813162,41.670315],[2.803722,41.668647],[2.792003,41.669013],[2.778497,41.645582],[2.760783,41.673543],[2.759597,41.682815],[2.762256,41.687363],[2.771528,41.695493],[2.774033,41.700382],[2.767771,41.721344],[2.747929,41.735725],[2.701501,41.748854],[2.683989,41.749678],[2.667839,41.747195],[2.636989,41.73322],[2.547429,41.719158],[2.436599,41.802874],[2.394543,41.804313],[2.370901,41.798303],[2.362705,41.798666],[2.346049,41.807916],[2.32968,41.825484],[2.317946,41.846193],[2.31531,41.864848],[2.324604,41.879382],[2.331745,41.886721],[2.337546,41.889094],[2.382854,41.871472],[2.39351,41.873812],[2.424426,41.889017],[2.442751,41.887644],[2.462263,41.910606],[2.462966,41.9209],[2.452353,41.932194],[2.444157,41.938017],[2.439279,41.943433],[2.439851,41.94942],[2.489377,41.990872],[2.499309,42.005055],[2.502649,42.02594],[2.494299,42.04677],[2.478435,42.063821],[2.459143,42.073357],[2.419548,42.073236],[2.405442,42.08108],[2.365891,42.121345],[2.327175,42.112644],[2.307795,42.112963],[2.294084,42.123444],[2.286394,42.13833],[2.280153,42.14345],[2.231286,42.142153],[2.219904,42.138286],[2.20861,42.129915],[2.204172,42.128003],[2.158886,42.12763],[2.129333,42.119588],[2.124082,42.12095],[2.098044,42.137287],[2.090903,42.138374],[2.073545,42.135957],[2.065546,42.137155],[2.058845,42.143439],[2.055615,42.152964],[2.054187,42.185297],[2.050869,42.19681],[2.045749,42.204138],[2.025249,42.223441],[2.023886,42.227341],[2.029182,42.251325],[2.043112,42.264827],[2.046716,42.272726],[2.046167,42.282932],[2.043881,42.289107],[2.040651,42.293523],[2.036125,42.296599],[2.029973,42.29872],[2.015954,42.299401],[1.987324,42.29416],[1.973086,42.294962],[1.938237,42.314287],[1.913913,42.318374],[1.842546,42.306311],[1.833647,42.32724],[1.836482,42.335337],[1.837558,42.343028],[1.836525,42.350685],[1.833032,42.35865],[1.815608,42.375965],[1.811125,42.383633],[1.810861,42.412813],[1.80717,42.418548],[1.742834,42.436159],[1.72875,42.446826],[1.719367,42.460944],[1.714072,42.477039],[1.712174,42.493712]]],[[[1.967972,42.485702],[1.978308,42.47498],[1.988436,42.458185],[1.999495,42.443896],[1.996084,42.442837],[1.986163,42.441261],[1.983372,42.441261],[1.960634,42.443715],[1.947509,42.451234],[1.945648,42.463817],[1.956604,42.481775],[1.967972,42.485702]]]]}},{"type":"Feature","properties":{"id":"ES-L","country":"ES","name_en":"Lleida"},"geometry":{"type":"Polygon","coordinates":[[[0.706757,42.846585],[0.724327,42.845293],[0.758847,42.835268],[0.776314,42.832451],[0.795744,42.833847],[0.812901,42.831624],[0.856102,42.812763],[0.885765,42.804236],[0.894446,42.799327],[0.910363,42.787674],[0.921111,42.784366],[0.93062,42.788035],[0.940025,42.793668],[0.950257,42.796123],[0.958732,42.79372],[0.975268,42.783746],[0.982916,42.780361],[1.068182,42.776124],[1.08906,42.771318],[1.106733,42.759613],[1.116552,42.745247],[1.124096,42.729744],[1.134328,42.715973],[1.151485,42.706723],[1.162544,42.705689],[1.195927,42.713647],[1.319123,42.713363],[1.342584,42.70866],[1.338243,42.694449],[1.343308,42.690444],[1.352713,42.690057],[1.361084,42.686724],[1.378758,42.663237],[1.397981,42.643626],[1.414828,42.609338],[1.429297,42.595386],[1.424853,42.589365],[1.419272,42.579263],[1.418032,42.569832],[1.426403,42.565646],[1.4263,42.561796],[1.409764,42.540609],[1.406456,42.52924],[1.428987,42.531462],[1.446557,42.519886],[1.449968,42.504073],[1.430227,42.493557],[1.424543,42.492472],[1.407593,42.486762],[1.436429,42.453482],[1.436429,42.440951],[1.447901,42.434646],[1.508466,42.428677],[1.51663,42.429504],[1.528206,42.434233],[1.534511,42.439917],[1.538851,42.445653],[1.544432,42.450356],[1.572665,42.453075],[1.607478,42.456428],[1.639517,42.466427],[1.650369,42.493402],[1.653986,42.496529],[1.656984,42.49764],[1.659774,42.496813],[1.662358,42.493712],[1.674244,42.490508],[1.686336,42.490612],[1.697498,42.494462],[1.707006,42.502781],[1.710004,42.501335],[1.711967,42.499293],[1.712691,42.496787],[1.712174,42.493712],[1.714072,42.477039],[1.719367,42.460944],[1.72875,42.446826],[1.742834,42.436159],[1.80717,42.418548],[1.810861,42.412813],[1.811125,42.383633],[1.815608,42.375965],[1.833032,42.35865],[1.836525,42.350685],[1.837558,42.343028],[1.836482,42.335337],[1.833647,42.32724],[1.842546,42.306311],[1.715588,42.288118],[1.68632,42.262124],[1.6832,42.256115],[1.683134,42.249347],[1.690627,42.212356],[1.695022,42.205995],[1.701064,42.201051],[1.732067,42.189373],[1.735803,42.185429],[1.738088,42.177178],[1.737165,42.16829],[1.733518,42.16005],[1.727717,42.153755],[1.716071,42.148526],[1.7126,42.145878],[1.708183,42.138869],[1.707019,42.134837],[1.706755,42.130794],[1.715698,42.104811],[1.712578,42.096022],[1.707063,42.092254],[1.694121,42.088782],[1.690144,42.084695],[1.689441,42.079257],[1.693132,42.061865],[1.692385,42.051648],[1.688781,42.041881],[1.682607,42.033565],[1.660854,42.018425],[1.657844,42.01168],[1.659777,42.003594],[1.664084,41.998925],[1.669138,41.997617],[1.693791,42.005626],[1.700493,42.00578],[1.707282,42.00322],[1.714358,41.996046],[1.715808,41.987894],[1.712358,41.980039],[1.70469,41.973755],[1.694077,41.970108],[1.662458,41.970338],[1.653449,41.968097],[1.646242,41.961593],[1.643562,41.95443],[1.643188,41.929162],[1.615612,41.895686],[1.614624,41.884173],[1.633234,41.84872],[1.633916,41.838491],[1.630224,41.829054],[1.560241,41.767838],[1.553078,41.763718],[1.543432,41.76374],[1.519416,41.779967],[1.510473,41.781319],[1.482238,41.776836],[1.474065,41.780044],[1.455827,41.798776],[1.444643,41.802017],[1.432273,41.801445],[1.420759,41.797161],[1.41219,41.789251],[1.409487,41.782538],[1.406806,41.704151],[1.438513,41.643506],[1.436843,41.63676],[1.389448,41.628521],[1.374199,41.619336],[1.36998,41.602933],[1.388723,41.600374],[1.407092,41.590464],[1.392678,41.575028],[1.37176,41.565415],[1.2078,41.572326],[1.20101,41.570403],[1.194616,41.56647],[1.178005,41.544519],[1.169128,41.518427],[1.170227,41.495421],[1.167502,41.486566],[1.157395,41.480249],[1.130368,41.473218],[1.117185,41.472548],[1.07302,41.482732],[1.065109,41.480831],[1.062561,41.475239],[1.063374,41.458958],[1.062033,41.45163],[1.04551,41.42668],[1.023669,41.406267],[0.989458,41.398313],[0.981921,41.391787],[0.968869,41.36442],[0.957685,41.354511],[0.879045,41.342008],[0.868718,41.343513],[0.842922,41.357576],[0.833518,41.358488],[0.827453,41.35606],[0.823652,41.351951],[0.817785,41.341173],[0.804975,41.33134],[0.758481,41.331264],[0.736442,41.318399],[0.620756,41.298667],[0.595949,41.303369],[0.570285,41.320827],[0.56187,41.323914],[0.553454,41.321925],[0.547412,41.315674],[0.538908,41.300007],[0.531372,41.292833],[0.520935,41.288922],[0.509773,41.288494],[0.500017,41.291768],[0.491623,41.299612],[0.472815,41.328264],[0.464135,41.333384],[0.454445,41.334603],[0.445239,41.33178],[0.438054,41.32476],[0.433176,41.276112],[0.385803,41.278859],[0.360371,41.232832],[0.354273,41.256293],[0.352361,41.279212],[0.377269,41.321406],[0.374014,41.338924],[0.365074,41.352567],[0.351741,41.36254],[0.335205,41.368896],[0.327298,41.370111],[0.324198,41.390161],[0.338305,41.405897],[0.348537,41.433234],[0.349777,41.452509],[0.348537,41.472094],[0.351173,41.477598],[0.361301,41.4846],[0.390447,41.49168],[0.397423,41.494289],[0.400369,41.496537],[0.402074,41.49894],[0.402539,41.500413],[0.404554,41.504211],[0.40843,41.510025],[0.413546,41.516174],[0.433132,41.533589],[0.438248,41.539713],[0.441193,41.546147],[0.437627,41.55488],[0.432977,41.561805],[0.430341,41.569349],[0.429411,41.576997],[0.429721,41.584697],[0.423985,41.592914],[0.415768,41.59542],[0.40595,41.596376],[0.395253,41.595446],[0.365177,41.59834],[0.356599,41.601621],[0.351483,41.607228],[0.348072,41.61516],[0.343266,41.6372],[0.329469,41.661747],[0.328228,41.669472],[0.328538,41.677405],[0.342646,41.693476],[0.366417,41.709961],[0.37975,41.726704],[0.386571,41.73275],[0.393857,41.736858],[0.396028,41.74231],[0.402074,41.74939],[0.40595,41.752956],[0.412823,41.756005],[0.420264,41.757762],[0.454216,41.762464],[0.464602,41.767425],[0.473181,41.7759],[0.483413,41.791971],[0.49659,41.808818],[0.500931,41.812435],[0.506667,41.816001],[0.514729,41.818326],[0.533539,41.82184],[0.54222,41.82675],[0.549662,41.834036],[0.558033,41.845172],[0.572606,41.852484],[0.580668,41.855533],[0.587076,41.861967],[0.593587,41.867548],[0.597618,41.874395],[0.595292,41.907416],[0.593277,41.913721],[0.589556,41.918579],[0.580668,41.9231],[0.56718,41.932738],[0.566095,41.938887],[0.570126,41.944908],[0.576172,41.951264],[0.583975,41.956767],[0.592812,41.960772],[0.601183,41.962038],[0.60754,41.964829],[0.61219,41.968679],[0.619322,41.979505],[0.624438,41.984776],[0.631259,41.989117],[0.642473,41.992269],[0.646814,41.996248],[0.651619,42.001881],[0.65596,42.012785],[0.654875,42.020485],[0.654875,42.026996],[0.668518,42.049165],[0.684331,42.089989],[0.684486,42.095028],[0.693942,42.100376],[0.69911,42.109368],[0.703141,42.120323],[0.706241,42.141666],[0.708877,42.152053],[0.705931,42.162233],[0.703451,42.167892],[0.705466,42.178356],[0.708257,42.188071],[0.711668,42.195358],[0.719419,42.226777],[0.721744,42.231479],[0.725775,42.235536],[0.733217,42.245225],[0.741743,42.26401],[0.743449,42.27065],[0.745619,42.288634],[0.745619,42.301682],[0.744379,42.3061],[0.749856,42.319252],[0.751252,42.328683],[0.751097,42.347958],[0.746394,42.390539],[0.738333,42.414621],[0.732907,42.426868],[0.72686,42.433328],[0.72252,42.436738],[0.718954,42.439064],[0.715078,42.443146],[0.711512,42.450794],[0.710892,42.461388],[0.708567,42.468984],[0.703606,42.477046],[0.701436,42.484332],[0.704381,42.492755],[0.710892,42.496373],[0.718334,42.496683],[0.72252,42.497251],[0.726395,42.498595],[0.730271,42.500714],[0.730581,42.503142],[0.733217,42.508775],[0.730581,42.519731],[0.734147,42.528231],[0.737557,42.533993],[0.742208,42.537714],[0.746859,42.546602],[0.752337,42.554871],[0.757298,42.560555],[0.759778,42.564663],[0.761484,42.569314],[0.762724,42.575386],[0.764429,42.589571],[0.765669,42.59492],[0.769545,42.601276],[0.768925,42.605591],[0.765514,42.609906],[0.754662,42.614453],[0.733992,42.61727],[0.725465,42.620293],[0.716318,42.625719],[0.708412,42.634194],[0.694563,42.662357],[0.675649,42.688687],[0.663426,42.696214],[0.665416,42.698661],[0.66645,42.714758],[0.659629,42.729899],[0.64764,42.741036],[0.63348,42.744782],[0.639578,42.754833],[0.643299,42.759071],[0.65074,42.763386],[0.639681,42.774677],[0.653737,42.802686],[0.651567,42.824054],[0.656321,42.83842],[0.679369,42.845112],[0.706757,42.846585]]]}},{"type":"Feature","properties":{"id":"ES-T","country":"ES","name_en":"Tarragona"},"geometry":{"type":"Polygon","coordinates":[[[1.62436,41.192165],[1.539236,41.187445],[1.288097,41.116278],[1.217784,41.104682],[1.210053,41.09988],[1.192475,41.075995],[1.18865,41.068305],[1.183604,41.062567],[1.172944,41.058661],[1.149099,41.069648],[1.141694,41.071723],[1.097667,41.070868],[1.055675,41.064887],[1.017426,41.051785],[0.990408,41.0397],[0.877452,40.954779],[0.822765,40.899604],[0.714203,40.815212],[0.694835,40.785997],[0.721528,40.774278],[0.750173,40.76557],[0.76238,40.766059],[0.767263,40.771023],[0.76352,40.778388],[0.750173,40.785997],[0.766938,40.78502],[0.780528,40.779486],[0.792003,40.771186],[0.815929,40.748399],[0.841807,40.732123],[0.854177,40.73314],[0.873709,40.727932],[0.872406,40.707099],[0.858084,40.686265],[0.848318,40.67536],[0.784028,40.660956],[0.756358,40.642239],[0.707042,40.583401],[0.677094,40.565172],[0.64796,40.556912],[0.615896,40.553453],[0.592459,40.582099],[0.640636,40.586859],[0.663178,40.574734],[0.696218,40.590359],[0.732677,40.633734],[0.712494,40.636176],[0.682221,40.634223],[0.599783,40.613715],[0.58017,40.603664],[0.563487,40.590033],[0.548513,40.572333],[0.52376,40.526163],[0.518914,40.528948],[0.456076,40.549205],[0.447394,40.554579],[0.440418,40.563054],[0.436852,40.570754],[0.436852,40.577446],[0.429876,40.584396],[0.418404,40.59083],[0.387501,40.603749],[0.316601,40.622585],[0.29314,40.632145],[0.283838,40.639716],[0.276242,40.654315],[0.277017,40.663642],[0.281048,40.67142],[0.286009,40.677311],[0.287714,40.683822],[0.278257,40.691573],[0.2657,40.697878],[0.243789,40.703046],[0.232162,40.711676],[0.226736,40.719427],[0.22379,40.726067],[0.219294,40.730537],[0.198986,40.727178],[0.173044,40.730899],[0.167463,40.743198],[0.172734,40.747126],[0.227356,40.771724],[0.234177,40.77746],[0.242704,40.79074],[0.261979,40.807794],[0.26725,40.814279],[0.271281,40.821385],[0.271901,40.829214],[0.261514,40.847119],[0.257948,40.855517],[0.257483,40.865671],[0.255778,40.873578],[0.249577,40.888564],[0.251747,40.898589],[0.254538,40.906806],[0.258258,40.914712],[0.260429,40.922102],[0.264305,40.928717],[0.275932,40.942256],[0.280118,40.951868],[0.285544,40.959309],[0.289729,40.98246],[0.274227,41.018892],[0.257948,41.028452],[0.243324,41.03331],[0.227821,41.04318],[0.216504,41.07062],[0.212473,41.084159],[0.208132,41.08943],[0.205342,41.096872],[0.205187,41.104261],[0.206582,41.11178],[0.208908,41.119609],[0.213713,41.125759],[0.22441,41.130177],[0.233712,41.130332],[0.242394,41.132037],[0.248492,41.136197],[0.252212,41.14152],[0.258414,41.146429],[0.276242,41.149995],[0.285079,41.153173],[0.29314,41.158263],[0.299651,41.164878],[0.306524,41.183533],[0.306989,41.192008],[0.30885,41.199294],[0.313346,41.206891],[0.321097,41.213919],[0.336445,41.221567],[0.347917,41.225753],[0.357839,41.230533],[0.360371,41.232832],[0.385803,41.278859],[0.433176,41.276112],[0.438054,41.32476],[0.445239,41.33178],[0.454445,41.334603],[0.464135,41.333384],[0.472815,41.328264],[0.491623,41.299612],[0.500017,41.291768],[0.509773,41.288494],[0.520935,41.288922],[0.531372,41.292833],[0.538908,41.300007],[0.547412,41.315674],[0.553454,41.321925],[0.56187,41.323914],[0.570285,41.320827],[0.595949,41.303369],[0.620756,41.298667],[0.736442,41.318399],[0.758481,41.331264],[0.804975,41.33134],[0.817785,41.341173],[0.823652,41.351951],[0.827453,41.35606],[0.833518,41.358488],[0.842922,41.357576],[0.868718,41.343513],[0.879045,41.342008],[0.957685,41.354511],[0.968869,41.36442],[0.981921,41.391787],[0.989458,41.398313],[1.023669,41.406267],[1.04551,41.42668],[1.062033,41.45163],[1.063374,41.458958],[1.062561,41.475239],[1.065109,41.480831],[1.07302,41.482732],[1.117185,41.472548],[1.130368,41.473218],[1.157395,41.480249],[1.167502,41.486566],[1.170227,41.495421],[1.169128,41.518427],[1.178005,41.544519],[1.194616,41.56647],[1.20101,41.570403],[1.2078,41.572326],[1.37176,41.565415],[1.392678,41.575028],[1.418408,41.576116],[1.431108,41.573963],[1.436623,41.566657],[1.427658,41.552396],[1.397424,41.52125],[1.404719,41.506682],[1.458969,41.490631],[1.482766,41.476602],[1.480964,41.454124],[1.471867,41.426636],[1.485271,41.40752],[1.536818,41.385239],[1.559626,41.366255],[1.563449,41.358246],[1.566064,41.334109],[1.586081,41.301029],[1.608603,41.288494],[1.613942,41.281792],[1.615503,41.272399],[1.612163,41.264785],[1.605505,41.258974],[1.578962,41.249207],[1.574677,41.245252],[1.57393,41.234353],[1.584235,41.228838],[1.617238,41.225916],[1.624226,41.223169],[1.627829,41.217984],[1.62436,41.192165]]]}},{"type":"Feature","properties":{"id":"ES-CS","country":"ES","name_en":"Castellón"},"geometry":{"type":"Polygon","coordinates":[[[0.52376,40.526163],[0.517426,40.51435],[0.501313,40.484198],[0.483409,40.465033],[0.466156,40.45067],[0.452647,40.434068],[0.446137,40.408433],[0.420258,40.388251],[0.350597,40.284898],[0.338959,40.274359],[0.312104,40.257514],[0.298839,40.246772],[0.26474,40.209784],[0.205251,40.171536],[0.144542,40.078843],[0.117035,40.056342],[0.066173,40.031928],[0.040497,40.002875],[-0.002919,39.931952],[-0.028676,39.901801],[-0.091298,39.847927],[-0.194488,39.71544],[-0.272037,39.751089],[-0.30917,39.787388],[-0.345392,39.797473],[-0.379329,39.782938],[-0.409585,39.745321],[-0.432668,39.729534],[-0.455948,39.72292],[-0.478195,39.728084],[-0.533105,39.796188],[-0.569986,39.780192],[-0.586103,39.760691],[-0.601396,39.750803],[-0.618886,39.745914],[-0.634476,39.748463],[-0.646637,39.7579],[-0.647428,39.76636],[-0.644297,39.776643],[-0.644704,39.791596],[-0.656031,39.835859],[-0.691033,39.852328],[-0.712654,39.816985],[-0.737011,39.820753],[-0.773749,39.869818],[-0.79129,39.87754],[-0.797465,39.887488],[-0.809196,39.897643],[-0.817128,39.901337],[-0.82382,39.906324],[-0.832502,39.919424],[-0.836197,39.933377],[-0.836352,39.93994],[-0.839091,39.945831],[-0.838703,39.952575],[-0.835654,39.967638],[-0.83121,39.974821],[-0.82444,39.981488],[-0.801418,39.990893],[-0.790773,39.99296],[-0.777802,39.999574],[-0.775089,40.001383],[-0.766175,40.009393],[-0.762041,40.018488],[-0.7577,40.034611],[-0.753902,40.039779],[-0.746693,40.041432],[-0.738787,40.040295],[-0.722043,40.039882],[-0.683855,40.044429],[-0.61435,40.07174],[-0.612748,40.077709],[-0.617735,40.091455],[-0.619517,40.099129],[-0.617657,40.107087],[-0.61342,40.113908],[-0.596728,40.127008],[-0.583189,40.134812],[-0.574869,40.145147],[-0.570037,40.153518],[-0.567815,40.169073],[-0.563345,40.176334],[-0.556369,40.18517],[-0.552286,40.200286],[-0.553036,40.207365],[-0.55164,40.214187],[-0.551821,40.228449],[-0.549961,40.235064],[-0.544225,40.240102],[-0.53438,40.240412],[-0.525363,40.237699],[-0.516268,40.233358],[-0.501127,40.23031],[-0.495494,40.230465],[-0.487794,40.231498],[-0.479474,40.233772],[-0.47025,40.235064],[-0.451621,40.235916],[-0.442319,40.237751],[-0.405861,40.251135],[-0.397929,40.256871],[-0.391418,40.263925],[-0.3901,40.274209],[-0.390746,40.282141],[-0.392813,40.289143],[-0.390927,40.295577],[-0.369378,40.308289],[-0.357156,40.317746],[-0.341214,40.337383],[-0.331654,40.345651],[-0.292096,40.365521],[-0.286489,40.371748],[-0.285584,40.381541],[-0.289098,40.389215],[-0.295093,40.39632],[-0.307237,40.407921],[-0.314058,40.41296],[-0.329354,40.421693],[-0.335478,40.427765],[-0.338656,40.43531],[-0.339896,40.4427],[-0.33385,40.450012],[-0.323696,40.456962],[-0.277368,40.471819],[-0.272174,40.475721],[-0.272639,40.481431],[-0.275817,40.487529],[-0.280623,40.499854],[-0.281864,40.500939],[-0.296695,40.507915],[-0.297935,40.513703],[-0.29747,40.520369],[-0.294524,40.527061],[-0.292974,40.534064],[-0.292664,40.548507],[-0.294163,40.555561],[-0.296488,40.562434],[-0.298555,40.576645],[-0.297341,40.584138],[-0.294783,40.5922],[-0.294369,40.605765],[-0.300415,40.609046],[-0.308089,40.60871],[-0.325117,40.60424],[-0.333953,40.605274],[-0.342687,40.607341],[-0.349999,40.611062],[-0.358758,40.61194],[-0.367207,40.614472],[-0.374597,40.618193],[-0.377465,40.624265],[-0.376302,40.638347],[-0.376586,40.645685],[-0.378705,40.652609],[-0.37731,40.660154],[-0.36868,40.66744],[-0.35775,40.671911],[-0.345813,40.6739],[-0.329406,40.671575],[-0.31305,40.662945],[-0.304498,40.663255],[-0.293077,40.66788],[-0.284809,40.673332],[-0.234089,40.694803],[-0.229231,40.70103],[-0.228869,40.708006],[-0.229334,40.7155],[-0.228017,40.730718],[-0.223418,40.745317],[-0.219025,40.751931],[-0.213677,40.758288],[-0.194815,40.775987],[-0.183885,40.779423],[-0.165798,40.779914],[-0.152156,40.774902],[-0.142363,40.769398],[-0.135309,40.763378],[-0.119961,40.753275],[-0.074486,40.730847],[-0.04826,40.727178],[0.001582,40.729633],[0.01817,40.726145],[0.024733,40.720202],[0.028143,40.712683],[0.02773,40.705836],[0.029539,40.699609],[0.036205,40.696689],[0.045042,40.696173],[0.056204,40.701702],[0.064265,40.707696],[0.073102,40.712709],[0.081525,40.71643],[0.093152,40.719505],[0.107105,40.721546],[0.144984,40.722579],[0.173044,40.730899],[0.198986,40.727178],[0.219294,40.730537],[0.22379,40.726067],[0.226736,40.719427],[0.232162,40.711676],[0.243789,40.703046],[0.2657,40.697878],[0.278257,40.691573],[0.287714,40.683822],[0.286009,40.677311],[0.281048,40.67142],[0.277017,40.663642],[0.276242,40.654315],[0.283838,40.639716],[0.29314,40.632145],[0.316601,40.622585],[0.387501,40.603749],[0.418404,40.59083],[0.429876,40.584396],[0.436852,40.577446],[0.436852,40.570754],[0.440418,40.563054],[0.447394,40.554579],[0.456076,40.549205],[0.518914,40.528948],[0.52376,40.526163]]]}},{"type":"Feature","properties":{"id":"ES-V","country":"ES","name_en":"Valencia"},"geometry":{"type":"MultiPolygon","coordinates":[[[[-0.194488,39.71544],[-0.199818,39.704942],[-0.202138,39.680854],[-0.208933,39.664089],[-0.219838,39.651394],[-0.243723,39.631049],[-0.257436,39.616238],[-0.269561,39.5987],[-0.274892,39.581814],[-0.281484,39.569363],[-0.312734,39.534003],[-0.323354,39.516221],[-0.330593,39.480407],[-0.327472,39.430675],[-0.320668,39.388129],[-0.30134,39.322008],[-0.238701,39.215446],[-0.227818,39.199336],[-0.215493,39.181839],[-0.227857,39.175245],[-0.242182,39.166275],[-0.236505,39.148053],[-0.226703,39.111782],[-0.210027,39.07869],[-0.18404,39.042259],[-0.15803,39.002143],[-0.120676,38.951117],[-0.105946,38.93651],[-0.068593,38.913398],[-0.030995,38.882758],[-0.230508,38.853374],[-0.310807,38.88151],[-0.416584,38.819229],[-0.595298,38.795037],[-0.565767,38.755563],[-0.547046,38.761265],[-0.532885,38.762583],[-0.520503,38.757233],[-0.507111,38.742874],[-0.615469,38.693831],[-0.633948,38.702125],[-0.651109,38.717649],[-0.730057,38.752673],[-0.747261,38.754343],[-0.816354,38.740775],[-0.830647,38.746191],[-0.857245,38.769241],[-0.86688,38.774251],[-0.876724,38.774338],[-0.897906,38.770043],[-0.908299,38.770394],[-0.916143,38.773438],[-0.930643,38.785508],[-0.920481,38.791767],[-0.918827,38.808407],[-0.915132,38.81329],[-0.912574,38.819801],[-0.913272,38.824581],[-0.926217,38.855251],[-0.926527,38.863416],[-0.92154,38.878557],[-0.920946,38.886154],[-0.926527,38.895533],[-0.959187,38.940027],[-0.971072,38.946254],[-0.981304,38.949535],[-0.991071,38.951215],[-0.998538,38.950491],[-1.004248,38.948682],[-1.019596,38.940569],[-1.037864,38.937314],[-1.066105,38.938089],[-1.093649,38.933231],[-1.121037,38.932585],[-1.134396,38.937985],[-1.151475,38.948527],[-1.248368,39.038134],[-1.255809,39.047281],[-1.261313,39.063352],[-1.262114,39.073688],[-1.259685,39.082369],[-1.256739,39.089191],[-1.254982,39.096064],[-1.251391,39.102962],[-1.241185,39.117303],[-1.23718,39.12477],[-1.231315,39.139937],[-1.226922,39.14681],[-1.214856,39.15916],[-1.207931,39.164431],[-1.201807,39.170426],[-1.193281,39.184999],[-1.190955,39.191768],[-1.186253,39.201148],[-1.184547,39.206961],[-1.181163,39.213214],[-1.178579,39.220552],[-1.176279,39.235228],[-1.177597,39.242411],[-1.177287,39.249956],[-1.178295,39.257707],[-1.175969,39.273365],[-1.173799,39.280755],[-1.170336,39.2883],[-1.171473,39.296077],[-1.177726,39.304113],[-1.310483,39.337289],[-1.320973,39.338245],[-1.329086,39.337935],[-1.33968,39.341733],[-1.385,39.364988],[-1.406239,39.370595],[-1.415412,39.370285],[-1.42076,39.367649],[-1.426497,39.366719],[-1.435333,39.367261],[-1.440785,39.366228],[-1.445746,39.3669],[-1.448537,39.373773],[-1.450009,39.379483],[-1.450991,39.385529],[-1.452386,39.390206],[-1.455513,39.394237],[-1.464995,39.396743],[-1.467709,39.400799],[-1.469336,39.404158],[-1.476855,39.40607],[-1.481739,39.409429],[-1.484452,39.415372],[-1.48701,39.419636],[-1.501016,39.422042],[-1.506802,39.43041],[-1.51091,39.432684],[-1.515018,39.43674],[-1.517447,39.441081],[-1.518274,39.446016],[-1.518196,39.45183],[-1.512693,39.458935],[-1.50644,39.47604],[-1.507474,39.486789],[-1.505432,39.491027],[-1.501324,39.493714],[-1.498353,39.496091],[-1.499205,39.498313],[-1.499877,39.499295],[-1.501169,39.500173],[-1.503236,39.503971],[-1.502616,39.512989],[-1.503314,39.51795],[-1.503391,39.522963],[-1.502151,39.527355],[-1.499877,39.533143],[-1.499825,39.5349],[-1.499903,39.535675],[-1.501453,39.539111],[-1.503572,39.542677],[-1.504476,39.545545],[-1.504321,39.54924],[-1.503159,39.552935],[-1.49812,39.563477],[-1.494425,39.567275],[-1.485304,39.570918],[-1.474788,39.578489],[-1.463187,39.590245],[-1.42753,39.645229],[-1.421484,39.651378],[-1.398953,39.668948],[-1.38097,39.680576],[-1.37203,39.683573],[-1.363064,39.684348],[-1.353995,39.683625],[-1.337045,39.677449],[-1.329086,39.673651],[-1.320353,39.671377],[-1.30175,39.671016],[-1.29219,39.672669],[-1.283766,39.676209],[-1.275911,39.680627],[-1.269943,39.686777],[-1.265499,39.693805],[-1.26555,39.703442],[-1.269736,39.718816],[-1.270563,39.725948],[-1.270098,39.734242],[-1.267049,39.743466],[-1.243872,39.775479],[-1.232684,39.787003],[-1.225579,39.796305],[-1.217801,39.811911],[-1.202867,39.863304],[-1.200335,39.879556],[-1.199404,39.894826],[-1.196691,39.910587],[-1.196846,39.918184],[-1.199017,39.924075],[-1.205141,39.93348],[-1.206613,39.93857],[-1.203797,39.944332],[-1.196226,39.950637],[-1.157934,39.963892],[-1.14548,39.972289],[-1.129383,39.964047],[-1.105999,39.969189],[-1.097059,39.96986],[-1.078456,39.975183],[-1.053496,39.978826],[-1.018098,39.977276],[-1.000269,39.979214],[-0.989211,39.977767],[-0.972467,39.974046],[-0.923065,39.955985],[-0.908776,39.942911],[-0.904771,39.934617],[-0.906477,39.926814],[-0.909861,39.920096],[-0.912058,39.913068],[-0.912109,39.906402],[-0.908544,39.900407],[-0.904358,39.8948],[-0.903324,39.88816],[-0.902937,39.880874],[-0.903454,39.87289],[-0.902394,39.865396],[-0.896891,39.859686],[-0.888209,39.855242],[-0.878055,39.852245],[-0.859813,39.853097],[-0.846997,39.855345],[-0.79129,39.87754],[-0.773749,39.869818],[-0.737011,39.820753],[-0.712654,39.816985],[-0.691033,39.852328],[-0.656031,39.835859],[-0.644704,39.791596],[-0.644297,39.776643],[-0.647428,39.76636],[-0.646637,39.7579],[-0.634476,39.748463],[-0.618886,39.745914],[-0.601396,39.750803],[-0.586103,39.760691],[-0.569986,39.780192],[-0.533105,39.796188],[-0.478195,39.728084],[-0.455948,39.72292],[-0.432668,39.729534],[-0.409585,39.745321],[-0.379329,39.782938],[-0.345392,39.797473],[-0.30917,39.787388],[-0.272037,39.751089],[-0.194488,39.71544]]],[[[-1.300819,40.203205],[-1.294592,40.201629],[-1.291414,40.196772],[-1.285058,40.183155],[-1.276635,40.169331],[-1.271519,40.162717],[-1.265034,40.156541],[-1.25829,40.151425],[-1.250642,40.147886],[-1.24612,40.144863],[-1.245216,40.140212],[-1.245371,40.134967],[-1.242167,40.12892],[-1.234674,40.122952],[-1.215088,40.115898],[-1.151061,40.110058],[-1.125843,40.097915],[-1.093003,40.077011],[-1.079954,40.065772],[-1.076699,40.059002],[-1.075614,40.052129],[-1.078766,40.045127],[-1.084114,40.039262],[-1.091711,40.034559],[-1.139072,40.016214],[-1.162714,40.01146],[-1.180543,40.008902],[-1.187105,40.006189],[-1.205787,40.003347],[-1.223537,40.002313],[-1.233227,40.000711],[-1.234932,39.999936],[-1.242968,39.997378],[-1.25891,39.998127],[-1.285911,40.006189],[-1.349344,40.014405],[-1.359782,40.014095],[-1.369549,40.016343],[-1.378308,40.022131],[-1.406627,40.085461],[-1.410167,40.097915],[-1.412931,40.104788],[-1.416885,40.109542],[-1.44094,40.120445],[-1.447787,40.125742],[-1.452335,40.130677],[-1.448537,40.149798],[-1.395465,40.140083],[-1.364123,40.139617],[-1.343556,40.143131],[-1.324539,40.149281],[-1.319423,40.156464],[-1.318467,40.163802],[-1.322291,40.179047],[-1.320017,40.187418],[-1.314229,40.195273],[-1.300819,40.203205]]]]}},{"type":"Feature","properties":{"id":"ES-A","country":"ES","name_en":"Alicante"},"geometry":{"type":"Polygon","coordinates":[[[-0.030995,38.882758],[-0.009755,38.869696],[0.017426,38.864325],[0.06308,38.860785],[0.111013,38.849921],[0.153982,38.831],[0.185313,38.803534],[0.181,38.801907],[0.170909,38.796088],[0.182872,38.791815],[0.190766,38.785224],[0.217865,38.768134],[0.227712,38.770209],[0.23406,38.75788],[0.234548,38.742255],[0.227712,38.734565],[0.208995,38.73371],[0.192068,38.730414],[0.176768,38.724026],[0.162608,38.713528],[0.15089,38.69245],[0.148936,38.689927],[0.14503,38.686347],[0.125743,38.685492],[0.118582,38.682807],[0.105317,38.672553],[0.093679,38.667629],[0.083018,38.660956],[0.073131,38.645209],[0.080577,38.631008],[0.060435,38.634833],[0.046641,38.632229],[0.033376,38.627387],[0.015025,38.624742],[-0.01476,38.624416],[-0.028798,38.620673],[-0.042958,38.611721],[-0.054758,38.595282],[-0.055084,38.580756],[-0.053619,38.566962],[-0.060048,38.55272],[-0.075429,38.539944],[-0.090199,38.535346],[-0.131744,38.535346],[-0.176991,38.527248],[-0.202138,38.519599],[-0.233957,38.501654],[-0.329416,38.470038],[-0.344553,38.461615],[-0.350819,38.450019],[-0.358713,38.44595],[-0.395172,38.413764],[-0.406077,38.398871],[-0.410146,38.37934],[-0.409983,38.368964],[-0.413686,38.364814],[-0.445872,38.36343],[-0.460194,38.360053],[-0.47057,38.351874],[-0.474355,38.336737],[-0.509836,38.338365],[-0.518788,38.298651],[-0.504018,38.207221],[-0.515452,38.195502],[-0.532867,38.192165],[-0.568837,38.1942],[-0.591379,38.189643],[-0.609486,38.178046],[-0.623687,38.162421],[-0.634389,38.145819],[-0.640736,38.131659],[-0.645009,38.116034],[-0.64802,38.073798],[-0.652496,38.007758],[-0.65453,37.989325],[-0.663401,37.980292],[-0.689931,37.972154],[-0.708852,37.956285],[-0.718414,37.94302],[-0.758616,37.863349],[-0.760732,37.847073],[-0.760575,37.845898],[-0.761033,37.845907],[-0.779714,37.84291],[-0.787104,37.844279],[-0.791548,37.846372],[-0.796923,37.851075],[-0.804261,37.856191],[-0.812555,37.860299],[-0.830564,37.864201],[-0.838703,37.867973],[-0.881,37.902958],[-0.8887,37.908022],[-0.916683,37.933551],[-0.923065,37.941302],[-0.934382,37.960474],[-0.948024,37.977527],[-0.955001,37.984323],[-0.965724,38.000006],[-0.965879,38.00011],[-0.966266,38.000652],[-0.982234,38.026413],[-1.003112,38.052716],[-1.006987,38.056825],[-1.013266,38.061708],[-1.020036,38.068504],[-1.025849,38.078865],[-1.03081,38.097055],[-1.032903,38.116899],[-1.028097,38.135347],[-1.022826,38.146302],[-0.993655,38.180977],[-0.985955,38.195188],[-0.983164,38.202991],[-0.976446,38.234411],[-0.973449,38.241904],[-0.969419,38.258699],[-0.96916,38.270843],[-0.98363,38.310918],[-0.994662,38.324948],[-0.999778,38.328539],[-1.011871,38.334818],[-1.04869,38.344714],[-1.068172,38.347065],[-1.076673,38.349701],[-1.080988,38.359313],[-1.083959,38.374609],[-1.08445,38.415692],[-1.082099,38.431143],[-1.075614,38.442124],[-1.068947,38.449643],[-1.030707,38.477187],[-1.024015,38.483388],[-1.019441,38.490622],[-1.016547,38.498426],[-1.018795,38.521628],[-1.015255,38.537028],[-1.00567,38.564623],[-1.005437,38.590306],[-1.022128,38.65454],[-1.006471,38.658312],[-1.001432,38.657434],[-0.97717,38.656452],[-0.957145,38.658829],[-0.939575,38.663997],[-0.908156,38.68136],[-0.903479,38.685081],[-0.903479,38.688698],[-0.909861,38.696217],[-0.916398,38.702418],[-0.927302,38.715053],[-0.93309,38.720505],[-0.942288,38.731176],[-0.948877,38.743346],[-0.953683,38.762647],[-0.952985,38.770269],[-0.949084,38.777272],[-0.939653,38.779959],[-0.930643,38.785508],[-0.916143,38.773438],[-0.908299,38.770394],[-0.897906,38.770043],[-0.876724,38.774338],[-0.86688,38.774251],[-0.857245,38.769241],[-0.830647,38.746191],[-0.816354,38.740775],[-0.747261,38.754343],[-0.730057,38.752673],[-0.651109,38.717649],[-0.633948,38.702125],[-0.615469,38.693831],[-0.507111,38.742874],[-0.520503,38.757233],[-0.532885,38.762583],[-0.547046,38.761265],[-0.565767,38.755563],[-0.595298,38.795037],[-0.416584,38.819229],[-0.310807,38.88151],[-0.230508,38.853374],[-0.030995,38.882758]]]}},{"type":"Feature","properties":{"id":"ES-PM","country":"ES","name_en":"Balearic Islands"},"geometry":{"type":"MultiPolygon","coordinates":[[[[1.526383,38.677768],[1.565684,38.691486],[1.582367,38.674913],[1.581391,38.653062],[1.557486,38.648839],[1.523448,38.6494],[1.474223,38.674597],[1.458086,38.681341],[1.438731,38.670274],[1.429047,38.664944],[1.412792,38.646446],[1.396977,38.638646],[1.38295,38.642061],[1.387551,38.662378],[1.38346,38.67],[1.383474,38.680406],[1.388682,38.68712],[1.393321,38.696275],[1.393728,38.70421],[1.386485,38.707668],[1.382823,38.711575],[1.388612,38.719115],[1.401002,38.730326],[1.408029,38.724486],[1.418142,38.727891],[1.427908,38.739366],[1.431326,38.754869],[1.435395,38.755357],[1.436534,38.754014],[1.436534,38.751614],[1.437511,38.749254],[1.486095,38.694566],[1.526383,38.677768]]],[[[1.605968,39.091295],[1.600841,39.082384],[1.606944,39.062364],[1.623057,39.029202],[1.606456,39.028388],[1.593272,39.02025],[1.584646,39.007432],[1.581391,38.991929],[1.576182,38.985826],[1.541189,38.96776],[1.509776,38.930162],[1.497244,38.921861],[1.469493,38.910264],[1.458669,38.900133],[1.454926,38.904039],[1.448416,38.9088],[1.444998,38.913153],[1.428559,38.896593],[1.414728,38.890622],[1.404145,38.856757],[1.403105,38.832278],[1.37065,38.831809],[1.36085,38.851915],[1.343516,38.862372],[1.328868,38.857896],[1.322032,38.857896],[1.318614,38.859117],[1.317719,38.859849],[1.307791,38.857896],[1.300304,38.870469],[1.283458,38.87462],[1.266612,38.870347],[1.259939,38.857896],[1.228201,38.87462],[1.216645,38.885077],[1.212169,38.903225],[1.224294,38.927354],[1.22755,38.942003],[1.218435,38.954088],[1.226736,38.960191],[1.236827,38.965155],[1.24822,38.966376],[1.259939,38.960924],[1.267263,38.966051],[1.276866,38.968004],[1.300955,38.96776],[1.292247,39.009874],[1.292817,39.033271],[1.304454,39.043443],[1.317556,39.047593],[1.33253,39.057237],[1.356781,39.077623],[1.363048,39.077623],[1.372244,39.071397],[1.391938,39.083319],[1.403331,39.077623],[1.423188,39.090562],[1.450694,39.101793],[1.478689,39.107733],[1.499522,39.104885],[1.508637,39.114366],[1.522716,39.118883],[1.53712,39.118028],[1.553559,39.107652],[1.560395,39.105821],[1.57838,39.104885],[1.589692,39.102769],[1.597911,39.098131],[1.605968,39.091295]]],[[[3.354503,39.784369],[3.383149,39.77794],[3.439789,39.75198],[3.474376,39.749701],[3.468516,39.739325],[3.469412,39.731065],[3.472667,39.723578],[3.474376,39.715522],[3.470551,39.710313],[3.464366,39.706407],[3.461436,39.700059],[3.46754,39.687567],[3.453868,39.659695],[3.443207,39.645779],[3.429942,39.639838],[3.413097,39.635077],[3.401866,39.623236],[3.398692,39.607733],[3.406016,39.591986],[3.365408,39.563056],[3.323253,39.523871],[3.291759,39.475775],[3.282481,39.420111],[3.272716,39.42475],[3.268809,39.427558],[3.252615,39.386176],[3.221039,39.35989],[3.129405,39.315741],[3.090994,39.290066],[3.083263,39.280097],[3.079112,39.276882],[3.069998,39.271755],[3.060802,39.26907],[3.056651,39.272976],[3.029307,39.304633],[3.02296,39.308173],[3.007335,39.313747],[3.001313,39.317694],[2.996755,39.326972],[2.99464,39.337958],[2.991384,39.347276],[2.984223,39.351142],[2.974457,39.353461],[2.958832,39.363227],[2.950043,39.365505],[2.938162,39.364366],[2.922374,39.359727],[2.912608,39.358669],[2.82545,39.363593],[2.786632,39.375922],[2.761729,39.400214],[2.751231,39.454779],[2.736583,39.462104],[2.739513,39.478298],[2.754893,39.502631],[2.7435,39.523383],[2.715099,39.543524],[2.681651,39.558661],[2.655284,39.564724],[2.633474,39.559272],[2.569102,39.531521],[2.555675,39.520046],[2.544932,39.492987],[2.520193,39.472846],[2.492686,39.470242],[2.473806,39.495795],[2.47169,39.497911],[2.469005,39.505886],[2.472179,39.512152],[2.480642,39.516221],[2.453949,39.537421],[2.445811,39.528876],[2.438162,39.525214],[2.431163,39.527696],[2.425955,39.537421],[2.398285,39.52497],[2.391856,39.523749],[2.382091,39.529242],[2.373709,39.547187],[2.355642,39.558661],[2.350759,39.576483],[2.351736,39.596747],[2.357677,39.611884],[2.429373,39.646674],[2.45045,39.650336],[2.468272,39.659369],[2.517589,39.700141],[2.5324,39.706366],[2.552419,39.708686],[2.569672,39.71308],[2.586599,39.723822],[2.617686,39.749701],[2.621918,39.754462],[2.62908,39.766872],[2.631358,39.770128],[2.635997,39.771023],[2.647472,39.769232],[2.651866,39.770128],[2.676036,39.789089],[2.67921,39.794013],[2.683604,39.79621],[2.703949,39.814154],[2.710623,39.818549],[2.717947,39.820136],[2.747406,39.83161],[2.761729,39.840522],[2.773204,39.849636],[2.784841,39.856716],[2.799653,39.859565],[2.803233,39.861599],[2.809581,39.870551],[2.813243,39.872585],[2.834158,39.871161],[2.843598,39.872585],[2.873057,39.88349],[2.933279,39.914496],[2.964122,39.920966],[3.020274,39.925157],[3.075694,39.936103],[3.179454,39.968777],[3.193126,39.955105],[3.198416,39.959296],[3.201345,39.960517],[3.214203,39.955105],[3.203624,39.949164],[3.168468,39.936387],[3.15561,39.934027],[3.14088,39.928087],[3.127452,39.916693],[3.115489,39.908759],[3.10434,39.91352],[3.096934,39.91352],[3.094737,39.881212],[3.130219,39.87641],[3.206798,39.893012],[3.206798,39.886827],[3.196788,39.881212],[3.195567,39.874538],[3.196462,39.867133],[3.193126,39.859565],[3.187185,39.854356],[3.181488,39.851386],[3.165212,39.845893],[3.133556,39.839545],[3.126313,39.831855],[3.124848,39.811103],[3.136485,39.788764],[3.162608,39.76911],[3.194835,39.754991],[3.223888,39.749701],[3.292491,39.749701],[3.309906,39.755072],[3.340343,39.778998],[3.354503,39.784369]]],[[[4.302908,39.925523],[4.307302,39.910549],[4.328787,39.88345],[4.337087,39.867174],[4.330333,39.867174],[4.326264,39.87344],[4.319753,39.879218],[4.311778,39.884182],[4.302908,39.8876],[4.300059,39.821763],[4.248139,39.816474],[4.177175,39.843329],[4.015066,39.925767],[3.981375,39.936062],[3.941335,39.936754],[3.869314,39.925523],[3.830658,39.936062],[3.83489,39.947984],[3.835704,39.962429],[3.839122,39.975572],[3.850515,39.983873],[3.842377,39.989407],[3.822032,39.995144],[3.812918,40.001207],[3.803396,40.01317],[3.803152,40.018134],[3.807058,40.023261],[3.8095,40.035386],[3.821869,40.047634],[3.891531,40.059556],[3.915457,40.051988],[4.011892,40.059556],[4.052013,40.058173],[4.063406,40.059556],[4.077566,40.064276],[4.09433,40.074734],[4.105072,40.079413],[4.107839,40.067613],[4.116791,40.059638],[4.139089,40.045925],[4.136974,40.043036],[4.134858,40.035712],[4.135427,40.028225],[4.142263,40.024807],[4.148529,40.027818],[4.155935,40.034654],[4.165782,40.045925],[4.163829,40.060574],[4.170502,40.064602],[4.176524,40.059231],[4.172618,40.045925],[4.17864,40.038845],[4.206716,40.024807],[4.212494,40.017239],[4.216889,40.0126],[4.227224,40.00491],[4.232677,40.002712],[4.247488,40.000393],[4.254568,39.997463],[4.264903,39.986396],[4.273367,39.969957],[4.27239,39.955349],[4.254568,39.949693],[4.270112,39.943752],[4.285899,39.944607],[4.298025,39.941962],[4.302908,39.925523]]],[[[2.985367,39.166176],[2.982308,39.139184],[2.962154,39.116062],[2.930867,39.118176],[2.913614,39.151963],[2.940424,39.17193],[2.980582,39.18556],[2.985367,39.166176]]]]}},{"type":"Feature","properties":{"id":"FR-66","country":"FR","name_en":"Pyrénées-Orientales"},"geometry":{"type":"Polygon","coordinates":[[[1.717091,42.53989],[1.721683,42.548515],[1.739976,42.561641],[1.765091,42.563372],[1.761107,42.567646],[1.781726,42.570093],[1.845358,42.578432],[1.872824,42.578981],[1.882295,42.577586],[1.918879,42.56872],[1.928503,42.569181],[1.938303,42.571796],[1.950717,42.580036],[1.956298,42.587034],[1.958781,42.594351],[1.958606,42.607611],[1.960166,42.615049],[1.962802,42.621762],[1.967614,42.629024],[1.980315,42.642361],[1.994157,42.652875],[2.005649,42.656127],[2.098308,42.663905],[2.154008,42.656445],[2.163171,42.660291],[2.166074,42.663835],[2.18945,42.652161],[2.216872,42.667827],[2.264685,42.708938],[2.276945,42.709685],[2.306718,42.705247],[2.322561,42.708037],[2.342995,42.71876],[2.351169,42.730164],[2.350708,42.745248],[2.33091,42.822405],[2.341193,42.837445],[2.374987,42.847256],[2.703962,42.834039],[2.729714,42.840269],[2.741997,42.848915],[2.76843,42.878809],[2.783921,42.889839],[2.85531,42.9138],[2.86612,42.911922],[2.892729,42.895574],[3.046276,42.837076],[3.040457,42.790188],[3.038992,42.750271],[3.043305,42.724595],[3.037608,42.683214],[3.04184,42.629055],[3.046153,42.587673],[3.05185,42.554877],[3.066091,42.54206],[3.087494,42.534939],[3.114594,42.530626],[3.13738,42.524929],[3.145925,42.51496],[3.145925,42.503526],[3.143077,42.492133],[3.150238,42.482164],[3.160248,42.475043],[3.175873,42.456488],[3.18157,42.435085],[3.18097,42.431484],[3.137824,42.425939],[3.111675,42.425008],[3.086147,42.427179],[3.06558,42.432011],[3.053591,42.437643],[3.043876,42.445266],[3.036021,42.454619],[3.029613,42.465652],[3.022998,42.467047],[2.99375,42.467616],[2.983104,42.469321],[2.966051,42.461001],[2.933702,42.470225],[2.900835,42.45126],[2.884092,42.449193],[2.866936,42.449632],[2.850813,42.448366],[2.834793,42.441312],[2.804614,42.419557],[2.788594,42.412012],[2.767717,42.409557],[2.728546,42.414027],[2.708082,42.41289],[2.690409,42.406172],[2.648241,42.381471],[2.640283,42.372841],[2.649378,42.353721],[2.66178,42.34336],[2.662194,42.339019],[2.635425,42.337882],[2.613411,42.340957],[2.567419,42.352636],[2.548092,42.352248],[2.540341,42.346977],[2.531969,42.330776],[2.525251,42.325893],[2.514812,42.325661],[2.50365,42.328451],[2.483393,42.336978],[2.464893,42.340621],[2.445566,42.351964],[2.429856,42.367544],[2.422518,42.383693],[2.406602,42.384262],[2.375493,42.389326],[2.317305,42.409609],[2.305316,42.416973],[2.277411,42.428626],[2.245992,42.426119],[2.184187,42.411805],[2.136954,42.416223],[2.121038,42.410617],[2.116284,42.405397],[2.108739,42.390644],[2.103985,42.38483],[2.08011,42.371265],[2.063264,42.357907],[2.051688,42.352351],[2.035255,42.349251],[2.00921,42.34708],[1.995671,42.348682],[1.983372,42.354548],[1.963735,42.367234],[1.954227,42.382685],[1.941101,42.420099],[1.927458,42.436894],[1.911955,42.441958],[1.893248,42.442733],[1.869787,42.44679],[1.813667,42.475238],[1.792686,42.481723],[1.730571,42.488054],[1.712174,42.493712],[1.712691,42.496787],[1.711967,42.499293],[1.710004,42.501335],[1.707006,42.502781],[1.710624,42.527741],[1.717091,42.53989]],[[1.983372,42.441261],[1.986163,42.441261],[1.996084,42.442837],[1.999495,42.443896],[1.988436,42.458185],[1.978308,42.47498],[1.967972,42.485702],[1.956604,42.481775],[1.945648,42.463817],[1.947509,42.451234],[1.960634,42.443715],[1.983372,42.441261]]]}},{"type":"Feature","properties":{"id":"IT-SS-ALG","country":"IT","name_en":"Alghero"},"geometry":{"type":"MultiPolygon","coordinates":[[[[8.1397118,40.6051213],[8.1446667,40.6044651],[8.1408048,40.602028],[8.1397118,40.6051213]]],[[[8.1433459,40.6145504],[8.146565,40.6259335],[8.1632325,40.6287128],[8.1605948,40.6336648],[8.1671798,40.6323317],[8.1848105,40.6365603],[8.1925285,40.653499],[8.191456,40.6634031],[8.199,40.6732183],[8.224334,40.6646016],[8.2560727,40.6658554],[8.2637914,40.6739946],[8.2965393,40.6720457],[8.311657,40.6585519],[8.3191715,40.6652448],[8.3459622,40.6706426],[8.3403074,40.6489628],[8.3507561,40.637473],[8.3629115,40.6338832],[8.3579731,40.6198383],[8.3750713,40.6284093],[8.3863381,40.6208213],[8.3982911,40.6260642],[8.4155689,40.6256045],[8.4130335,40.6181494],[8.3996964,40.6156845],[8.3912934,40.6024068],[8.4074373,40.585176],[8.4196873,40.5596083],[8.4196696,40.5301944],[8.3732298,40.5116009],[8.3666806,40.4957494],[8.3504862,40.5035929],[8.338242,40.5000015],[8.3392286,40.5092372],[8.3329908,40.5146961],[8.3205328,40.550091],[8.3052141,40.5655582],[8.314816,40.5605333],[8.3161881,40.5641144],[8.3078434,40.5646187],[8.3104958,40.5656371],[8.3168936,40.5650304],[8.3177494,40.5714002],[8.2990067,40.591287],[8.2759234,40.5935126],[8.2675596,40.589381],[8.265855,40.5812527],[8.2510239,40.584472],[8.2457241,40.5810647],[8.2448642,40.5689572],[8.2378566,40.5724586],[8.2035693,40.5681971],[8.1977443,40.5756508],[8.2082608,40.5875072],[8.2038179,40.5940079],[8.2162785,40.5936856],[8.219415,40.6017965],[8.2096034,40.6148137],[8.1932524,40.6180665],[8.1895728,40.6158588],[8.1903613,40.6063648],[8.1842837,40.6051378],[8.1762597,40.5936321],[8.16801,40.5929826],[8.1738575,40.5882299],[8.1710989,40.580201],[8.1656703,40.5840259],[8.1610349,40.5760854],[8.1656145,40.5728231],[8.1635663,40.5601127],[8.1575522,40.5669576],[8.1558352,40.579346],[8.1503726,40.5790244],[8.145272,40.5998083],[8.1481944,40.6016988],[8.1442706,40.6026907],[8.1492775,40.6052735],[8.1433459,40.6145504]]],[[[8.1510454,40.5717634],[8.1531644,40.5721444],[8.1517978,40.5688132],[8.1510454,40.5717634]]],[[[8.161391,40.6339499],[8.1616415,40.63381],[8.161563,40.6337776],[8.161391,40.6339499]]],[[[8.176641,40.6374274],[8.1768416,40.6373387],[8.1765775,40.6373002],[8.176641,40.6374274]]],[[[8.1770777,40.6371711],[8.1770904,40.6369437],[8.176679,40.6369976],[8.1770777,40.6371711]]],[[[8.3002565,40.5726266],[8.3006524,40.5719665],[8.3001775,40.5719871],[8.3002565,40.5726266]]],[[[8.3370175,40.4998873],[8.3376625,40.4993207],[8.3372148,40.4992288],[8.3370175,40.4998873]]]]}}]}
