{"type":"FeatureCollection","features":[{"type":"Feature","properties":{"id":"PH-CEB","country":"PH","name_en":"Cebu"},"geometry":{"type":"Polygon","coordinates":[[[123.934435,10.309299],[123.906261,10.294501],[123.889659,10.282213],[123.868663,10.248196],[123.847602,10.310714],[123.837164,10.353511],[123.872654,10.408833],[123.9071,10.435973],[123.935157,10.401066],[123.914407,10.346204],[123.934435,10.309299]]]}},{"type":"Feature","properties":{"id":"PH-CEB","country":"PH","name_en":"Cebu"},"geometry":{"type":"MultiPolygon","coordinates":[[[[123.868663,10.248196],[123.857107,10.242133],[123.831798,10.240668],[123.808116,10.23664],[123.79363,10.226467],[123.773692,10.199693],[123.719493,10.156806],[123.711681,10.141343],[123.709972,10.120592],[123.704845,10.105455],[123.696137,10.093899],[123.683767,10.083645],[123.675548,10.079006],[123.663422,10.074652],[123.656993,10.069322],[123.652599,10.063625],[123.648204,10.05565],[123.644786,10.047024],[123.643321,10.038967],[123.643321,9.96011],[123.63087,9.90762],[123.62908,9.887519],[123.624766,9.87934],[123.615489,9.874457],[123.605968,9.871161],[123.601817,9.867621],[123.509451,9.65351],[123.503429,9.615302],[123.488292,9.566474],[123.479503,9.54857],[123.471039,9.538967],[123.453298,9.528062],[123.444672,9.521308],[123.435883,9.509955],[123.422699,9.487698],[123.36964,9.425727],[123.358572,9.415758],[123.342459,9.406806],[123.327647,9.408149],[123.321137,9.429145],[123.31422,9.485541],[123.314301,9.507636],[123.365245,9.785346],[123.404959,9.878404],[123.40919,9.897691],[123.410655,9.922553],[123.406423,9.927558],[123.387543,9.937079],[123.383311,9.942694],[123.387055,9.973782],[123.390147,9.980618],[123.398448,9.984809],[123.404063,9.981269],[123.407725,9.975816],[123.410655,9.974351],[123.415212,9.98135],[123.417166,9.989651],[123.417328,10.011664],[123.422537,10.037502],[123.435395,10.05508],[123.472016,10.083645],[123.507986,10.122219],[123.521332,10.14525],[123.533458,10.190375],[123.581309,10.25434],[123.596853,10.317776],[123.605479,10.333157],[123.622732,10.350531],[123.706798,10.461982],[123.711681,10.477444],[123.713878,10.482327],[123.718516,10.487291],[123.723155,10.494208],[123.725352,10.504788],[123.718028,10.537055],[123.719086,10.54914],[123.729259,10.569241],[123.754405,10.599433],[123.764985,10.640041],[123.777843,10.662584],[123.792735,10.683254],[123.831554,10.725084],[123.849294,10.752631],[123.915782,10.939765],[123.934581,10.970445],[123.930024,10.993598],[123.917735,11.028957],[123.924083,11.046332],[123.935232,11.059231],[123.944347,11.074164],[123.945079,11.097846],[123.951915,11.097846],[123.955414,11.090237],[123.959646,11.085517],[123.972911,11.077338],[123.960704,11.130764],[123.955251,11.142239],[123.951915,11.156724],[123.958751,11.17593],[123.969737,11.194525],[124.018321,11.25849],[124.045665,11.277167],[124.074718,11.26911],[124.072765,11.26203],[124.068126,11.233344],[124.055675,11.205024],[124.05128,11.185492],[124.047374,11.148749],[124.04127,11.130113],[124.010753,11.09455],[123.999522,11.077338],[124.009125,11.073391],[124.012543,11.06623],[124.013927,11.059312],[124.0171,11.05622],[124.037283,11.057522],[124.046153,11.05976],[124.054942,11.063666],[124.051931,11.043158],[124.061778,10.98428],[124.059744,10.962307],[124.053477,10.930569],[124.054942,10.912828],[124.066905,10.889065],[124.068533,10.878119],[124.064952,10.867906],[124.050629,10.845038],[124.047374,10.834052],[124.043793,10.809475],[124.026622,10.769599],[124.020763,10.747748],[124.023936,10.708441],[124.050792,10.627387],[124.054942,10.590074],[124.051768,10.589504],[124.044688,10.586005],[124.037364,10.581122],[124.033865,10.576483],[124.034434,10.571438],[124.040375,10.568549],[124.04127,10.562812],[124.04005,10.484361],[124.035899,10.466783],[124.009776,10.404039],[124.010102,10.394924],[124.018728,10.380805],[124.014903,10.372463],[123.992849,10.357367],[123.990489,10.368842],[123.98585,10.375963],[123.979666,10.377183],[123.935157,10.401066],[123.9071,10.435973],[123.872654,10.408833],[123.837164,10.353511],[123.847602,10.310714],[123.868663,10.248196]]],[[[123.801036,11.179145],[123.811534,11.165269],[123.818044,11.154731],[123.814952,11.148017],[123.749685,11.141343],[123.745779,11.138821],[123.733653,11.154283],[123.708669,11.217841],[123.704845,11.241197],[123.708507,11.252427],[123.715831,11.264146],[123.732758,11.283759],[123.745779,11.292467],[123.754649,11.289537],[123.760916,11.278876],[123.789317,11.19892],[123.801036,11.179145]]]]}},{"type":"Feature","properties":{"id":"PH-BOH","country":"PH","name_en":"Bohol"},"geometry":{"type":"MultiPolygon","coordinates":[[[[124.565278,9.870754],[124.549815,9.861558],[124.57016,9.840522],[124.624034,9.801825],[124.598969,9.749701],[124.596202,9.737291],[124.585216,9.732082],[124.560557,9.732611],[124.534841,9.736274],[124.520356,9.740383],[124.516856,9.748765],[124.517426,9.759101],[124.514415,9.767035],[124.499848,9.768297],[124.492931,9.762763],[124.462413,9.73078],[124.45281,9.725775],[124.440278,9.721584],[124.429454,9.715033],[124.424815,9.702826],[124.424164,9.689602],[124.422048,9.678697],[124.417491,9.668891],[124.410492,9.658433],[124.381847,9.636705],[124.338715,9.618598],[124.2942,9.606757],[124.260427,9.603827],[124.221446,9.60578],[124.065196,9.595404],[123.937511,9.617499],[123.892345,9.632148],[123.871755,9.645006],[123.863048,9.661851],[123.86671,9.683539],[123.872732,9.703803],[123.873871,9.721137],[123.863048,9.734198],[123.8449,9.73725],[123.824474,9.736151],[123.807872,9.739976],[123.801036,9.757758],[123.803233,9.781195],[123.809093,9.80268],[123.82838,9.842841],[123.841319,9.857367],[123.875824,9.886949],[123.882986,9.901801],[123.886078,9.914862],[123.893403,9.916938],[123.907237,9.911689],[123.916677,9.915107],[123.92213,9.923],[123.926036,9.932074],[123.931407,9.939032],[123.963878,9.950751],[124.009776,9.961615],[124.050792,9.979315],[124.068533,10.011664],[124.069998,10.032213],[124.075206,10.048326],[124.086599,10.058783],[124.115896,10.065253],[124.115977,10.072089],[124.113617,10.080959],[124.116222,10.08983],[124.123871,10.096666],[124.136974,10.104885],[124.143077,10.110297],[124.158702,10.131171],[124.167166,10.137437],[124.184581,10.144477],[124.222667,10.151923],[124.263438,10.151923],[124.331309,10.161526],[124.34962,10.151028],[124.355968,10.110297],[124.366954,10.119289],[124.382498,10.143785],[124.396821,10.151923],[124.400238,10.138373],[124.408214,10.119696],[124.419119,10.106757],[124.430837,10.110175],[124.476329,10.070014],[124.489757,10.062567],[124.52003,10.064195],[124.530284,10.060533],[124.54835,10.048896],[124.577647,10.033922],[124.588634,10.023871],[124.583995,9.99901],[124.584239,9.980943],[124.580903,9.972154],[124.568696,9.987454],[124.566173,9.968329],[124.566173,9.952786],[124.564464,9.943996],[124.556163,9.925686],[124.571462,9.912299],[124.583751,9.893948],[124.584646,9.877672],[124.565278,9.870754]]],[[[123.841319,9.642401],[123.860525,9.630072],[123.868337,9.62051],[123.862315,9.608547],[123.844249,9.588853],[123.804535,9.560289],[123.785167,9.552314],[123.765147,9.549954],[123.749848,9.554145],[123.737641,9.579088],[123.726329,9.586982],[123.727224,9.591213],[123.739268,9.594062],[123.747895,9.599107],[123.754568,9.605414],[123.76588,9.614081],[123.781912,9.623521],[123.820649,9.639594],[123.841319,9.642401]]],[[[124.606944,10.140326],[124.595714,10.123521],[124.595388,10.108547],[124.597667,10.094184],[124.588878,10.086249],[124.575694,10.090237],[124.561046,10.085842],[124.550059,10.069037],[124.540375,10.060858],[124.529552,10.068549],[124.525401,10.078803],[124.525401,10.087226],[124.522797,10.098456],[124.521821,10.112047],[124.527599,10.117336],[124.535655,10.114691],[124.542247,10.115953],[124.546886,10.122056],[124.551768,10.126776],[124.557628,10.126044],[124.567231,10.127672],[124.580089,10.136705],[124.586274,10.142239],[124.592784,10.145168],[124.606212,10.14761],[124.606944,10.140326]]]]}},{"type":"Feature","properties":{"id":"PH-SIG","country":"PH","name_en":"Siquijor"},"geometry":{"type":"Polygon","coordinates":[[[123.698009,9.165025],[123.702485,9.164537],[123.714529,9.157416],[123.722423,9.149115],[123.715343,9.145168],[123.703298,9.128363],[123.698009,9.12401],[123.689708,9.122545],[123.660411,9.12401],[123.653005,9.122952],[123.647634,9.119696],[123.644542,9.114325],[123.643321,9.10692],[123.639985,9.098578],[123.632335,9.098334],[123.615489,9.103583],[123.596365,9.10399],[123.578461,9.107001],[123.561209,9.114244],[123.479503,9.17182],[123.471202,9.185452],[123.47462,9.197089],[123.500011,9.220282],[123.517589,9.209866],[123.540863,9.213446],[123.564952,9.226142],[123.594737,9.251288],[123.60255,9.255439],[123.607432,9.262152],[123.609223,9.278266],[123.614431,9.289252],[123.626964,9.293931],[123.6421,9.293647],[123.655447,9.28913],[123.664806,9.275458],[123.67921,9.245307],[123.687511,9.239488],[123.703868,9.233303],[123.700531,9.219631],[123.689952,9.205959],[123.683767,9.199693],[123.683442,9.1883],[123.686534,9.180609],[123.698009,9.165025]]]}},{"type":"Feature","properties":{"id":"PH-NER","country":"PH","name_en":"Negros Oriental"},"geometry":{"type":"Polygon","coordinates":[[[123.365728,10.392513],[123.344737,10.347968],[123.341807,10.326606],[123.340343,10.260688],[123.33546,10.240668],[123.304698,10.178534],[123.300792,10.155341],[123.299815,10.131415],[123.296641,10.111477],[123.290375,10.093573],[123.244151,10.026353],[123.235525,10.001899],[123.228526,9.994696],[123.221365,9.989081],[123.21811,9.984036],[123.204438,9.939032],[123.175955,9.908108],[123.162364,9.890204],[123.156749,9.867621],[123.170421,9.69599],[123.164561,9.672187],[123.163585,9.661851],[123.160411,9.647406],[123.153087,9.646633],[123.144054,9.649237],[123.136241,9.644843],[123.135427,9.618354],[123.177419,9.589911],[123.170421,9.562893],[123.161143,9.583808],[123.143809,9.573676],[123.135509,9.55268],[123.153331,9.541164],[123.180919,9.537421],[123.189952,9.526801],[123.191661,9.509833],[123.197602,9.487128],[123.211681,9.472724],[123.232595,9.459662],[123.251475,9.443996],[123.267263,9.398342],[123.284841,9.379706],[123.305186,9.362494],[123.321137,9.343166],[123.328298,9.302558],[123.317638,9.256903],[123.298595,9.215033],[123.243419,9.136461],[123.23878,9.120307],[123.230154,9.107611],[123.160981,9.06566],[123.147716,9.061835],[123.112071,9.061957],[123.099946,9.059963],[123.079926,9.050971],[123.057872,9.04682],[123.042654,9.03734],[123.033214,9.035305],[122.990489,9.048774],[122.957693,9.081244],[122.933604,9.121487],[122.892589,9.221015],[122.886729,9.287991],[122.880544,9.305854],[122.869395,9.322659],[122.8449,9.347073],[122.827891,9.35871],[122.811046,9.363593],[122.745128,9.366604],[122.724783,9.37108],[122.680675,9.394355],[122.666759,9.397773],[122.657237,9.401435],[122.649262,9.409898],[122.642426,9.419257],[122.635997,9.425727],[122.623546,9.4289],[122.610118,9.429633],[122.599457,9.432685],[122.597097,9.437649],[123.012574,9.964405],[123.163263,10.240047],[123.175769,10.27188],[123.175769,10.301439],[123.143936,10.421845],[123.168534,10.426082],[123.193752,10.437038],[123.21897,10.445099],[123.243568,10.44081],[123.248116,10.437451],[123.250803,10.433627],[123.25256,10.429183],[123.253903,10.42386],[123.256694,10.416832],[123.260621,10.414817],[123.265892,10.414197],[123.29018,10.404792],[123.346714,10.394301],[123.365728,10.392513]]]}},{"type":"Feature","properties":{"id":"PH-LEY","country":"PH","name_en":"Leyte"},"geometry":{"type":"MultiPolygon","coordinates":[[[[124.379731,10.691311],[124.385265,10.679755],[124.388357,10.667141],[124.389985,10.641303],[124.378429,10.628323],[124.300629,10.590074],[124.284353,10.603827],[124.288829,10.616929],[124.301117,10.631171],[124.308116,10.648424],[124.309581,10.66234],[124.313731,10.677802],[124.319835,10.692369],[124.327647,10.704006],[124.340994,10.711819],[124.355479,10.710639],[124.369151,10.70307],[124.379731,10.691311]]],[[[124.465831,10.713609],[124.503917,10.693305],[124.520681,10.665758],[124.5088,10.641547],[124.462413,10.631049],[124.40919,10.648261],[124.408458,10.683824],[124.435557,10.713609],[124.465831,10.713609]]],[[[124.549571,10.983303],[124.546886,10.968329],[124.558279,10.950141],[124.562755,10.931464],[124.553559,10.908596],[124.539236,10.888373],[124.527843,10.878119],[124.514496,10.873684],[124.507335,10.874416],[124.470714,10.902411],[124.469249,10.905463],[124.452647,10.900784],[124.446951,10.903144],[124.442393,10.93122],[124.43686,10.935207],[124.424815,10.932685],[124.412608,10.932318],[124.40211,10.929836],[124.396007,10.934068],[124.396821,10.953803],[124.401622,10.966539],[124.414887,10.984849],[124.417979,11.000963],[124.415375,11.019965],[124.408214,11.028876],[124.398774,11.036078],[124.389985,11.049465],[124.388438,11.065863],[124.393809,11.080512],[124.400727,11.092597],[124.406505,11.108303],[124.415782,11.121812],[124.417979,11.128567],[124.416759,11.136176],[124.411632,11.148017],[124.404307,11.210761],[124.404307,11.30268],[124.387055,11.300727],[124.369151,11.311225],[124.354747,11.328681],[124.349132,11.347357],[124.352306,11.355902],[124.366954,11.365871],[124.370291,11.374945],[124.354259,11.379828],[124.342296,11.384955],[124.334727,11.392035],[124.348481,11.399115],[124.344981,11.407375],[124.334972,11.417385],[124.329112,11.429592],[124.325938,11.444403],[124.311371,11.466783],[124.297537,11.526801],[124.300629,11.542873],[124.305186,11.544257],[124.32602,11.554389],[124.329112,11.557115],[124.340099,11.551011],[124.365896,11.515937],[124.424815,11.46776],[124.443126,11.446926],[124.480154,11.385199],[124.483653,11.42768],[124.489594,11.446682],[124.503266,11.443834],[124.533702,11.421698],[124.545258,11.409003],[124.569672,11.346829],[124.594249,11.319525],[124.629893,11.304429],[124.677989,11.30268],[124.71339,11.311591],[124.744395,11.328559],[124.794119,11.371527],[124.832774,11.424506],[124.845714,11.43301],[124.854666,11.430976],[124.874848,11.422024],[124.886892,11.419989],[124.890636,11.422024],[124.890147,11.430976],[124.893728,11.43301],[124.900157,11.430976],[124.903331,11.426459],[124.904307,11.422024],[124.903982,11.419989],[124.929698,11.421291],[124.938162,11.419989],[124.948009,11.413967],[124.969737,11.395819],[124.976329,11.392035],[124.984141,11.381334],[124.982188,11.357896],[124.975597,11.334418],[124.919825,11.324261],[124.932691,11.236539],[124.985324,11.192094],[125.038748,11.197943],[125.02947,11.182074],[125.027599,11.176011],[125.029633,11.164455],[125.039561,11.144761],[125.041759,11.135403],[125.039806,11.103461],[125.054454,11.010647],[125.053071,10.968207],[125.012869,10.844672],[125.006114,10.797349],[125.013845,10.754584],[125.027192,10.742906],[125.08725,10.714789],[125.11199,10.707465],[125.120291,10.70307],[125.124034,10.695136],[125.130544,10.665839],[125.167784,10.622137],[125.15787,10.614598],[125.136373,10.60788],[125.120456,10.598527],[125.108054,10.585142],[125.096995,10.566332],[125.080459,10.543491],[125.061028,10.531916],[125.03736,10.526955],[124.96429,10.520443],[124.942483,10.515793],[124.923466,10.505664],[124.910443,10.492435],[124.896594,10.473056],[124.886155,10.452231],[124.883881,10.434867],[124.905999,10.301594],[124.903725,10.275704],[124.894217,10.269554],[124.871789,10.265679],[124.862177,10.262061],[124.854529,10.253535],[124.845641,10.234673],[124.836649,10.22749],[124.793964,10.20501],[124.766059,10.185477],[124.766012,10.185444],[124.765798,10.18594],[124.771983,10.225165],[124.785655,10.26553],[124.794119,10.30272],[124.792247,10.32567],[124.784841,10.352729],[124.771007,10.375312],[124.749766,10.38467],[124.738943,10.395453],[124.735606,10.420315],[124.736827,10.44774],[124.743988,10.49372],[124.746349,10.50137],[124.751475,10.509955],[124.764822,10.525865],[124.767345,10.532375],[124.768565,10.577338],[124.772309,10.597357],[124.798106,10.659125],[124.800955,10.67829],[124.800548,10.724514],[124.778819,10.821438],[124.773611,10.830959],[124.738129,10.861518],[124.732677,10.86815],[124.728363,10.88642],[124.718028,10.905585],[124.691742,10.939602],[124.650157,10.970893],[124.643321,10.977444],[124.637218,10.994208],[124.622325,11.002021],[124.670121,11.064484],[124.604206,11.156765],[124.558763,11.111741],[124.497956,11.109352],[124.48765,11.065892],[124.549571,10.983303]]]]}},{"type":"Feature","properties":{"id":"PH-LEY","country":"PH","name_en":"Tacloban"},"geometry":{"type":"Polygon","coordinates":[[[124.975597,11.334418],[124.966319,11.318305],[124.96518,11.306383],[124.966319,11.29442],[124.969493,11.289008],[124.972179,11.287095],[124.973969,11.277086],[124.976329,11.27261],[124.981456,11.267971],[124.984548,11.266181],[124.987804,11.264879],[124.993337,11.261664],[125.005219,11.257148],[125.013927,11.256659],[125.019379,11.25259],[125.023448,11.227932],[125.028087,11.228502],[125.032563,11.236274],[125.034434,11.248033],[125.041759,11.248033],[125.042735,11.217027],[125.041759,11.207099],[125.038748,11.197943],[124.985324,11.192094],[124.932691,11.236539],[124.919825,11.324261],[124.975597,11.334418]]]}},{"type":"Feature","properties":{"id":"PH-LEY","country":"PH","name_en":"Ormoc"},"geometry":{"type":"Polygon","coordinates":[[[124.622325,11.002021],[124.602387,11.003485],[124.58253,11.000963],[124.562673,10.99433],[124.549571,10.983303],[124.48765,11.065892],[124.497956,11.109352],[124.558763,11.111741],[124.604206,11.156765],[124.670121,11.064484],[124.622325,11.002021]]]}},{"type":"Feature","properties":{"id":"PH-SLE","country":"PH","name_en":"Southern Leyte"},"geometry":{"type":"MultiPolygon","coordinates":[[[[125.295095,9.970649],[125.306163,9.937445],[125.304942,9.932807],[125.296397,9.929267],[125.291352,9.922187],[125.285167,9.916938],[125.273936,9.919135],[125.267426,9.924506],[125.265147,9.930894],[125.263845,9.938218],[125.260265,9.946479],[125.236339,9.974351],[125.198741,10.035834],[125.164806,10.055976],[125.145763,10.070705],[125.137462,10.086737],[125.125824,10.129828],[125.124522,10.151801],[125.137462,10.165513],[125.149099,10.165961],[125.158458,10.16059],[125.175466,10.145494],[125.216482,10.129625],[125.229259,10.121161],[125.239268,10.103909],[125.253429,10.035834],[125.263031,10.023139],[125.27711,10.008857],[125.289561,9.991685],[125.295095,9.970649]]],[[[125.167784,10.622137],[125.169932,10.619615],[125.174571,10.611233],[125.194102,10.602973],[125.195811,10.582587],[125.185232,10.532375],[125.187266,10.51968],[125.196625,10.497545],[125.198741,10.48428],[125.196544,10.446845],[125.198741,10.433051],[125.20574,10.418606],[125.218923,10.398383],[125.232188,10.386868],[125.239757,10.398342],[125.246593,10.398342],[125.259125,10.383205],[125.266612,10.368394],[125.271007,10.34984],[125.273936,10.323188],[125.27589,10.30036],[125.273285,10.277981],[125.26002,10.261054],[125.229259,10.25434],[125.159353,10.281806],[125.14088,10.278795],[125.134044,10.257961],[125.136729,10.228583],[125.144054,10.200995],[125.151052,10.185452],[125.117035,10.197496],[125.088552,10.22899],[125.068858,10.267239],[125.061697,10.299302],[125.046641,10.319322],[125.044932,10.323188],[125.041515,10.328599],[125.041759,10.364203],[125.03004,10.375393],[125.010427,10.383043],[124.990977,10.381334],[124.979747,10.364203],[124.993012,10.334906],[125.000173,10.199693],[125.024262,10.136054],[125.03061,10.09394],[125.042247,10.049018],[125.041759,10.028998],[125.031749,10.02025],[125.01531,10.026109],[124.962169,10.067328],[124.959239,10.07274],[124.954112,10.086127],[124.942068,10.091702],[124.928233,10.093899],[124.917735,10.097317],[124.90211,10.113023],[124.893891,10.126044],[124.882823,10.134955],[124.85963,10.138251],[124.815196,10.13939],[124.795177,10.143378],[124.780447,10.151923],[124.766012,10.185444],[124.766059,10.185477],[124.793964,10.20501],[124.836649,10.22749],[124.845641,10.234673],[124.854529,10.253535],[124.862177,10.262061],[124.871789,10.265679],[124.894217,10.269554],[124.903725,10.275704],[124.905999,10.301594],[124.883881,10.434867],[124.886155,10.452231],[124.896594,10.473056],[124.910443,10.492435],[124.923466,10.505664],[124.942483,10.515793],[124.96429,10.520443],[125.03736,10.526955],[125.061028,10.531916],[125.080459,10.543491],[125.096995,10.566332],[125.108054,10.585142],[125.120456,10.598527],[125.136373,10.60788],[125.15787,10.614598],[125.167784,10.622137]]]]}},{"type":"Feature","properties":{"id":"PH-BIL","country":"PH","name_en":"Biliran"},"geometry":{"type":"Polygon","coordinates":[[[124.59962,11.563381],[124.62143,11.5539],[124.625011,11.532701],[124.615977,11.498196],[124.609141,11.486558],[124.592459,11.481635],[124.5324,11.482571],[124.507091,11.488837],[124.486339,11.488227],[124.483572,11.479682],[124.479747,11.474677],[124.472667,11.473944],[124.467133,11.477729],[124.463715,11.483873],[124.461436,11.49018],[124.458832,11.494452],[124.424815,11.529242],[124.413259,11.546454],[124.386485,11.614488],[124.380626,11.636705],[124.376475,11.645901],[124.354991,11.67121],[124.349132,11.68008],[124.368663,11.678941],[124.417979,11.693671],[124.430919,11.695054],[124.469086,11.692816],[124.49586,11.69477],[124.505382,11.693061],[124.523204,11.686265],[124.541677,11.675198],[124.556,11.660224],[124.567149,11.62523],[124.591645,11.574123],[124.59962,11.563381]]]}},{"type":"Feature","properties":{"id":"PH-BUK","country":"PH","name_en":"Bukidnon"},"geometry":{"type":"Polygon","coordinates":[[[125.231199,8.591672],[125.320699,8.589837],[125.304079,8.441516],[125.314346,8.39403],[125.31178,8.358095],[125.314346,8.323443],[125.326128,8.286678],[125.331761,8.266472],[125.330211,8.249213],[125.326077,8.232366],[125.323855,8.213349],[125.328816,8.189681],[125.351915,8.146687],[125.360131,8.124156],[125.364886,8.026849],[125.374291,7.997755],[125.374361,7.997599],[125.411291,7.915073],[125.418629,7.885565],[125.42328,7.852234],[125.427311,7.837506],[125.44054,7.80526],[125.443175,7.791979],[125.444106,7.778595],[125.441367,7.739373],[125.434804,7.708057],[125.42173,7.680668],[125.421536,7.680541],[125.400336,7.666612],[125.389019,7.667439],[125.360648,7.675346],[125.348039,7.677516],[125.336877,7.676534],[125.327265,7.674467],[125.317033,7.674209],[125.303701,7.678395],[125.303715,7.67817],[125.305148,7.655089],[125.300497,7.636899],[125.293676,7.618812],[125.288921,7.595816],[125.285924,7.588219],[125.281156,7.582944],[125.281067,7.582845],[125.274245,7.579589],[125.26597,7.578429],[125.265977,7.578556],[125.257657,7.579589],[125.236315,7.58455],[125.230114,7.585274],[125.225641,7.582539],[125.223189,7.578452],[125.221742,7.574422],[125.219365,7.571321],[125.219229,7.571259],[125.211045,7.567497],[125.202622,7.564707],[125.201692,7.56667],[125.201512,7.566457],[125.157973,7.514787],[125.138424,7.49969],[125.120973,7.491429],[125.087745,7.479957],[125.087561,7.479828],[125.075549,7.471379],[125.071157,7.461715],[125.066713,7.435877],[125.060046,7.424767],[125.059837,7.424693],[125.048316,7.420633],[125.036379,7.416809],[125.03631,7.416714],[125.033743,7.413191],[125.033625,7.41316],[125.012039,7.407403],[125.011911,7.40727],[125.005734,7.400789],[125.001239,7.393813],[125.001001,7.39369],[124.993642,7.389885],[124.98248,7.391642],[124.966047,7.402598],[124.952663,7.418979],[124.932664,7.426007],[124.924913,7.427764],[124.917161,7.425904],[124.917041,7.425769],[124.909616,7.41748],[124.89928,7.409678],[124.889669,7.415672],[124.881918,7.427609],[124.877577,7.437479],[124.875407,7.448124],[124.872616,7.485848],[124.866725,7.510963],[124.862177,7.523727],[124.855873,7.534734],[124.845693,7.545069],[124.836287,7.551374],[124.827296,7.558815],[124.818149,7.572251],[124.815255,7.581243],[124.812465,7.600983],[124.808641,7.611112],[124.80399,7.619277],[124.798305,7.625891],[124.791226,7.631576],[124.770038,7.644908],[124.765594,7.651316],[124.763527,7.658551],[124.757946,7.669455],[124.746112,7.686715],[124.743322,7.693588],[124.737585,7.721389],[124.704926,7.776373],[124.660949,7.831099],[124.654593,7.834871],[124.638418,7.840039],[124.631494,7.846136],[124.627256,7.85549],[124.625654,7.865567],[124.624879,7.875282],[124.623071,7.883343],[124.604467,7.910215],[124.604467,7.921946],[124.61434,7.928612],[124.622605,7.934193],[124.637178,7.934555],[124.65387,7.932436],[124.666958,7.93758],[124.667151,7.937655],[124.671181,7.960031],[124.666117,7.973054],[124.655213,7.985663],[124.629737,8.00747],[124.615887,8.036822],[124.572066,8.088499],[124.559767,8.118885],[124.560335,8.136971],[124.570774,8.168597],[124.574236,8.185547],[124.572583,8.196399],[124.569017,8.208595],[124.567622,8.222237],[124.572479,8.237224],[124.590359,8.280942],[124.619778,8.413429],[124.619815,8.413595],[124.785179,8.40295],[124.821085,8.412209],[124.82125,8.412252],[124.828691,8.432354],[124.82559,8.515553],[124.833135,8.53426],[124.846158,8.55245],[124.861816,8.56847],[124.877093,8.580732],[124.877267,8.580872],[124.902537,8.592654],[124.929563,8.596375],[125.230938,8.591676],[125.231199,8.591672]]]}},{"type":"Feature","properties":{"id":"PH-AGN","country":"PH","name_en":"Agusan del Norte"},"geometry":{"type":"MultiPolygon","coordinates":[[[[125.516612,9.015937],[125.526541,9.02619],[125.534516,9.048977],[125.540701,9.084052],[125.542003,9.189195],[125.539317,9.206692],[125.533214,9.217597],[125.526052,9.226955],[125.521007,9.239488],[125.520274,9.248236],[125.521495,9.266181],[125.521007,9.274848],[125.517833,9.284491],[125.509044,9.303697],[125.50294,9.329169],[125.483735,9.361274],[125.477306,9.390611],[125.472911,9.398342],[125.468272,9.404242],[125.466319,9.408352],[125.466319,9.439358],[125.465259,9.4447],[125.517228,9.46056],[125.549577,9.464229],[125.58389,9.462679],[125.622028,9.455806],[125.664092,9.443145],[125.677838,9.437099],[125.691791,9.42852],[125.700989,9.421027],[125.726104,9.392709],[125.730962,9.385216],[125.737473,9.370953],[125.744604,9.359377],[125.744604,9.359274],[125.74047,9.343461],[125.729205,9.313282],[125.727034,9.297056],[125.729515,9.270494],[125.736646,9.250598],[125.748842,9.232873],[125.766825,9.212616],[125.766992,9.212429],[125.766974,9.212283],[125.70962,9.014831],[125.516612,9.015937]]],[[[125.20362,9.081947],[125.208751,9.086493],[125.218516,9.088121],[125.227224,9.078843],[125.239757,9.055162],[125.269298,9.01557],[125.288748,9.000434],[125.311778,8.99433],[125.37672,8.99136],[125.419932,8.981594],[125.441173,8.980414],[125.461938,8.876591],[125.513274,8.79702],[125.6737,8.80087],[125.691668,8.771352],[125.706725,8.727426],[125.703366,8.71275],[125.703167,8.712627],[125.668296,8.691046],[125.662277,8.687326],[125.534694,8.699728],[125.489252,8.676081],[125.454493,8.619784],[125.431755,8.596892],[125.431677,8.596866],[125.40509,8.588107],[125.320699,8.589837],[125.316913,8.675096],[125.292529,8.737983],[125.291017,8.782495],[125.32333,8.885575],[125.275844,8.944612],[125.233628,8.987772],[125.229183,9.009425],[125.222879,9.018003],[125.214662,9.024824],[125.207686,9.032317],[125.204999,9.042911],[125.205826,9.066734],[125.204689,9.078206],[125.203655,9.081823],[125.20362,9.081947]]]]}},{"type":"Feature","properties":{"id":"PH-AGN","country":"PH","name_en":"Butuan"},"geometry":{"type":"Polygon","coordinates":[[[125.441173,8.980414],[125.462169,8.985175],[125.516612,9.015937],[125.70962,9.014831],[125.692951,8.957446],[125.662149,8.876591],[125.671133,8.832955],[125.6737,8.80087],[125.513274,8.79702],[125.461938,8.876591],[125.441173,8.980414]]]}},{"type":"Feature","properties":{"id":"PH-AGS","country":"PH","name_en":"Agusan del Sur"},"geometry":{"type":"Polygon","coordinates":[[[125.767032,9.212771],[125.767382,9.211988],[125.789253,9.163162],[125.802533,9.11102],[125.80858,9.056812],[125.80889,9.001001],[125.801758,8.973819],[125.802068,8.966688],[125.813179,8.956043],[125.826821,8.955939],[125.839895,8.957335],[125.849249,8.950979],[125.856484,8.931755],[125.8647,8.896925],[125.873795,8.879097],[125.883769,8.868296],[125.895293,8.859149],[125.905576,8.849279],[125.919684,8.823544],[125.930536,8.816671],[125.94206,8.81078],[125.951517,8.801117],[125.952653,8.78949],[125.948571,8.777191],[125.946142,8.765357],[125.952343,8.755125],[125.990015,8.723602],[126.023967,8.688411],[126.032649,8.667637],[126.031512,8.644589],[126.022107,8.621645],[126.005984,8.601181],[125.991256,8.568883],[125.998232,8.531779],[126.016836,8.495192],[126.055696,8.435661],[126.06014,8.426359],[126.068977,8.390703],[126.077814,8.381556],[126.100448,8.372926],[126.204214,8.358715],[126.222818,8.348793],[126.224678,8.317942],[126.205041,8.214796],[126.217547,8.153973],[126.278008,8.053152],[126.291186,7.995843],[126.290892,7.995841],[126.183027,7.994965],[125.675441,7.996716],[125.374291,7.997755],[125.364886,8.026849],[125.360131,8.124156],[125.351915,8.146687],[125.328816,8.189681],[125.323855,8.213349],[125.326077,8.232366],[125.330211,8.249213],[125.331761,8.266472],[125.326128,8.286678],[125.314346,8.323443],[125.31178,8.358095],[125.314346,8.39403],[125.304079,8.441516],[125.320699,8.589837],[125.40509,8.588107],[125.431677,8.596866],[125.431755,8.596892],[125.454493,8.619784],[125.489252,8.676081],[125.534694,8.699728],[125.662277,8.687326],[125.668296,8.691046],[125.703167,8.712627],[125.703366,8.71275],[125.706725,8.727426],[125.691668,8.771352],[125.6737,8.80087],[125.671133,8.832955],[125.662149,8.876591],[125.692951,8.957446],[125.70962,9.014831],[125.766974,9.212283],[125.766992,9.212429],[125.767032,9.212771]]]}},{"type":"Feature","properties":{"id":"PH-MSR","country":"PH","name_en":"Misamis Oriental"},"geometry":{"type":"MultiPolygon","coordinates":[[[[124.753184,8.561713],[124.757335,8.569078],[124.769786,8.58633],[124.773611,8.596422],[124.771495,8.615871],[124.751475,8.650458],[124.746349,8.670966],[124.751231,8.692776],[124.763194,8.706],[124.77711,8.717353],[124.787852,8.733629],[124.78004,8.752875],[124.780772,8.774604],[124.787852,8.818996],[124.787852,8.904283],[124.780772,8.949123],[124.781749,8.971137],[124.791026,8.990627],[124.799083,8.999986],[124.809418,9.009467],[124.820811,9.014553],[124.832042,9.010728],[124.843598,9.00373],[124.85377,9.003974],[124.864024,9.006741],[124.87672,9.007392],[124.895193,9.002753],[124.915294,8.994127],[124.931407,8.982733],[124.938162,8.969794],[124.947276,8.96247],[125.026378,8.918524],[125.034434,8.91177],[125.057384,8.88227],[125.072765,8.872789],[125.093028,8.839789],[125.105968,8.829779],[125.115733,8.830552],[125.137462,8.843492],[125.159353,8.851142],[125.176443,8.860582],[125.187348,8.875922],[125.195323,8.960883],[125.191417,8.980048],[125.187755,8.985907],[125.183116,8.9914],[125.17921,8.997992],[125.177745,9.007392],[125.179942,9.019477],[125.18922,9.039374],[125.191417,9.052069],[125.191905,9.064927],[125.194102,9.072414],[125.199474,9.078274],[125.20362,9.081947],[125.203655,9.081823],[125.204689,9.078206],[125.205826,9.066734],[125.204999,9.042911],[125.207686,9.032317],[125.214662,9.024824],[125.222879,9.018003],[125.229183,9.009425],[125.233628,8.987772],[125.275844,8.944612],[125.32333,8.885575],[125.291017,8.782495],[125.292529,8.737983],[125.316913,8.675096],[125.320699,8.589837],[125.231199,8.591672],[125.230938,8.591676],[124.929563,8.596375],[124.902537,8.592654],[124.877267,8.580872],[124.877093,8.580732],[124.861816,8.56847],[124.846158,8.55245],[124.833135,8.53426],[124.82559,8.515553],[124.753184,8.561713]]],[[[124.261693,8.324176],[124.261729,8.32453],[124.265391,8.33397],[124.273936,8.350043],[124.274587,8.35456],[124.273204,8.364814],[124.273936,8.369289],[124.277029,8.373521],[124.283946,8.378607],[124.286957,8.383531],[124.296235,8.404731],[124.29949,8.415473],[124.302013,8.45246],[124.305919,8.4737],[124.321788,8.514553],[124.34254,8.548651],[124.371104,8.581366],[124.405772,8.607896],[124.444591,8.623765],[124.469981,8.624823],[124.476085,8.614569],[124.475352,8.5987],[124.480154,8.582831],[124.485199,8.582465],[124.508556,8.577338],[124.510509,8.575995],[124.517426,8.574652],[124.52589,8.571112],[124.540782,8.561713],[124.571544,8.528144],[124.510086,8.477386],[124.540536,8.469081],[124.537768,8.438631],[124.501781,8.416485],[124.436648,8.349528],[124.407528,8.369877],[124.394144,8.3752],[124.377142,8.375613],[124.352338,8.370549],[124.325053,8.357423],[124.321344,8.354736],[124.300093,8.339336],[124.299896,8.339226],[124.274513,8.32497],[124.262007,8.324195],[124.261693,8.324176]]]]}},{"type":"Feature","properties":{"id":"PH-MSR","country":"PH","name_en":"Cagayan de Oro"},"geometry":{"type":"Polygon","coordinates":[[[124.571544,8.528144],[124.58253,8.520697],[124.599946,8.516181],[124.657481,8.514553],[124.648448,8.496324],[124.640961,8.47602],[124.636485,8.454291],[124.636485,8.431952],[124.643321,8.431952],[124.650645,8.458197],[124.663097,8.475816],[124.682953,8.481838],[124.712169,8.472968],[124.716482,8.479804],[124.732677,8.493394],[124.736339,8.495022],[124.749766,8.498725],[124.753184,8.50023],[124.753673,8.506578],[124.750987,8.512519],[124.747732,8.517401],[124.746349,8.520697],[124.750499,8.5515],[124.753184,8.561713],[124.82559,8.515553],[124.828691,8.432354],[124.82125,8.412252],[124.821085,8.412209],[124.785179,8.40295],[124.619815,8.413595],[124.619778,8.413429],[124.590359,8.280942],[124.572479,8.237224],[124.572338,8.237229],[124.558062,8.237792],[124.547261,8.244252],[124.539768,8.255],[124.529071,8.282492],[124.52163,8.29014],[124.436648,8.349528],[124.501781,8.416485],[124.537768,8.438631],[124.540536,8.469081],[124.510086,8.477386],[124.571544,8.528144]]]}},{"type":"Feature","properties":{"id":"PH-MSC","country":"PH","name_en":"Misamis Occidental"},"geometry":{"type":"Polygon","coordinates":[[[123.549001,8.618842],[123.561371,8.613837],[123.567638,8.610093],[123.571788,8.604682],[123.581309,8.582831],[123.590994,8.59276],[123.59254,8.602281],[123.592133,8.612372],[123.594981,8.623765],[123.600352,8.632554],[123.615489,8.651068],[123.603282,8.663072],[123.61671,8.670722],[123.633067,8.668443],[123.62908,8.651068],[123.710297,8.633246],[123.722504,8.628079],[123.730968,8.618883],[123.738943,8.602688],[123.745779,8.602688],[123.75408,8.610297],[123.7588,8.607489],[123.766856,8.589016],[123.764903,8.589097],[123.777029,8.557359],[123.780528,8.551744],[123.786388,8.537665],[123.82838,8.486558],[123.844737,8.452216],[123.857595,8.40941],[123.866059,8.364325],[123.869314,8.243313],[123.884776,8.185452],[123.882986,8.164496],[123.873302,8.153266],[123.767751,8.059027],[123.745779,8.048407],[123.702403,8.045803],[123.684744,8.036811],[123.677664,8.010728],[123.677582,8.010606],[123.658685,8.008039],[123.641373,8.009434],[123.63512,8.01486],[123.631865,8.02225],[123.623493,8.029691],[123.612124,8.033463],[123.571869,8.040543],[123.555022,8.070619],[123.551095,8.129633],[123.556107,8.231953],[123.549001,8.618842]]]}},{"type":"Feature","properties":{"id":"PH-CAM","country":"PH","name_en":"Camiguin"},"geometry":{"type":"Polygon","coordinates":[[[124.78419,9.199774],[124.793468,9.192694],[124.803233,9.176093],[124.80836,9.156806],[124.800955,9.12873],[124.802582,9.112494],[124.80128,9.096259],[124.787852,9.083075],[124.77947,9.079495],[124.770193,9.077379],[124.76295,9.079006],[124.757091,9.092719],[124.750011,9.094306],[124.740896,9.094468],[124.732677,9.096137],[124.67213,9.125393],[124.646739,9.148871],[124.636485,9.182359],[124.646739,9.218899],[124.673106,9.242377],[124.708507,9.25019],[124.746349,9.239488],[124.763031,9.214423],[124.772472,9.204047],[124.78419,9.199774]]]}},{"type":"Feature","properties":{"id":"PH-DAV","country":"PH","name_en":"Davao del Norte"},"geometry":{"type":"MultiPolygon","coordinates":[[[[125.79127,6.948188],[125.793712,6.939521],[125.789724,6.928778],[125.783946,6.917426],[125.776866,6.894029],[125.767751,6.898871],[125.753673,6.917467],[125.745372,6.936957],[125.738292,6.979193],[125.725352,7.004788],[125.721934,7.01557],[125.717621,7.052232],[125.712169,7.056301],[125.703787,7.056708],[125.683849,7.065253],[125.677908,7.066392],[125.674083,7.070217],[125.671723,7.081977],[125.672699,7.09276],[125.676931,7.103909],[125.682872,7.112616],[125.689138,7.116116],[125.696544,7.126939],[125.702159,7.177151],[125.706554,7.19184],[125.715831,7.19595],[125.723643,7.193101],[125.72934,7.186103],[125.733165,7.177558],[125.749522,7.162055],[125.767345,7.149726],[125.781912,7.135199],[125.787852,7.112982],[125.781261,6.984849],[125.78419,6.963121],[125.79127,6.948188]]],[[[125.830715,7.354266],[125.82545,7.355699],[125.806895,7.351142],[125.746837,7.307929],[125.687836,7.274644],[125.676768,7.264635],[125.663575,7.274388],[125.648444,7.264931],[125.635102,7.248188],[125.622048,7.239351],[125.522085,7.236096],[125.500898,7.241936],[125.497022,7.257852],[125.501622,7.59163],[125.288921,7.595816],[125.293676,7.618812],[125.300497,7.636899],[125.305148,7.655089],[125.303715,7.67817],[125.303701,7.678395],[125.317033,7.674209],[125.327265,7.674467],[125.336877,7.676534],[125.348039,7.677516],[125.360648,7.675346],[125.389019,7.667439],[125.400336,7.666612],[125.421536,7.680541],[125.42173,7.680668],[125.434804,7.708057],[125.441367,7.739373],[125.444106,7.778595],[125.443175,7.791979],[125.44054,7.80526],[125.427311,7.837506],[125.42328,7.852234],[125.418629,7.885565],[125.411291,7.915073],[125.374361,7.997599],[125.374291,7.997755],[125.675441,7.996716],[125.675461,7.996566],[125.702746,7.793685],[125.709774,7.782238],[125.718042,7.771025],[125.73861,7.746453],[125.759384,7.730872],[125.778917,7.698083],[125.777884,7.656846],[125.817778,7.68227],[125.845787,7.733714],[125.880203,7.782135],[125.919891,7.826163],[125.943868,7.756426],[125.935083,7.734619],[125.923095,7.714672],[125.911829,7.700745],[125.904801,7.68749],[125.913999,7.67408],[125.925575,7.661419],[125.93436,7.626899],[125.923818,7.562536],[125.916893,7.541995],[125.852505,7.528042],[125.869661,7.501558],[125.88382,7.485254],[125.866354,7.479001],[125.849714,7.467813],[125.833901,7.455592],[125.826666,7.432208],[125.841136,7.422415],[125.839275,7.406267],[125.830904,7.388361],[125.832764,7.374796],[125.831937,7.361877],[125.830715,7.354266]]]]}},{"type":"Feature","properties":{"id":"PH-DAV","country":"PH","name_en":"Davao"},"geometry":{"type":"Polygon","coordinates":[[[125.676768,7.264635],[125.676606,7.264472],[125.668305,7.257025],[125.656912,7.237047],[125.653982,7.215074],[125.659353,7.149848],[125.658051,7.129136],[125.654552,7.119574],[125.646169,7.107856],[125.644379,7.099066],[125.639008,7.088772],[125.603526,7.054633],[125.57545,7.038723],[125.541759,7.030585],[125.509939,7.01557],[125.302771,7.01735],[125.308833,7.020179],[125.308972,7.020244],[125.315018,7.028202],[125.314294,7.031457],[125.310212,7.035953],[125.306181,7.047787],[125.303081,7.10613],[125.297603,7.122253],[125.284374,7.135172],[125.247735,7.156411],[125.234454,7.168348],[125.222517,7.183334],[125.224429,7.189432],[125.235385,7.21465],[125.24665,7.231962],[125.249854,7.238628],[125.251094,7.258007],[125.244221,7.301518],[125.241896,7.335987],[125.236211,7.36198],[125.237038,7.376708],[125.2451,7.429728],[125.276726,7.533907],[125.277294,7.547757],[125.274245,7.557989],[125.265512,7.570081],[125.26597,7.578429],[125.274245,7.579589],[125.281067,7.582845],[125.281156,7.582944],[125.285924,7.588219],[125.288921,7.595816],[125.501622,7.59163],[125.497022,7.257852],[125.500898,7.241936],[125.522085,7.236096],[125.622048,7.239351],[125.635102,7.248188],[125.648444,7.264931],[125.663575,7.274388],[125.676768,7.264635]]]}},{"type":"Feature","properties":{"id":"PH-DAS","country":"PH","name_en":"Davao del Sur"},"geometry":{"type":"MultiPolygon","coordinates":[[[[125.509939,7.01557],[125.487478,6.978949],[125.48463,6.935126],[125.480642,6.913235],[125.469737,6.903876],[125.424653,6.849189],[125.403575,6.811835],[125.388927,6.768297],[125.380382,6.721503],[125.377615,6.674221],[125.380626,6.657213],[125.394298,6.618232],[125.397472,6.598456],[125.405528,6.588853],[125.421886,6.582343],[125.434581,6.588202],[125.43214,6.61579],[125.465099,6.594672],[125.508067,6.539496],[125.534516,6.512844],[125.553233,6.524848],[125.573578,6.516913],[125.589854,6.499172],[125.59669,6.481757],[125.597667,6.442694],[125.60141,6.427883],[125.630138,6.366197],[125.640961,6.352362],[125.644786,6.344143],[125.645518,6.332587],[125.644379,6.310492],[125.645844,6.299628],[125.649262,6.292426],[125.658051,6.280015],[125.706554,6.149726],[125.710134,6.132066],[125.710623,6.111029],[125.706554,6.089545],[125.696056,6.071194],[125.692393,6.060981],[125.699229,6.040473],[125.696056,6.029934],[125.692149,6.021877],[125.685313,5.992662],[125.667328,5.950141],[125.594574,5.862128],[125.499034,5.726142],[125.436371,5.617662],[125.421641,5.598212],[125.403005,5.580878],[125.387543,5.573798],[125.371267,5.572943],[125.322765,5.575507],[125.30836,5.579576],[125.306476,5.583576],[125.310729,5.586791],[125.346696,5.605188],[125.346799,5.605264],[125.362036,5.616453],[125.363232,5.617332],[125.376565,5.633662],[125.462037,5.830135],[125.466482,5.833701],[125.473406,5.833959],[125.478884,5.835458],[125.478895,5.83556],[125.479711,5.842899],[125.478367,5.851788],[125.476403,5.904188],[125.47816,5.914833],[125.508443,6.011003],[125.508443,6.029555],[125.50865,6.029694],[125.514437,6.033586],[125.519088,6.038443],[125.522602,6.044334],[125.525186,6.051569],[125.529734,6.078234],[125.529734,6.09291],[125.525703,6.102108],[125.519708,6.10831],[125.512267,6.118335],[125.506272,6.128877],[125.504722,6.136525],[125.506066,6.14717],[125.503275,6.167944],[125.502862,6.179313],[125.506169,6.192697],[125.510613,6.204738],[125.51113,6.216933],[125.488702,6.252125],[125.464621,6.298376],[125.446224,6.313672],[125.436923,6.316307],[125.426071,6.316876],[125.415529,6.315119],[125.396718,6.30592],[125.389277,6.310313],[125.381526,6.316152],[125.358271,6.314757],[125.311866,6.321785],[125.286441,6.319046],[125.276932,6.319718],[125.26298,6.324317],[125.248717,6.332482],[125.214094,6.366795],[125.202002,6.375063],[125.17668,6.388396],[125.167688,6.395114],[125.168205,6.414131],[125.167378,6.419712],[125.161694,6.424673],[125.153116,6.427515],[125.145054,6.42922],[125.141333,6.430667],[125.140808,6.434871],[125.139783,6.44307],[125.144124,6.449839],[125.151359,6.455472],[125.158697,6.464567],[125.165208,6.488441],[125.168205,6.54079],[125.176473,6.563166],[125.176501,6.56333],[125.176732,6.563321],[125.193578,6.662539],[125.192183,6.678456],[125.183967,6.694785],[125.161487,6.722381],[125.154873,6.735145],[125.149705,6.782222],[125.166448,6.844647],[125.268509,6.954821],[125.269233,7.002777],[125.272876,7.005154],[125.278896,7.009082],[125.302771,7.01735],[125.509939,7.01557]]],[[[125.418712,5.425482],[125.422211,5.420233],[125.424571,5.407375],[125.42335,5.377916],[125.418712,5.368476],[125.411632,5.368109],[125.399099,5.371772],[125.380626,5.370347],[125.36378,5.367174],[125.351573,5.371731],[125.343272,5.380601],[125.334239,5.387681],[125.333507,5.392524],[125.342052,5.400295],[125.358165,5.422065],[125.376801,5.43122],[125.404796,5.430487],[125.418712,5.425482]]]]}},{"type":"Feature","properties":{"id":"PH-COM","country":"PH","name_en":"Davao de Oro"},"geometry":{"type":"Polygon","coordinates":[[[125.954275,7.047406],[125.91505,7.085028],[125.902599,7.101142],[125.89796,7.116034],[125.89088,7.15705],[125.850597,7.253892],[125.849864,7.294257],[125.853201,7.31623],[125.853201,7.336005],[125.845388,7.350246],[125.830715,7.354266],[125.831937,7.361877],[125.832764,7.374796],[125.830904,7.388361],[125.839275,7.406267],[125.841136,7.422415],[125.826666,7.432208],[125.833901,7.455592],[125.849714,7.467813],[125.866354,7.479001],[125.88382,7.485254],[125.869661,7.501558],[125.852505,7.528042],[125.916893,7.541995],[125.923818,7.562536],[125.93436,7.626899],[125.925575,7.661419],[125.913999,7.67408],[125.904801,7.68749],[125.911829,7.700745],[125.923095,7.714672],[125.935083,7.734619],[125.943868,7.756426],[125.919891,7.826163],[125.880203,7.782135],[125.845787,7.733714],[125.817778,7.68227],[125.777884,7.656846],[125.778917,7.698083],[125.759384,7.730872],[125.73861,7.746453],[125.718042,7.771025],[125.709774,7.782238],[125.702746,7.793685],[125.675461,7.996566],[125.675441,7.996716],[126.183027,7.994965],[126.182998,7.994811],[126.169694,7.924013],[126.176722,7.84872],[126.241215,7.594886],[126.244315,7.557524],[126.21858,7.454636],[126.223386,7.427351],[126.265192,7.365339],[126.285863,7.327667],[126.293615,7.298883],[126.27713,7.268807],[126.241774,7.240245],[126.076057,7.139513],[126.075939,7.139412],[126.002883,7.076778],[126.002741,7.076678],[125.979215,7.06019],[125.954514,7.047529],[125.954275,7.047406]]]}},{"type":"Feature","properties":{"id":"PH-DAO","country":"PH","name_en":"Davao Oriental"},"geometry":{"type":"Polygon","coordinates":[[[126.383474,7.899563],[126.383067,7.885688],[126.391368,7.858303],[126.406098,7.833238],[126.425304,7.815009],[126.454926,7.797309],[126.459321,7.791693],[126.46339,7.781073],[126.487478,7.746731],[126.510997,7.732733],[126.562266,7.727525],[126.582856,7.719428],[126.575694,7.697089],[126.571788,7.674954],[126.569184,7.62637],[126.573578,7.603502],[126.592784,7.5539],[126.600922,7.506415],[126.60727,7.485175],[126.608653,7.465318],[126.597341,7.445054],[126.585704,7.437323],[126.574718,7.43301],[126.566417,7.426011],[126.562999,7.410346],[126.566742,7.406684],[126.589692,7.389838],[126.582042,7.367377],[126.58074,7.320014],[126.569184,7.301093],[126.577403,7.295315],[126.610362,7.277045],[126.617686,7.276842],[126.612315,7.25788],[126.58839,7.226793],[126.582856,7.208645],[126.579763,7.201077],[126.571951,7.198188],[126.562999,7.196357],[126.555675,7.19184],[126.550304,7.183051],[126.529633,7.129136],[126.523204,7.118842],[126.491059,7.088813],[126.47641,7.06623],[126.468516,7.038764],[126.466156,7.003119],[126.451508,6.983547],[126.417491,6.980048],[126.378591,6.987372],[126.349457,7.000067],[126.323985,6.978095],[126.309581,6.94892],[126.303233,6.918647],[126.301768,6.893256],[126.307465,6.881415],[126.334483,6.858588],[126.343272,6.849189],[126.347504,6.833889],[126.349294,6.812934],[126.347016,6.794501],[126.33961,6.786526],[126.308849,6.798041],[126.29127,6.825832],[126.268321,6.890204],[126.242686,6.919257],[126.212901,6.934027],[126.191905,6.925116],[126.192556,6.883368],[126.18572,6.883368],[126.183116,6.889472],[126.17213,6.903876],[126.167979,6.882554],[126.178559,6.861396],[126.192882,6.841702],[126.207856,6.805894],[126.225759,6.78974],[126.244314,6.776516],[126.254568,6.766669],[126.257172,6.744818],[126.244151,6.703925],[126.22877,6.616197],[126.226899,6.46894],[126.210216,6.390204],[126.206065,6.299302],[126.200206,6.283189],[126.18572,6.286851],[126.18214,6.300727],[126.177745,6.351467],[126.175548,6.362616],[126.141287,6.386176],[126.137218,6.395575],[126.136974,6.407416],[126.138194,6.419867],[126.137869,6.430854],[126.112966,6.477362],[126.100108,6.49372],[126.095063,6.514106],[126.082693,6.639716],[126.084321,6.663072],[126.096365,6.725043],[126.095958,6.747219],[126.085297,6.78262],[126.082693,6.804511],[126.082693,6.830878],[126.079112,6.842515],[126.067149,6.847886],[126.041759,6.855414],[126.022146,6.866767],[125.983409,6.920885],[125.976817,6.939602],[125.985688,6.98607],[125.986501,7.006293],[125.974783,7.027737],[125.954275,7.047406],[125.954514,7.047529],[125.979215,7.06019],[126.002741,7.076678],[126.002883,7.076778],[126.075939,7.139412],[126.076057,7.139513],[126.241774,7.240245],[126.27713,7.268807],[126.293615,7.298883],[126.285863,7.327667],[126.265192,7.365339],[126.223386,7.427351],[126.21858,7.454636],[126.244315,7.557524],[126.241215,7.594886],[126.176722,7.84872],[126.169694,7.924013],[126.182998,7.994811],[126.183027,7.994965],[126.290892,7.995841],[126.291186,7.995843],[126.299351,7.966439],[126.313975,7.940187],[126.335162,7.919259],[126.363016,7.905771],[126.383474,7.899563]]]}},{"type":"Feature","properties":{"id":"PH-SUR","country":"PH","name_en":"Surigao del Sur"},"geometry":{"type":"Polygon","coordinates":[[[125.934093,9.492336],[125.938731,9.48371],[125.94044,9.475002],[125.948985,9.46308],[125.952403,9.45303],[125.96339,9.47248],[125.965994,9.480292],[125.97283,9.480292],[125.972667,9.464016],[125.971202,9.454088],[125.967459,9.44717],[125.959727,9.439358],[125.948578,9.434231],[125.920258,9.426907],[125.911876,9.418199],[125.910981,9.404934],[125.916759,9.395413],[125.926931,9.388902],[125.938731,9.384711],[125.955821,9.381781],[125.966645,9.384263],[125.993907,9.397773],[125.991954,9.357856],[125.996593,9.324652],[126.011729,9.29385],[126.057953,9.245998],[126.06544,9.241767],[126.075857,9.239488],[126.089122,9.240871],[126.109874,9.251207],[126.143403,9.26142],[126.179373,9.297187],[126.199962,9.308417],[126.2199,9.30565],[126.22462,9.290961],[126.219412,9.272203],[126.200369,9.240627],[126.19337,9.216376],[126.18572,9.17182],[126.18572,9.138332],[126.178966,9.093004],[126.183604,9.081488],[126.194509,9.07746],[126.207042,9.076117],[126.217052,9.072496],[126.222992,9.06391],[126.233653,9.039374],[126.240245,9.028469],[126.312755,8.956244],[126.322276,8.93537],[126.323578,8.922349],[126.335948,8.884467],[126.331879,8.870022],[126.332367,8.86107],[126.34547,8.853258],[126.34311,8.84512],[126.338227,8.837633],[126.335948,8.836086],[126.328787,8.81273],[126.316905,8.787991],[126.300059,8.768297],[126.278168,8.760321],[126.240245,8.735053],[126.234141,8.733629],[126.234141,8.719184],[126.241873,8.710598],[126.261485,8.698879],[126.261485,8.692694],[126.257579,8.690497],[126.257009,8.689683],[126.256847,8.688544],[126.254568,8.685207],[126.242198,8.690009],[126.231619,8.692206],[126.209972,8.692694],[126.197765,8.6883],[126.173676,8.669094],[126.138438,8.654039],[126.118907,8.630561],[126.110525,8.607123],[126.130382,8.586493],[126.148204,8.540676],[126.158458,8.527574],[126.167247,8.526597],[126.199962,8.527574],[126.219574,8.521715],[126.22877,8.52147],[126.240245,8.527574],[126.220714,8.540432],[126.214203,8.548245],[126.22047,8.555487],[126.231781,8.554836],[126.244802,8.549302],[126.257498,8.546861],[126.268321,8.555487],[126.291515,8.544623],[126.356944,8.534369],[126.356212,8.536282],[126.359141,8.539374],[126.364431,8.541815],[126.370128,8.541815],[126.369802,8.538886],[126.37322,8.530829],[126.380626,8.517646],[126.401052,8.502183],[126.405284,8.492621],[126.39796,8.479153],[126.402029,8.476304],[126.406912,8.470404],[126.411632,8.466132],[126.38502,8.467353],[126.37436,8.464545],[126.370128,8.455552],[126.366873,8.432074],[126.370128,8.427639],[126.3838,8.431952],[126.387706,8.415351],[126.380056,8.395575],[126.356944,8.363715],[126.352306,8.362372],[126.340505,8.35517],[126.33253,8.347073],[126.33961,8.343207],[126.343272,8.338121],[126.356944,8.311916],[126.365001,8.304999],[126.379893,8.302069],[126.388438,8.292914],[126.377615,8.267524],[126.345876,8.231391],[126.338634,8.214586],[126.346446,8.195502],[126.361583,8.187161],[126.377615,8.191596],[126.393321,8.200507],[126.42335,8.211005],[126.459321,8.24018],[126.463064,8.229926],[126.457286,8.144721],[126.453949,8.12934],[126.455333,8.115058],[126.466156,8.095526],[126.442882,8.081448],[126.431488,8.0456],[126.434255,8.005927],[126.453136,7.980129],[126.434825,7.961819],[126.395518,7.933336],[126.3838,7.9112],[126.383474,7.899563],[126.363016,7.905771],[126.335162,7.919259],[126.313975,7.940187],[126.299351,7.966439],[126.291186,7.995843],[126.278008,8.053152],[126.217547,8.153973],[126.205041,8.214796],[126.224678,8.317942],[126.222818,8.348793],[126.204214,8.358715],[126.100448,8.372926],[126.077814,8.381556],[126.068977,8.390703],[126.06014,8.426359],[126.055696,8.435661],[126.016836,8.495192],[125.998232,8.531779],[125.991256,8.568883],[126.005984,8.601181],[126.022107,8.621645],[126.031512,8.644589],[126.032649,8.667637],[126.023967,8.688411],[125.990015,8.723602],[125.952343,8.755125],[125.946142,8.765357],[125.948571,8.777191],[125.952653,8.78949],[125.951517,8.801117],[125.94206,8.81078],[125.930536,8.816671],[125.919684,8.823544],[125.905576,8.849279],[125.895293,8.859149],[125.883769,8.868296],[125.873795,8.879097],[125.8647,8.896925],[125.856484,8.931755],[125.849249,8.950979],[125.839895,8.957335],[125.826821,8.955939],[125.813179,8.956043],[125.802068,8.966688],[125.801758,8.973819],[125.80889,9.001001],[125.80858,9.056812],[125.802533,9.11102],[125.789253,9.163162],[125.767382,9.211988],[125.767032,9.212771],[125.766992,9.212429],[125.766825,9.212616],[125.748842,9.232873],[125.736646,9.250598],[125.729515,9.270494],[125.727034,9.297056],[125.729205,9.313282],[125.933811,9.49203],[125.934093,9.492336]]]}},{"type":"Feature","properties":{"id":"PH-SUN","country":"PH","name_en":"Dinagat Islands"},"geometry":{"type":"MultiPolygon","coordinates":[[[[125.990245,9.685736],[126.001475,9.676744],[125.997569,9.656073],[125.980235,9.617499],[125.985118,9.605658],[125.984141,9.589504],[125.978526,9.575181],[125.969412,9.569078],[125.953949,9.56566],[125.946951,9.56623],[125.952891,9.581977],[125.9463,9.587592],[125.935232,9.589911],[125.925059,9.589545],[125.925059,9.596381],[125.935313,9.596015],[125.938731,9.596381],[125.938731,9.603827],[125.918142,9.617499],[125.918142,9.610053],[125.915538,9.618964],[125.916515,9.629136],[125.925059,9.651028],[125.929698,9.657945],[125.933604,9.660386],[125.936697,9.66356],[125.938731,9.672756],[125.938975,9.681342],[125.937511,9.692532],[125.938731,9.699408],[125.928884,9.715074],[125.927257,9.738715],[125.934825,9.759914],[125.952403,9.768297],[125.958018,9.761379],[125.960216,9.755805],[125.959727,9.747219],[125.969086,9.751939],[125.97283,9.754625],[125.97462,9.738349],[125.972911,9.715277],[125.975434,9.694648],[125.990245,9.685736]]],[[[125.465259,9.4447],[125.462413,9.459296],[125.440684,9.515937],[125.438162,9.525824],[125.435557,9.546047],[125.398692,9.681057],[125.397472,9.699408],[125.400401,9.717434],[125.407074,9.73371],[125.45574,9.812812],[125.459483,9.822943],[125.471365,9.808905],[125.488455,9.792914],[125.507091,9.779934],[125.540375,9.771064],[125.569021,9.756659],[125.589203,9.754625],[125.584646,9.73078],[125.592621,9.702338],[125.604503,9.673326],[125.610362,9.647895],[125.620128,9.629788],[125.643565,9.611274],[125.670909,9.600084],[125.692882,9.603827],[125.691091,9.600165],[125.690115,9.59691],[125.68865,9.593492],[125.685313,9.589545],[125.698497,9.589993],[125.705903,9.58515],[125.712738,9.575873],[125.722667,9.575507],[125.743988,9.577379],[125.753673,9.575873],[125.772472,9.554836],[125.781016,9.54857],[125.790863,9.545315],[125.848969,9.537177],[125.868012,9.526923],[125.901134,9.497056],[125.910655,9.494208],[125.923188,9.494289],[125.934093,9.492336],[125.933811,9.49203],[125.729205,9.313282],[125.74047,9.343461],[125.744604,9.359274],[125.744604,9.359377],[125.737473,9.370953],[125.730962,9.385216],[125.726104,9.392709],[125.700989,9.421027],[125.691791,9.42852],[125.677838,9.437099],[125.664092,9.443145],[125.622028,9.455806],[125.58389,9.462679],[125.549577,9.464229],[125.517228,9.46056],[125.465259,9.4447]]],[[[126.165863,9.829169],[126.174083,9.817206],[126.180186,9.8015],[126.178233,9.787828],[126.155447,9.779202],[126.138845,9.765611],[126.130382,9.760891],[126.120128,9.758938],[126.093272,9.760891],[126.054454,9.775092],[126.041677,9.775133],[126.048595,9.754625],[126.033946,9.766343],[126.019216,9.781684],[125.993907,9.816107],[125.993419,9.820299],[125.995372,9.824652],[125.996593,9.829779],[125.993907,9.836615],[125.987966,9.839993],[125.980317,9.839789],[125.972667,9.841498],[125.965994,9.850246],[125.979828,9.849189],[125.992931,9.850246],[126.004731,9.854885],[126.014415,9.864488],[126.003266,9.869289],[125.989106,9.877143],[125.979828,9.888007],[125.983409,9.901801],[126.044688,9.998725],[126.048595,10.007961],[126.048513,10.017483],[126.045665,10.02619],[126.045258,10.035142],[126.052257,10.045478],[126.071462,10.059068],[126.08074,10.05565],[126.12672,9.956041],[126.13795,9.901923],[126.137869,9.891181],[126.133149,9.880683],[126.117849,9.866889],[126.110606,9.857082],[126.129893,9.85456],[126.142833,9.850043],[126.153494,9.841986],[126.165863,9.829169]]],[[[125.719574,9.911689],[125.72169,9.894355],[125.714529,9.880845],[125.699474,9.874254],[125.678559,9.87759],[125.663585,9.889146],[125.660818,9.903998],[125.661876,9.920966],[125.658051,9.939032],[125.648611,9.946967],[125.620616,9.955227],[125.610362,9.966946],[125.620291,9.966539],[125.623302,9.966946],[125.615001,9.97248],[125.611339,9.977281],[125.612315,9.982001],[125.617198,9.987454],[125.617198,9.993598],[125.593028,9.992987],[125.583181,10.009711],[125.585216,10.033881],[125.59669,10.05565],[125.60141,10.047431],[125.608409,10.043606],[125.614513,10.046617],[125.617198,10.059068],[125.614513,10.064154],[125.601329,10.080268],[125.59669,10.08983],[125.589203,10.08983],[125.584483,10.077541],[125.577891,10.076646],[125.569347,10.080797],[125.558849,10.083645],[125.552501,10.078681],[125.545258,10.068752],[125.535411,10.060858],[125.521007,10.062567],[125.513438,10.072984],[125.513194,10.086615],[125.510753,10.098456],[125.497081,10.103461],[125.495291,10.10871],[125.495942,10.134589],[125.493663,10.144477],[125.508962,10.151313],[125.517589,10.169379],[125.519379,10.190619],[125.514171,10.207099],[125.521983,10.210395],[125.528982,10.209784],[125.535492,10.206],[125.542003,10.199693],[125.538829,10.215155],[125.531993,10.22899],[125.530284,10.241889],[125.542003,10.25434],[125.536957,10.257148],[125.534841,10.260077],[125.532888,10.263658],[125.527843,10.268622],[125.532237,10.283922],[125.523936,10.301907],[125.522146,10.316962],[125.545421,10.323188],[125.557791,10.3251],[125.562511,10.330797],[125.562511,10.353949],[125.560395,10.361314],[125.556895,10.366034],[125.556163,10.370754],[125.562511,10.378485],[125.567882,10.380927],[125.574718,10.381171],[125.580414,10.379136],[125.586436,10.367418],[125.594412,10.36518],[125.603363,10.366767],[125.610362,10.370998],[125.614757,10.381049],[125.617198,10.41942],[125.624197,10.443671],[125.629649,10.454047],[125.637706,10.460395],[125.649669,10.4619],[125.6574,10.456448],[125.671723,10.433051],[125.684825,10.399888],[125.683849,10.364407],[125.664887,10.295885],[125.661388,10.270575],[125.658051,10.261705],[125.654633,10.264228],[125.646251,10.265367],[125.638682,10.261379],[125.637706,10.248114],[125.645844,10.239691],[125.660167,10.228258],[125.668142,10.214667],[125.658051,10.199693],[125.664887,10.192857],[125.653819,10.186591],[125.656505,10.176337],[125.668468,10.169257],[125.685313,10.172349],[125.677582,10.144843],[125.676768,10.127672],[125.681977,10.114],[125.698497,10.09394],[125.704763,10.081773],[125.706554,10.069322],[125.703136,10.056708],[125.696462,10.04092],[125.68865,10.027289],[125.681977,10.021552],[125.685069,10.014635],[125.692882,9.974351],[125.681488,9.958075],[125.690603,9.94184],[125.707286,9.926215],[125.719574,9.911689]]]]}}]}
