{"type":"FeatureCollection","features":[{"type":"Feature","properties":{"id":"IQ-SU","country":"IQ","name_en":"Sulaymaniyah"},"geometry":{"type":"Polygon","coordinates":[[[45.009525,36.516196],[45.025344,36.505215],[45.03816,36.494001],[45.03909,36.479842],[45.045498,36.471625],[45.054076,36.464959],[45.062086,36.455347],[45.066892,36.442376],[45.068546,36.432506],[45.072266,36.423411],[45.083739,36.412817],[45.110817,36.402534],[45.139963,36.404394],[45.19598,36.422429],[45.221301,36.42093],[45.238871,36.402999],[45.24962,36.377936],[45.254478,36.354785],[45.25701,36.311687],[45.263934,36.294272],[45.282693,36.274893],[45.258508,36.262232],[45.264193,36.250192],[45.282796,36.238409],[45.297369,36.22673],[45.30202,36.207558],[45.299539,36.161411],[45.304604,36.140379],[45.33561,36.10772],[45.348322,36.087514],[45.344188,36.067464],[45.331889,36.051599],[45.31959,36.031032],[45.313699,36.010413],[45.32021,35.99429],[45.32021,35.994083],[45.320313,35.994031],[45.32052,35.99398],[45.33809,35.979304],[45.359587,35.976875],[45.381808,35.982973],[45.401549,35.99398],[45.4016,35.994031],[45.401859,35.994031],[45.401962,35.994083],[45.402169,35.994238],[45.419946,35.998269],[45.453122,36.011653],[45.47927,36.012015],[45.501424,36.005435],[45.53999,35.99398],[45.576939,35.96623],[45.589858,35.959615],[45.617039,35.955429],[45.646857,35.933208],[45.69321,35.879878],[45.718739,35.828305],[45.731038,35.815128],[45.749021,35.810994],[45.786745,35.820244],[45.797907,35.818383],[45.814185,35.80934],[45.834752,35.810528],[45.854079,35.818332],[45.878315,35.83523],[45.888496,35.834868],[45.898779,35.832181],[45.909115,35.831302],[45.941257,35.840346],[46.004923,35.837969],[46.024973,35.843291],[46.0443,35.852283],[46.060423,35.857244],[46.07696,35.856986],[46.107759,35.847425],[46.115045,35.846444],[46.119851,35.842878],[46.124812,35.822466],[46.129101,35.815541],[46.135199,35.810012],[46.143364,35.804534],[46.163518,35.797506],[46.184963,35.798178],[46.227441,35.805723],[46.246407,35.811407],[46.263512,35.821122],[46.281392,35.828305],[46.302992,35.826548],[46.319632,35.816885],[46.327074,35.8035],[46.325058,35.787843],[46.313379,35.771513],[46.297515,35.759886],[46.267129,35.744124],[46.253486,35.727743],[46.23788,35.715547],[46.217003,35.713583],[46.177729,35.715392],[46.127603,35.693688],[46.107035,35.689812],[46.037065,35.691569],[46.016498,35.68573],[46.003786,35.674258],[45.995879,35.658393],[45.992365,35.640875],[45.992314,35.62439],[46.002029,35.585943],[45.999238,35.572145],[45.968698,35.579742],[45.963892,35.579742],[45.959344,35.578708],[45.968026,35.558503],[45.97924,35.539486],[45.983115,35.5353],[45.984562,35.531062],[45.983219,35.52698],[45.97924,35.523001],[45.971333,35.51804],[45.966062,35.511477],[45.963582,35.503415],[45.963995,35.494165],[45.977017,35.46533],[46.040993,35.381562],[46.096287,35.341151],[46.120161,35.318517],[46.127396,35.289062],[46.125285,35.284989],[46.120058,35.274902],[46.107655,35.262758],[46.098767,35.250046],[46.101454,35.234285],[46.115407,35.226326],[46.154164,35.226636],[46.169254,35.216249],[46.165481,35.189946],[46.143829,35.159612],[46.130393,35.131397],[46.151064,35.111605],[46.143106,35.099512],[46.132357,35.094758],[46.119954,35.092743],[46.09453,35.085818],[46.07665,35.089694],[46.066573,35.088815],[46.039753,35.075535],[46.025077,35.064269],[46.009212,35.06091],[45.97924,35.071555],[45.966372,35.070729],[45.956037,35.074243],[45.934953,35.085456],[45.920173,35.089642],[45.913197,35.087317],[45.899399,35.06861],[45.898366,35.063907],[45.901156,35.051608],[45.899089,35.046906],[45.893095,35.044374],[45.879039,35.043237],[45.872476,35.041428],[45.861882,35.032798],[45.857025,35.021274],[45.856818,35.008045],[45.859712,34.994403],[45.859712,34.994248],[45.868962,34.968358],[45.866327,34.949547],[45.857852,34.931306],[45.850203,34.906811],[45.835011,34.890171],[45.808036,34.897871],[45.796202,34.903064],[45.789795,34.914226],[45.780286,35.005977],[45.781526,35.012824],[45.783903,35.014478],[45.786694,35.014065],[45.794342,35.014685],[45.798373,35.014323],[45.802817,35.012928],[45.806744,35.012256],[45.811705,35.012333],[45.81615,35.013238],[45.820077,35.014426],[45.823178,35.01608],[45.812429,35.03042],[45.744009,35.090029],[45.738428,35.097264],[45.733777,35.101243],[45.726129,35.106643],[45.719515,35.110028],[45.713003,35.109924],[45.707112,35.106798],[45.698224,35.098917],[45.69688,35.09375],[45.696054,35.08698],[45.692333,35.081864],[45.686958,35.075611],[45.67621,35.065276],[45.671042,35.058765],[45.666908,35.050703],[45.664221,35.046931],[45.656159,35.043779],[45.653369,35.042332],[45.650475,35.04011],[45.647994,35.039076],[45.646444,35.039696],[45.646237,35.041712],[45.646444,35.044605],[45.645617,35.046776],[45.643344,35.048636],[45.640036,35.047525],[45.636212,35.044347],[45.630114,35.035252],[45.627531,35.029903],[45.628151,35.021971],[45.630734,35.019697],[45.633525,35.019181],[45.636832,35.020292],[45.639003,35.020757],[45.640553,35.019129],[45.639416,35.015899],[45.635075,35.008484],[45.6266,35.004117],[45.62257,34.999957],[45.619159,34.985643],[45.60934,34.978511],[45.611511,34.972568],[45.614405,34.971871],[45.623913,34.971251],[45.627634,34.970631],[45.630631,34.96939],[45.632181,34.967608],[45.632491,34.965437],[45.632285,34.962595],[45.632285,34.959959],[45.629701,34.953603],[45.62443,34.944405],[45.601382,34.914071],[45.593217,34.904976],[45.567483,34.8857],[45.564485,34.885494],[45.561178,34.886062],[45.558077,34.885752],[45.555494,34.883737],[45.554667,34.878414],[45.552703,34.873453],[45.548362,34.867252],[45.538544,34.858441],[45.530999,34.843171],[45.527588,34.831492],[45.519217,34.813095],[45.51777,34.808961],[45.515599,34.805809],[45.509708,34.803535],[45.504851,34.800228],[45.5002,34.795137],[45.487177,34.766793],[45.476222,34.75067],[45.472605,34.743383],[45.470434,34.737906],[45.470331,34.734883],[45.469194,34.730774],[45.469091,34.727105],[45.469401,34.723746],[45.470331,34.721059],[45.470951,34.718372],[45.470434,34.71553],[45.46785,34.708011],[45.46537,34.703153],[45.453898,34.686901],[45.45059,34.677599],[45.45028,34.67468],[45.44935,34.672018],[45.444493,34.666928],[45.437361,34.662045],[45.418758,34.653389],[45.408526,34.650004],[45.399741,34.648299],[45.39354,34.648196],[45.383514,34.646335],[45.379794,34.646051],[45.372352,34.646542],[45.35902,34.637008],[45.250086,34.528875],[45.217323,34.512803],[45.214533,34.528306],[45.212672,34.533009],[45.210088,34.536058],[45.206058,34.536652],[45.202957,34.536678],[45.19934,34.537091],[45.191588,34.53921],[45.188694,34.541199],[45.186317,34.545618],[45.186214,34.549494],[45.193449,34.560449],[45.196239,34.567064],[45.197789,34.573161],[45.197996,34.578665],[45.197169,34.583677],[45.191175,34.598612],[45.189935,34.604632],[45.189624,34.610472],[45.190968,34.615174],[45.193759,34.619618],[45.207608,34.632357],[45.212052,34.637628],[45.213602,34.641478],[45.213602,34.645767],[45.202337,34.671269],[45.196756,34.694032],[45.195826,34.700905],[45.195619,34.705556],[45.196239,34.710414],[45.196136,34.716667],[45.191898,34.739198],[45.189108,34.77457],[45.185697,34.783639],[45.177325,34.794336],[45.169574,34.802269],[45.156035,34.811777],[45.146113,34.816041],[45.133607,34.819374],[45.112317,34.821467],[45.100844,34.820511],[45.091956,34.818469],[45.068598,34.807101],[45.062811,34.805654],[45.055989,34.806946],[45.049581,34.810976],[45.03997,34.821596],[45.019196,34.838727],[44.965969,34.867484],[44.963488,34.938617],[44.966796,34.952053],[44.967416,34.9566],[44.966486,34.960425],[44.964005,34.964765],[44.951913,34.976728],[44.865923,35.02626],[44.82851,35.031841],[44.719059,35.035665],[44.701902,35.030601],[44.679371,35.035665],[44.662938,35.042022],[44.562066,35.129071],[44.606404,35.159792],[44.684332,35.179894],[44.694874,35.188343],[44.697665,35.196689],[44.690844,35.210487],[44.689293,35.217902],[44.689913,35.226455],[44.693841,35.23555],[44.704073,35.248159],[44.716165,35.255084],[44.725363,35.259269],[44.732805,35.26113],[44.736319,35.265574],[44.739109,35.271723],[44.7419,35.285159],[44.752752,35.306347],[44.756989,35.321824],[44.753062,35.336732],[44.746861,35.353605],[44.743967,35.36841],[44.751512,35.387969],[44.787995,35.428406],[44.798227,35.445227],[44.803395,35.459205],[44.802258,35.470626],[44.783034,35.492175],[44.761744,35.51176],[44.754922,35.521786],[44.752442,35.531604],[44.756059,35.560362],[44.75916,35.596303],[44.763191,35.607982],[44.765361,35.633536],[44.769392,35.644078],[44.786342,35.668857],[44.785411,35.6856],[44.777143,35.705418],[44.730738,35.739007],[44.707897,35.764406],[44.682472,35.786989],[44.627282,35.885691],[44.645575,35.89259],[44.648469,35.892202],[44.65312,35.890419],[44.65591,35.887164],[44.659941,35.883882],[44.663662,35.884399],[44.674617,35.889567],[44.678958,35.889463],[44.681852,35.887913],[44.683609,35.885743],[44.683919,35.883366],[44.683712,35.880911],[44.684022,35.877991],[44.687743,35.873805],[44.692704,35.873134],[44.698492,35.873857],[44.722366,35.879852],[44.730118,35.879542],[44.735285,35.878301],[44.74035,35.871609],[44.746137,35.867553],[44.751408,35.867191],[44.757093,35.868948],[44.76257,35.871893],[44.771045,35.874426],[44.77735,35.874012],[44.781794,35.872565],[44.786135,35.868638],[44.789856,35.86409],[44.797917,35.858871],[44.802568,35.858458],[44.805669,35.86068],[44.806495,35.863961],[44.807426,35.870602],[44.809079,35.873754],[44.81187,35.876958],[44.816107,35.880162],[44.819208,35.880265],[44.822929,35.879206],[44.826029,35.87719],[44.827889,35.874426],[44.828923,35.859543],[44.83099,35.854143],[44.83347,35.852747],[44.836468,35.853497],[44.84608,35.861326],[44.861376,35.865666],[44.866957,35.871945],[44.865923,35.874426],[44.855071,35.890729],[44.855691,35.893391],[44.858585,35.89476],[44.866543,35.896026],[44.870057,35.89582],[44.876259,35.893598],[44.879669,35.893236],[44.890418,35.89445],[44.895276,35.893804],[44.898686,35.892151],[44.903337,35.888171],[44.905507,35.886776],[44.907781,35.885588],[44.909642,35.883391],[44.914913,35.880601],[44.924421,35.878405],[44.947262,35.877888],[44.957907,35.879128],[44.965039,35.881221],[44.971447,35.885433],[44.97341,35.888223],[44.975581,35.89414],[44.977131,35.89644],[44.977648,35.898713],[44.977338,35.901452],[44.975891,35.904295],[44.969276,35.910909],[44.901477,35.938298],[44.876775,35.952405],[44.845253,35.976435],[44.771976,36.048213],[44.762364,36.054595],[44.750478,36.060926],[44.727637,36.068936],[44.627385,36.126787],[44.622011,36.13596],[44.61767,36.148621],[44.639167,36.162677],[44.646919,36.168981],[44.6525,36.175777],[44.657667,36.18389],[44.665419,36.18867],[44.688673,36.197429],[44.697975,36.205956],[44.695184,36.21425],[44.6895,36.221795],[44.639374,36.270887],[44.629452,36.277605],[44.61891,36.277967],[44.612399,36.274091],[44.602684,36.265125],[44.545116,36.336077],[44.539535,36.347782],[44.539845,36.368969],[44.572815,36.392533],[44.583977,36.405711],[44.6032,36.423824],[44.633793,36.442608],[44.65467,36.448111],[44.671206,36.446174],[44.699835,36.439404],[44.745517,36.445269],[44.789235,36.454623],[44.841119,36.475655],[44.863236,36.479608],[44.8837,36.479996],[44.926385,36.471392],[44.960905,36.469402],[44.975271,36.473769],[44.986433,36.480228],[44.999972,36.496765],[45.00545,36.506609],[45.00948,36.516092],[45.009525,36.516196]]]}},{"type":"Feature","properties":{"id":"IQ-AR","country":"IQ","name_en":"Erbil"},"geometry":{"type":"Polygon","coordinates":[[[44.069025,37.313727],[44.088037,37.31116],[44.184465,37.279173],[44.206893,37.26752],[44.223171,37.254058],[44.235005,37.236772],[44.243532,37.213828],[44.248544,37.191917],[44.249629,37.179437],[44.248337,37.16967],[44.240121,37.157966],[44.230199,37.154322],[44.218779,37.152617],[44.205963,37.146623],[44.18922,37.129208],[44.180641,37.108925],[44.180021,37.087608],[44.187463,37.066938],[44.22777,36.994125],[44.234281,36.983661],[44.243273,36.97777],[44.284821,36.969166],[44.297223,36.969941],[44.306628,36.977227],[44.315879,36.99397],[44.315982,36.99397],[44.316137,36.994022],[44.316137,36.994125],[44.33164,37.015468],[44.335154,37.031152],[44.343112,37.042443],[44.428068,37.064767],[44.454423,37.076343],[44.479228,37.092001],[44.503412,37.116624],[44.539379,37.143677],[44.57824,37.166415],[44.610279,37.178352],[44.628934,37.179024],[44.733786,37.167242],[44.753836,37.159154],[44.766135,37.14192],[44.752544,37.113136],[44.752699,37.103318],[44.760658,37.085644],[44.766549,37.078952],[44.773628,37.076343],[44.781121,37.074482],[44.788356,37.070245],[44.792232,37.063734],[44.797296,37.048489],[44.801895,37.043528],[44.811197,37.041926],[44.830938,37.046835],[44.840601,37.047197],[44.847577,37.044045],[44.858946,37.034123],[44.880754,37.024925],[44.887368,37.015933],[44.885715,37.005081],[44.874759,36.994022],[44.869178,36.967357],[44.874863,36.949658],[44.884061,36.933354],[44.888815,36.910926],[44.883441,36.886845],[44.869643,36.868965],[44.834141,36.834032],[44.823393,36.809331],[44.831248,36.791916],[44.851195,36.781219],[44.87724,36.776464],[44.908245,36.77786],[44.922715,36.775896],[44.935221,36.767111],[44.944419,36.758274],[44.954754,36.752331],[44.966433,36.749334],[44.979456,36.749024],[44.996199,36.741686],[45.010978,36.725563],[45.035266,36.689596],[45.045911,36.668047],[45.04431,36.64934],[45.024879,36.613167],[45.014182,36.579009],[45.013252,36.557925],[45.010255,36.556013],[44.997852,36.552085],[44.993408,36.549656],[44.991393,36.53374],[45.005914,36.518702],[45.009525,36.516196],[45.00948,36.516092],[45.00545,36.506609],[44.999972,36.496765],[44.986433,36.480228],[44.975271,36.473769],[44.960905,36.469402],[44.926385,36.471392],[44.8837,36.479996],[44.863236,36.479608],[44.841119,36.475655],[44.789235,36.454623],[44.745517,36.445269],[44.699835,36.439404],[44.671206,36.446174],[44.65467,36.448111],[44.633793,36.442608],[44.6032,36.423824],[44.583977,36.405711],[44.572815,36.392533],[44.539845,36.368969],[44.539535,36.347782],[44.545116,36.336077],[44.602684,36.265125],[44.612399,36.274091],[44.61891,36.277967],[44.629452,36.277605],[44.639374,36.270887],[44.6895,36.221795],[44.695184,36.21425],[44.697975,36.205956],[44.688673,36.197429],[44.665419,36.18867],[44.657667,36.18389],[44.6525,36.175777],[44.646919,36.168981],[44.639167,36.162677],[44.61767,36.148621],[44.622011,36.13596],[44.627385,36.126787],[44.727637,36.068936],[44.750478,36.060926],[44.762364,36.054595],[44.771976,36.048213],[44.845253,35.976435],[44.876775,35.952405],[44.901477,35.938298],[44.969276,35.910909],[44.975891,35.904295],[44.977338,35.901452],[44.977648,35.898713],[44.977131,35.89644],[44.975581,35.89414],[44.97341,35.888223],[44.971447,35.885433],[44.965039,35.881221],[44.957907,35.879128],[44.947262,35.877888],[44.924421,35.878405],[44.914913,35.880601],[44.909642,35.883391],[44.907781,35.885588],[44.905507,35.886776],[44.903337,35.888171],[44.898686,35.892151],[44.895276,35.893804],[44.890418,35.89445],[44.879669,35.893236],[44.876259,35.893598],[44.870057,35.89582],[44.866543,35.896026],[44.858585,35.89476],[44.855691,35.893391],[44.855071,35.890729],[44.865923,35.874426],[44.866957,35.871945],[44.861376,35.865666],[44.84608,35.861326],[44.836468,35.853497],[44.83347,35.852747],[44.83099,35.854143],[44.828923,35.859543],[44.827889,35.874426],[44.826029,35.87719],[44.822929,35.879206],[44.819208,35.880265],[44.816107,35.880162],[44.81187,35.876958],[44.809079,35.873754],[44.807426,35.870602],[44.806495,35.863961],[44.805669,35.86068],[44.802568,35.858458],[44.797917,35.858871],[44.789856,35.86409],[44.786135,35.868638],[44.781794,35.872565],[44.77735,35.874012],[44.771045,35.874426],[44.76257,35.871893],[44.757093,35.868948],[44.751408,35.867191],[44.746137,35.867553],[44.74035,35.871609],[44.735285,35.878301],[44.730118,35.879542],[44.722366,35.879852],[44.698492,35.873857],[44.692704,35.873134],[44.687743,35.873805],[44.684022,35.877991],[44.683712,35.880911],[44.683919,35.883366],[44.683609,35.885743],[44.681852,35.887913],[44.678958,35.889463],[44.674617,35.889567],[44.663662,35.884399],[44.659941,35.883882],[44.65591,35.887164],[44.65312,35.890419],[44.648469,35.892202],[44.645575,35.89259],[44.627282,35.885691],[44.62139,35.894166],[44.62139,35.903778],[44.61829,35.907343],[44.614983,35.907834],[44.604234,35.903519],[44.599583,35.900936],[44.596689,35.897628],[44.592968,35.890032],[44.589351,35.885123],[44.580979,35.879516],[44.575088,35.874426],[44.571058,35.869852],[44.566097,35.865511],[44.562066,35.866131],[44.551524,35.871713],[44.547596,35.870937],[44.543772,35.868689],[44.543152,35.865486],[44.544082,35.862127],[44.545323,35.858923],[44.545943,35.855512],[44.544082,35.850861],[44.540465,35.850267],[44.536641,35.852205],[44.530233,35.859904],[44.526099,35.86347],[44.518761,35.865641],[44.512767,35.864271],[44.504085,35.86024],[44.499537,35.859698],[44.496644,35.86099],[44.493956,35.863806],[44.471942,35.869413],[44.450548,35.859233],[44.441866,35.859181],[44.429361,35.860886],[44.421919,35.860163],[44.416648,35.857166],[44.412308,35.853652],[44.406727,35.850887],[44.38802,35.84435],[44.384609,35.842231],[44.379441,35.833601],[44.376444,35.833136],[44.373344,35.833782],[44.368899,35.835462],[44.353086,35.83758],[44.347195,35.838976],[44.334896,35.844091],[44.331072,35.843936],[44.326215,35.837684],[44.320427,35.833472],[44.306061,35.827142],[44.296242,35.825075],[44.288077,35.824609],[44.28229,35.825643],[44.263376,35.833498],[44.241465,35.836908],[44.186585,35.845642],[44.169842,35.842929],[44.146794,35.835642],[44.132221,35.803836],[44.123436,35.789004],[44.114135,35.78425],[44.092844,35.781046],[44.05543,35.779858],[43.949907,35.841275],[43.927273,35.848122],[43.911873,35.845771],[43.901848,35.823679],[43.829707,35.760014],[43.768523,35.717898],[43.762321,35.709294],[43.763045,35.702886],[43.769453,35.698312],[43.791467,35.678055],[43.797668,35.669012],[43.801699,35.659865],[43.801079,35.648703],[43.792604,35.639582],[43.779685,35.629789],[43.764492,35.614545],[43.757671,35.60284],[43.752089,35.577958],[43.741858,35.548089],[43.731936,35.537366],[43.721084,35.533723],[43.699793,35.532198],[43.66734,35.516179],[43.633957,35.513879],[43.611633,35.514344],[43.598094,35.50928],[43.588379,35.498454],[43.5767,35.469489],[43.568018,35.457629],[43.552205,35.450317],[43.532671,35.447707],[43.489883,35.44608],[43.474484,35.442152],[43.45464,35.427631],[43.444511,35.426029],[43.433866,35.426339],[43.412885,35.431068],[43.403274,35.434762],[43.358212,35.458224],[43.366273,35.460084],[43.36865,35.460911],[43.371234,35.464037],[43.372371,35.469386],[43.373405,35.481633],[43.377642,35.494966],[43.378882,35.501399],[43.379399,35.510443],[43.375058,35.588241],[43.371544,35.603434],[43.363793,35.615268],[43.357592,35.620694],[43.352217,35.623175],[43.347566,35.623847],[43.342915,35.625397],[43.340228,35.628058],[43.339195,35.632011],[43.341985,35.638523],[43.343949,35.646352],[43.339918,35.658857],[43.334957,35.668443],[43.330203,35.674489],[43.325552,35.678727],[43.322865,35.682034],[43.321625,35.685781],[43.325656,35.691724],[43.327826,35.69609],[43.334337,35.723453],[43.317904,35.75495],[43.316664,35.760634],[43.315837,35.769109],[43.319764,35.780865],[43.341365,35.821302],[43.346636,35.827813],[43.352217,35.830604],[43.359349,35.830552],[43.367203,35.831922],[43.374541,35.837813],[43.385394,35.857889],[43.394385,35.927239],[43.394282,35.945817],[43.390871,35.952948],[43.377952,35.953077],[43.361622,35.954808],[43.350977,35.963671],[43.344776,35.988837],[43.352941,35.999121],[43.482545,36.043304],[43.493397,36.051572],[43.507557,36.068729],[43.51045,36.073871],[43.511691,36.078703],[43.51014,36.098443],[43.51045,36.105135],[43.512621,36.113532],[43.534015,36.145779],[43.536702,36.15229],[43.538976,36.159447],[43.54404,36.168361],[43.547554,36.171462],[43.555926,36.172444],[43.575356,36.184071],[43.586828,36.203656],[43.592203,36.215309],[43.597474,36.22182],[43.628996,36.244997],[43.637988,36.254842],[43.649667,36.271146],[43.657625,36.279879],[43.66548,36.285718],[43.688114,36.293754],[43.702273,36.307422],[43.710128,36.310368],[43.728628,36.31998],[43.744751,36.332072],[43.786713,36.372767],[43.803766,36.396203],[43.811001,36.41615],[43.809967,36.430852],[43.808417,36.439972],[43.804076,36.449119],[43.804696,36.452892],[43.807487,36.455424],[43.811001,36.455682],[43.822163,36.45408],[43.829397,36.454028],[43.836632,36.456095],[43.84459,36.459661],[43.853995,36.465526],[43.857406,36.470332],[43.858646,36.475655],[43.858646,36.479996],[43.858233,36.483742],[43.856786,36.487282],[43.854512,36.49059],[43.852445,36.494956],[43.851825,36.504671],[43.854202,36.508909],[43.858336,36.510976],[43.883554,36.508444],[43.889859,36.508625],[43.898851,36.511286],[43.903501,36.516867],[43.905568,36.52312],[43.904638,36.535264],[43.905879,36.542524],[43.908462,36.545237],[43.91146,36.545651],[43.914664,36.543454],[43.917764,36.540741],[43.920451,36.537227],[43.925516,36.536091],[43.931717,36.537693],[43.945773,36.546271],[43.952697,36.553583],[43.962619,36.560146],[43.966547,36.564797],[43.969337,36.568828],[43.973368,36.577432],[43.998689,36.600764],[44.007061,36.606319],[44.012435,36.608541],[44.015123,36.606784],[44.018223,36.605854],[44.022977,36.606345],[44.024114,36.608696],[44.020497,36.613399],[44.019257,36.617016],[44.019567,36.622132],[44.021944,36.623915],[44.023908,36.623605],[44.025768,36.62084],[44.026905,36.617429],[44.028248,36.614639],[44.031349,36.612003],[44.03538,36.610091],[44.040237,36.609264],[44.044888,36.609755],[44.050366,36.611331],[44.055017,36.6119],[44.059461,36.611797],[44.061631,36.610711],[44.062251,36.608283],[44.061011,36.604949],[44.059047,36.601229],[44.058117,36.597327],[44.059047,36.593736],[44.062148,36.59079],[44.068763,36.589111],[44.071863,36.590351],[44.073414,36.593813],[44.073724,36.597689],[44.075274,36.603063],[44.077961,36.60557],[44.081372,36.606681],[44.085196,36.606345],[44.088813,36.606629],[44.098838,36.610401],[44.104213,36.611745],[44.109277,36.611487],[44.114858,36.61022],[44.118475,36.608386],[44.120129,36.606474],[44.119819,36.603735],[44.121059,36.600789],[44.124987,36.599317],[44.135322,36.600841],[44.148034,36.609833],[44.165294,36.618411],[44.192579,36.638255],[44.200227,36.64257],[44.217281,36.647272],[44.233094,36.66722],[44.261309,36.687503],[44.297069,36.725846],[44.302133,36.734631],[44.30265,36.739437],[44.301823,36.743106],[44.299963,36.746104],[44.297793,36.747757],[44.295519,36.748016],[44.293142,36.747137],[44.290661,36.745173],[44.288387,36.744502],[44.2857,36.745484],[44.279706,36.756749],[44.276605,36.764139],[44.266167,36.77282],[44.265236,36.777368],[44.264306,36.785894],[44.262446,36.789874],[44.256968,36.794137],[44.248597,36.798193],[44.23175,36.808839],[44.137492,36.842093],[44.130361,36.846149],[44.12571,36.850335],[44.122299,36.855503],[44.117545,36.858086],[44.114135,36.859327],[44.084162,36.8616],[44.074964,36.863202],[44.070623,36.863073],[44.066179,36.862066],[44.058531,36.861342],[44.05481,36.863254],[44.046542,36.873822],[44.045612,36.876638],[44.047059,36.879325],[44.047989,36.883485],[44.047575,36.888136],[44.041167,36.896069],[44.037137,36.898859],[44.032796,36.899893],[44.029075,36.899118],[44.012745,36.898575],[44.010472,36.900461],[44.010575,36.902373],[44.013262,36.903768],[44.017293,36.904466],[44.019773,36.906042],[44.020394,36.908859],[44.015743,36.915215],[44.012952,36.92015],[44.011712,36.925033],[44.006544,36.931157],[44.00055,36.935033],[43.987734,36.940355],[43.973781,36.949295],[43.953524,36.959321],[43.931303,36.976658],[43.926032,36.979965],[43.920451,36.98118],[43.914664,36.980095],[43.891719,36.984177],[43.828157,37.01185],[43.848001,37.029601],[43.861644,37.035027],[43.869808,37.03668],[43.874459,37.040323],[43.878387,37.045284],[43.882727,37.056111],[43.886138,37.062053],[43.891926,37.066084],[43.909393,37.074146],[43.946806,37.086238],[43.951354,37.088667],[43.951664,37.090682],[43.949493,37.092852],[43.947736,37.095953],[43.952077,37.098356],[43.960656,37.100759],[43.978639,37.10758],[43.9867,37.111559],[43.992488,37.1159],[43.996209,37.121404],[44.011195,37.138354],[44.016776,37.142359],[44.03755,37.151247],[44.050469,37.155381],[44.05574,37.158559],[44.057807,37.161401],[44.05326,37.1683],[44.05388,37.172227],[44.05698,37.177809],[44.068969,37.19065],[44.076721,37.196877],[44.087573,37.203879],[44.098528,37.207678],[44.099458,37.210391],[44.099355,37.214266],[44.096668,37.225713],[44.095118,37.22716],[44.093257,37.22778],[44.087056,37.227935],[44.083335,37.228968],[44.080752,37.230725],[44.078891,37.233593],[44.077961,37.239562],[44.076204,37.245298],[44.075894,37.249019],[44.076514,37.253024],[44.079305,37.259586],[44.088296,37.274133],[44.088296,37.277441],[44.086953,37.280025],[44.083956,37.281316],[44.082095,37.28266],[44.079821,37.283539],[44.077754,37.28452],[44.076204,37.285812],[44.075481,37.287414],[44.07331,37.291703],[44.070933,37.293331],[44.067729,37.294546],[44.064318,37.299403],[44.069025,37.313727]]]}},{"type":"Feature","properties":{"id":"IQ-DA","country":"IQ","name_en":"Duhok"},"geometry":{"type":"Polygon","coordinates":[[[42.780468,37.375498],[42.792457,37.374335],[42.801139,37.36909],[42.80548,37.351856],[42.814058,37.346817],[42.89674,37.324906],[42.937048,37.320152],[42.979629,37.331831],[43.005158,37.347256],[43.043501,37.360253],[43.083706,37.368831],[43.114815,37.371131],[43.131971,37.367255],[43.263385,37.310695],[43.270309,37.30868],[43.278629,37.30775],[43.287518,37.309145],[43.296871,37.316741],[43.305656,37.319971],[43.324156,37.322219],[43.336145,37.32023],[43.362505,37.303908],[43.376039,37.295528],[43.41676,37.279173],[43.463269,37.248684],[43.479599,37.243361],[43.492415,37.244756],[43.517116,37.252301],[43.529518,37.253903],[43.542437,37.252301],[43.550602,37.248735],[43.568896,37.237702],[43.594217,37.22946],[43.618298,37.226979],[43.720824,37.232612],[43.746921,37.230648],[43.770641,37.225843],[43.780562,37.220365],[43.80206,37.20357],[43.809398,37.199694],[43.822007,37.202381],[43.83999,37.217109],[43.89363,37.224912],[43.924171,37.253076],[43.953782,37.287467],[43.990369,37.312504],[44.035586,37.31824],[44.069025,37.313727],[44.064318,37.299403],[44.067729,37.294546],[44.070933,37.293331],[44.07331,37.291703],[44.075481,37.287414],[44.076204,37.285812],[44.077754,37.28452],[44.079821,37.283539],[44.082095,37.28266],[44.083956,37.281316],[44.086953,37.280025],[44.088296,37.277441],[44.088296,37.274133],[44.079305,37.259586],[44.076514,37.253024],[44.075894,37.249019],[44.076204,37.245298],[44.077961,37.239562],[44.078891,37.233593],[44.080752,37.230725],[44.083335,37.228968],[44.087056,37.227935],[44.093257,37.22778],[44.095118,37.22716],[44.096668,37.225713],[44.099355,37.214266],[44.099458,37.210391],[44.098528,37.207678],[44.087573,37.203879],[44.076721,37.196877],[44.068969,37.19065],[44.05698,37.177809],[44.05388,37.172227],[44.05326,37.1683],[44.057807,37.161401],[44.05574,37.158559],[44.050469,37.155381],[44.03755,37.151247],[44.016776,37.142359],[44.011195,37.138354],[43.996209,37.121404],[43.992488,37.1159],[43.9867,37.111559],[43.978639,37.10758],[43.960656,37.100759],[43.952077,37.098356],[43.947736,37.095953],[43.949493,37.092852],[43.951664,37.090682],[43.951354,37.088667],[43.946806,37.086238],[43.909393,37.074146],[43.891926,37.066084],[43.886138,37.062053],[43.882727,37.056111],[43.878387,37.045284],[43.874459,37.040323],[43.869808,37.03668],[43.861644,37.035027],[43.848001,37.029601],[43.828157,37.01185],[43.796635,37.017896],[43.768729,37.026758],[43.698656,37.036758],[43.687184,37.039393],[43.669511,37.047222],[43.664756,37.048385],[43.660519,37.048617],[43.657315,37.047765],[43.653698,37.045749],[43.649357,37.042029],[43.646359,37.038541],[43.641605,37.030324],[43.640675,37.027533],[43.640778,37.023994],[43.639435,37.0157],[43.635817,37.007741],[43.633337,37.0003],[43.632717,36.996476],[43.632924,36.992988],[43.633337,36.989991],[43.636128,36.985262],[43.636644,36.982497],[43.637885,36.979629],[43.640468,36.976425],[43.6507,36.970483],[43.655765,36.968364],[43.661759,36.967072],[43.675712,36.966607],[43.683463,36.965367],[43.691835,36.961749],[43.708785,36.957383],[43.714986,36.956375],[43.720463,36.954411],[43.723667,36.951337],[43.726148,36.946763],[43.727388,36.941751],[43.728215,36.93679],[43.727905,36.93219],[43.726148,36.927333],[43.717776,36.913509],[43.713022,36.909298],[43.708475,36.906869],[43.702997,36.905112],[43.702273,36.902838],[43.704237,36.896895],[43.704754,36.893433],[43.704754,36.890281],[43.704857,36.887826],[43.705477,36.885372],[43.705787,36.880359],[43.706718,36.877543],[43.707544,36.873899],[43.707234,36.868706],[43.706097,36.862453],[43.701653,36.851239],[43.698346,36.848423],[43.694625,36.848268],[43.691111,36.850128],[43.674058,36.854676],[43.66486,36.853487],[43.657625,36.850335],[43.654318,36.846692],[43.652561,36.841628],[43.652561,36.835917],[43.65163,36.83106],[43.64884,36.826512],[43.642225,36.826228],[43.627963,36.828476],[43.482959,36.859792],[43.451023,36.872272],[43.433246,36.885501],[43.403067,36.902916],[43.389631,36.914414],[43.374025,36.924491],[43.358728,36.931002],[43.320695,36.934568],[43.304675,36.930227],[43.290619,36.921493],[43.283281,36.911468],[43.252585,36.881599],[43.223233,36.842713],[43.214448,36.82013],[43.205353,36.80225],[43.200909,36.786463],[43.185819,36.777988],[43.15254,36.764113],[43.112335,36.761322],[42.981491,36.746879],[42.899532,36.710111],[42.887439,36.712359],[42.872763,36.712281],[42.861188,36.710421],[42.851679,36.704659],[42.843411,36.692515],[42.834833,36.708096],[42.829769,36.714581],[42.822327,36.7198],[42.807961,36.725821],[42.799693,36.726312],[42.764449,36.712152],[42.754011,36.711506],[42.74719,36.7198],[42.74967,36.727423],[42.758868,36.733365],[42.781296,36.74029],[42.772511,36.747628],[42.764656,36.749566],[42.756595,36.750238],[42.74719,36.753958],[42.72962,36.766748],[42.699234,36.794292],[42.690345,36.799589],[42.678253,36.801759],[42.669365,36.799744],[42.663887,36.795222],[42.659546,36.790726],[42.654689,36.788711],[42.612521,36.789331],[42.596501,36.796023],[42.582859,36.826538],[42.566012,36.836589],[42.534903,36.849534],[42.514852,36.843359],[42.504,36.851317],[42.508651,36.861807],[42.534903,36.863202],[42.523947,36.879842],[42.515472,36.887284],[42.513199,36.896534],[42.52064,36.918445],[42.504,36.921726],[42.503277,36.937823],[42.507928,36.957874],[42.507618,36.973067],[42.488084,36.955135],[42.470617,36.954825],[42.452634,36.965496],[42.4146,36.995546],[42.397547,37.017043],[42.383801,37.040711],[42.376806,37.062001],[42.377186,37.062235],[42.376875,37.076756],[42.371191,37.087944],[42.363646,37.09815],[42.357238,37.109984],[42.401887,37.114144],[42.459144,37.129311],[42.545237,37.140887],[42.561257,37.146623],[42.564668,37.152049],[42.576967,37.17923],[42.702334,37.325346],[42.706158,37.333226],[42.707398,37.340151],[42.709465,37.347179],[42.715666,37.355292],[42.722177,37.358909],[42.77158,37.374903],[42.780468,37.375498]]]}},{"type":"Feature","properties":{"id":"IQ-TS","country":"IQ","name_en":"Kirkuk"},"geometry":{"type":"Polygon","coordinates":[[[44.627282,35.885691],[44.682472,35.786989],[44.707897,35.764406],[44.730738,35.739007],[44.777143,35.705418],[44.785411,35.6856],[44.786342,35.668857],[44.769392,35.644078],[44.765361,35.633536],[44.763191,35.607982],[44.75916,35.596303],[44.756059,35.560362],[44.752442,35.531604],[44.754922,35.521786],[44.761744,35.51176],[44.783034,35.492175],[44.802258,35.470626],[44.803395,35.459205],[44.798227,35.445227],[44.787995,35.428406],[44.751512,35.387969],[44.743967,35.36841],[44.746861,35.353605],[44.753062,35.336732],[44.756989,35.321824],[44.752752,35.306347],[44.7419,35.285159],[44.739109,35.271723],[44.736319,35.265574],[44.732805,35.26113],[44.725363,35.259269],[44.716165,35.255084],[44.704073,35.248159],[44.693841,35.23555],[44.689913,35.226455],[44.689293,35.217902],[44.690844,35.210487],[44.697665,35.196689],[44.694874,35.188343],[44.684332,35.179894],[44.606404,35.159792],[44.562066,35.129071],[44.549457,35.128735],[44.543462,35.126383],[44.536124,35.122068],[44.526719,35.112534],[44.518451,35.10176],[44.513387,35.083983],[44.51442,35.069927],[44.534471,35.030911],[44.533644,35.01608],[44.524032,35.003626],[44.496644,34.986805],[44.481244,34.980578],[44.468945,34.974119],[44.461504,34.967969],[44.439489,34.941847],[44.418095,34.924199],[44.402592,34.904536],[44.401352,34.896268],[44.400525,34.893943],[44.400215,34.892057],[44.400525,34.88955],[44.400422,34.886295],[44.397115,34.881411],[44.393084,34.873841],[44.392671,34.871205],[44.392154,34.869474],[44.393084,34.865908],[44.39236,34.862601],[44.38771,34.856452],[44.386263,34.854023],[44.386159,34.851387],[44.384609,34.848209],[44.381095,34.844463],[44.369519,34.839243],[44.35381,34.82095],[44.350399,34.810925],[44.346885,34.805292],[44.341304,34.799401],[44.328695,34.790099],[44.325595,34.786249],[44.324458,34.782373],[44.324974,34.772684],[44.324148,34.76731],[44.320737,34.756406],[44.321667,34.752194],[44.325388,34.745709],[44.325595,34.743435],[44.323838,34.738991],[44.324148,34.736562],[44.326008,34.73465],[44.329625,34.733539],[44.340064,34.732428],[44.340477,34.729999],[44.336137,34.724677],[44.313502,34.702507],[44.298413,34.702197],[44.288387,34.704523],[44.21232,34.752789],[44.128811,34.821983],[44.068143,34.85255],[43.98329,34.883737],[43.913113,34.905518],[43.847794,34.937713],[43.648116,35.036053],[43.570809,35.065405],[43.547761,35.078092],[43.538252,35.090029],[43.520062,35.100674],[43.493914,35.110674],[43.480788,35.126513],[43.415056,35.184855],[43.407201,35.189713],[43.397072,35.200952],[43.388391,35.213536],[43.38467,35.222398],[43.388908,35.233328],[43.398726,35.23834],[43.410198,35.241389],[43.418776,35.246299],[43.422497,35.265419],[43.401723,35.273377],[43.35046,35.280431],[43.356765,35.286968],[43.359865,35.293066],[43.363483,35.307742],[43.362553,35.311902],[43.359039,35.315132],[43.356971,35.319007],[43.360072,35.325131],[43.363586,35.327431],[43.3671,35.328387],[43.369891,35.329498],[43.370924,35.332262],[43.36493,35.345026],[43.350667,35.352959],[43.322555,35.362364],[43.31129,35.370399],[43.285865,35.393318],[43.281007,35.400863],[43.278837,35.403369],[43.274186,35.406237],[43.269535,35.411482],[43.267365,35.421017],[43.268915,35.431042],[43.271395,35.436907],[43.271912,35.442566],[43.267365,35.451764],[43.273876,35.466699],[43.289069,35.462358],[43.293099,35.460497],[43.295993,35.45657],[43.296613,35.453314],[43.297854,35.450498],[43.301781,35.445072],[43.302711,35.440654],[43.302815,35.436029],[43.308396,35.428768],[43.314493,35.426753],[43.323382,35.427476],[43.339918,35.449955],[43.358212,35.458224],[43.403274,35.434762],[43.412885,35.431068],[43.433866,35.426339],[43.444511,35.426029],[43.45464,35.427631],[43.474484,35.442152],[43.489883,35.44608],[43.532671,35.447707],[43.552205,35.450317],[43.568018,35.457629],[43.5767,35.469489],[43.588379,35.498454],[43.598094,35.50928],[43.611633,35.514344],[43.633957,35.513879],[43.66734,35.516179],[43.699793,35.532198],[43.721084,35.533723],[43.731936,35.537366],[43.741858,35.548089],[43.752089,35.577958],[43.757671,35.60284],[43.764492,35.614545],[43.779685,35.629789],[43.792604,35.639582],[43.801079,35.648703],[43.801699,35.659865],[43.797668,35.669012],[43.791467,35.678055],[43.769453,35.698312],[43.763045,35.702886],[43.762321,35.709294],[43.768523,35.717898],[43.829707,35.760014],[43.901848,35.823679],[43.911873,35.845771],[43.927273,35.848122],[43.949907,35.841275],[44.05543,35.779858],[44.092844,35.781046],[44.114135,35.78425],[44.123436,35.789004],[44.132221,35.803836],[44.146794,35.835642],[44.169842,35.842929],[44.186585,35.845642],[44.241465,35.836908],[44.263376,35.833498],[44.28229,35.825643],[44.288077,35.824609],[44.296242,35.825075],[44.306061,35.827142],[44.320427,35.833472],[44.326215,35.837684],[44.331072,35.843936],[44.334896,35.844091],[44.347195,35.838976],[44.353086,35.83758],[44.368899,35.835462],[44.373344,35.833782],[44.376444,35.833136],[44.379441,35.833601],[44.384609,35.842231],[44.38802,35.84435],[44.406727,35.850887],[44.412308,35.853652],[44.416648,35.857166],[44.421919,35.860163],[44.429361,35.860886],[44.441866,35.859181],[44.450548,35.859233],[44.471942,35.869413],[44.493956,35.863806],[44.496644,35.86099],[44.499537,35.859698],[44.504085,35.86024],[44.512767,35.864271],[44.518761,35.865641],[44.526099,35.86347],[44.530233,35.859904],[44.536641,35.852205],[44.540465,35.850267],[44.544082,35.850861],[44.545943,35.855512],[44.545323,35.858923],[44.544082,35.862127],[44.543152,35.865486],[44.543772,35.868689],[44.547596,35.870937],[44.551524,35.871713],[44.562066,35.866131],[44.566097,35.865511],[44.571058,35.869852],[44.575088,35.874426],[44.580979,35.879516],[44.589351,35.885123],[44.592968,35.890032],[44.596689,35.897628],[44.599583,35.900936],[44.604234,35.903519],[44.614983,35.907834],[44.61829,35.907343],[44.62139,35.903778],[44.62139,35.894166],[44.627282,35.885691]]]}},{"type":"Feature","properties":{"id":"IQ-NI","country":"IQ","name_en":"Nineveh"},"geometry":{"type":"Polygon","coordinates":[[[41.266246,35.99429],[41.240614,36.043021],[41.236687,36.060332],[41.236583,36.077024],[41.268829,36.327965],[41.276994,36.354785],[41.365258,36.493898],[41.365258,36.494001],[41.365361,36.494053],[41.365361,36.494156],[41.385411,36.516377],[41.414867,36.527384],[41.479773,36.536117],[41.789935,36.589292],[41.817323,36.599731],[41.843781,36.617869],[41.978554,36.733625],[42.178438,36.90532],[42.281584,36.99397],[42.281894,36.99397],[42.281894,36.994125],[42.34587,37.042908],[42.376806,37.062001],[42.383801,37.040711],[42.397547,37.017043],[42.4146,36.995546],[42.452634,36.965496],[42.470617,36.954825],[42.488084,36.955135],[42.507618,36.973067],[42.507928,36.957874],[42.503277,36.937823],[42.504,36.921726],[42.52064,36.918445],[42.513199,36.896534],[42.515472,36.887284],[42.523947,36.879842],[42.534903,36.863202],[42.508651,36.861807],[42.504,36.851317],[42.514852,36.843359],[42.534903,36.849534],[42.566012,36.836589],[42.582859,36.826538],[42.596501,36.796023],[42.612521,36.789331],[42.654689,36.788711],[42.659546,36.790726],[42.663887,36.795222],[42.669365,36.799744],[42.678253,36.801759],[42.690345,36.799589],[42.699234,36.794292],[42.72962,36.766748],[42.74719,36.753958],[42.756595,36.750238],[42.764656,36.749566],[42.772511,36.747628],[42.781296,36.74029],[42.758868,36.733365],[42.74967,36.727423],[42.74719,36.7198],[42.754011,36.711506],[42.764449,36.712152],[42.799693,36.726312],[42.807961,36.725821],[42.822327,36.7198],[42.829769,36.714581],[42.834833,36.708096],[42.843411,36.692515],[42.851679,36.704659],[42.861188,36.710421],[42.872763,36.712281],[42.887439,36.712359],[42.899532,36.710111],[42.981491,36.746879],[43.112335,36.761322],[43.15254,36.764113],[43.185819,36.777988],[43.200909,36.786463],[43.205353,36.80225],[43.214448,36.82013],[43.223233,36.842713],[43.252585,36.881599],[43.283281,36.911468],[43.290619,36.921493],[43.304675,36.930227],[43.320695,36.934568],[43.358728,36.931002],[43.374025,36.924491],[43.389631,36.914414],[43.403067,36.902916],[43.433246,36.885501],[43.451023,36.872272],[43.482959,36.859792],[43.627963,36.828476],[43.642225,36.826228],[43.64884,36.826512],[43.65163,36.83106],[43.652561,36.835917],[43.652561,36.841628],[43.654318,36.846692],[43.657625,36.850335],[43.66486,36.853487],[43.674058,36.854676],[43.691111,36.850128],[43.694625,36.848268],[43.698346,36.848423],[43.701653,36.851239],[43.706097,36.862453],[43.707234,36.868706],[43.707544,36.873899],[43.706718,36.877543],[43.705787,36.880359],[43.705477,36.885372],[43.704857,36.887826],[43.704754,36.890281],[43.704754,36.893433],[43.704237,36.896895],[43.702273,36.902838],[43.702997,36.905112],[43.708475,36.906869],[43.713022,36.909298],[43.717776,36.913509],[43.726148,36.927333],[43.727905,36.93219],[43.728215,36.93679],[43.727388,36.941751],[43.726148,36.946763],[43.723667,36.951337],[43.720463,36.954411],[43.714986,36.956375],[43.708785,36.957383],[43.691835,36.961749],[43.683463,36.965367],[43.675712,36.966607],[43.661759,36.967072],[43.655765,36.968364],[43.6507,36.970483],[43.640468,36.976425],[43.637885,36.979629],[43.636644,36.982497],[43.636128,36.985262],[43.633337,36.989991],[43.632924,36.992988],[43.632717,36.996476],[43.633337,37.0003],[43.635817,37.007741],[43.639435,37.0157],[43.640778,37.023994],[43.640675,37.027533],[43.641605,37.030324],[43.646359,37.038541],[43.649357,37.042029],[43.653698,37.045749],[43.657315,37.047765],[43.660519,37.048617],[43.664756,37.048385],[43.669511,37.047222],[43.687184,37.039393],[43.698656,37.036758],[43.768729,37.026758],[43.796635,37.017896],[43.828157,37.01185],[43.891719,36.984177],[43.914664,36.980095],[43.920451,36.98118],[43.926032,36.979965],[43.931303,36.976658],[43.953524,36.959321],[43.973781,36.949295],[43.987734,36.940355],[44.00055,36.935033],[44.006544,36.931157],[44.011712,36.925033],[44.012952,36.92015],[44.015743,36.915215],[44.020394,36.908859],[44.019773,36.906042],[44.017293,36.904466],[44.013262,36.903768],[44.010575,36.902373],[44.010472,36.900461],[44.012745,36.898575],[44.029075,36.899118],[44.032796,36.899893],[44.037137,36.898859],[44.041167,36.896069],[44.047575,36.888136],[44.047989,36.883485],[44.047059,36.879325],[44.045612,36.876638],[44.046542,36.873822],[44.05481,36.863254],[44.058531,36.861342],[44.066179,36.862066],[44.070623,36.863073],[44.074964,36.863202],[44.084162,36.8616],[44.114135,36.859327],[44.117545,36.858086],[44.122299,36.855503],[44.12571,36.850335],[44.130361,36.846149],[44.137492,36.842093],[44.23175,36.808839],[44.248597,36.798193],[44.256968,36.794137],[44.262446,36.789874],[44.264306,36.785894],[44.265236,36.777368],[44.266167,36.77282],[44.276605,36.764139],[44.279706,36.756749],[44.2857,36.745484],[44.288387,36.744502],[44.290661,36.745173],[44.293142,36.747137],[44.295519,36.748016],[44.297793,36.747757],[44.299963,36.746104],[44.301823,36.743106],[44.30265,36.739437],[44.302133,36.734631],[44.297069,36.725846],[44.261309,36.687503],[44.233094,36.66722],[44.217281,36.647272],[44.200227,36.64257],[44.192579,36.638255],[44.165294,36.618411],[44.148034,36.609833],[44.135322,36.600841],[44.124987,36.599317],[44.121059,36.600789],[44.119819,36.603735],[44.120129,36.606474],[44.118475,36.608386],[44.114858,36.61022],[44.109277,36.611487],[44.104213,36.611745],[44.098838,36.610401],[44.088813,36.606629],[44.085196,36.606345],[44.081372,36.606681],[44.077961,36.60557],[44.075274,36.603063],[44.073724,36.597689],[44.073414,36.593813],[44.071863,36.590351],[44.068763,36.589111],[44.062148,36.59079],[44.059047,36.593736],[44.058117,36.597327],[44.059047,36.601229],[44.061011,36.604949],[44.062251,36.608283],[44.061631,36.610711],[44.059461,36.611797],[44.055017,36.6119],[44.050366,36.611331],[44.044888,36.609755],[44.040237,36.609264],[44.03538,36.610091],[44.031349,36.612003],[44.028248,36.614639],[44.026905,36.617429],[44.025768,36.62084],[44.023908,36.623605],[44.021944,36.623915],[44.019567,36.622132],[44.019257,36.617016],[44.020497,36.613399],[44.024114,36.608696],[44.022977,36.606345],[44.018223,36.605854],[44.015123,36.606784],[44.012435,36.608541],[44.007061,36.606319],[43.998689,36.600764],[43.973368,36.577432],[43.969337,36.568828],[43.966547,36.564797],[43.962619,36.560146],[43.952697,36.553583],[43.945773,36.546271],[43.931717,36.537693],[43.925516,36.536091],[43.920451,36.537227],[43.917764,36.540741],[43.914664,36.543454],[43.91146,36.545651],[43.908462,36.545237],[43.905879,36.542524],[43.904638,36.535264],[43.905568,36.52312],[43.903501,36.516867],[43.898851,36.511286],[43.889859,36.508625],[43.883554,36.508444],[43.858336,36.510976],[43.854202,36.508909],[43.851825,36.504671],[43.852445,36.494956],[43.854512,36.49059],[43.856786,36.487282],[43.858233,36.483742],[43.858646,36.479996],[43.858646,36.475655],[43.857406,36.470332],[43.853995,36.465526],[43.84459,36.459661],[43.836632,36.456095],[43.829397,36.454028],[43.822163,36.45408],[43.811001,36.455682],[43.807487,36.455424],[43.804696,36.452892],[43.804076,36.449119],[43.808417,36.439972],[43.809967,36.430852],[43.811001,36.41615],[43.803766,36.396203],[43.786713,36.372767],[43.744751,36.332072],[43.728628,36.31998],[43.710128,36.310368],[43.702273,36.307422],[43.688114,36.293754],[43.66548,36.285718],[43.657625,36.279879],[43.649667,36.271146],[43.637988,36.254842],[43.628996,36.244997],[43.597474,36.22182],[43.592203,36.215309],[43.586828,36.203656],[43.575356,36.184071],[43.555926,36.172444],[43.547554,36.171462],[43.54404,36.168361],[43.538976,36.159447],[43.536702,36.15229],[43.534015,36.145779],[43.512621,36.113532],[43.51045,36.105135],[43.51014,36.098443],[43.511691,36.078703],[43.51045,36.073871],[43.507557,36.068729],[43.493397,36.051572],[43.482545,36.043304],[43.352941,35.999121],[43.344776,35.988837],[43.350977,35.963671],[43.361622,35.954808],[43.377952,35.953077],[43.390871,35.952948],[43.394282,35.945817],[43.394385,35.927239],[43.385394,35.857889],[43.374541,35.837813],[43.367203,35.831922],[43.359349,35.830552],[43.352217,35.830604],[43.346636,35.827813],[43.341365,35.821302],[43.319764,35.780865],[43.315837,35.769109],[43.316664,35.760634],[43.317904,35.75495],[43.334337,35.723453],[43.324622,35.716115],[43.322555,35.708699],[43.318731,35.69423],[43.308706,35.689786],[43.295373,35.688881],[43.281007,35.685135],[43.273359,35.677538],[43.258373,35.655576],[43.244317,35.646688],[43.22468,35.641985],[43.20556,35.63103],[43.140034,35.608705],[43.019214,35.541113],[43.001954,35.540002],[42.993893,35.537909],[42.983971,35.532896],[42.960717,35.516773],[42.948314,35.510107],[42.919892,35.499616],[42.916482,35.499384],[42.914001,35.499616],[42.912244,35.499306],[42.91059,35.498299],[42.90842,35.497704],[42.905319,35.498066],[42.901702,35.497963],[42.897878,35.498299],[42.895088,35.497084],[42.891987,35.49419],[42.888886,35.49016],[42.885476,35.484449],[42.882065,35.482279],[42.880205,35.480574],[42.879688,35.479178],[42.888576,35.467655],[42.898498,35.448379],[42.900669,35.441506],[42.898912,35.435434],[42.893537,35.426727],[42.8893,35.42143],[42.887749,35.418691],[42.884856,35.405359],[42.885476,35.398692],[42.887646,35.391096],[42.892607,35.384378],[42.892917,35.371304],[42.895191,35.365025],[42.922476,35.335983],[42.930331,35.329859],[42.945937,35.319886],[42.950485,35.314821],[42.955446,35.307742],[42.956066,35.3003],[42.957306,35.292549],[42.968881,35.266659],[42.971052,35.264411],[42.973532,35.263481],[42.975703,35.26392],[42.977563,35.264799],[42.97932,35.264489],[42.97994,35.262241],[42.979423,35.257047],[42.975393,35.249399],[42.973429,35.243146],[42.974049,35.236428],[42.970638,35.21984],[42.970328,35.212631],[42.971362,35.210073],[42.972499,35.208523],[42.974152,35.208265],[42.976323,35.208678],[42.978803,35.208575],[42.983971,35.207283],[42.987072,35.199945],[42.995133,35.188214],[42.99627,35.182401],[42.997614,35.180385],[43.000404,35.179326],[43.003401,35.178835],[43.004642,35.177776],[43.004642,35.174158],[43.005882,35.172608],[43.007845,35.172039],[43.011153,35.172195],[43.011773,35.170644],[43.011463,35.168319],[43.009396,35.165838],[43.009602,35.164185],[43.011566,35.163203],[43.015184,35.162815],[43.019318,35.162789],[43.022418,35.162169],[43.024899,35.161963],[43.028619,35.162221],[43.030066,35.161032],[43.032547,35.151731],[43.03389,35.148992],[43.034407,35.146511],[43.036578,35.140362],[43.037508,35.136512],[43.035957,35.131784],[43.0311,35.12088],[43.031307,35.118554],[43.035131,35.113671],[43.037301,35.108994],[43.035647,35.102612],[43.024899,35.09685],[42.987692,35.092768],[42.631228,35.090907],[42.516403,35.070082],[42.491288,34.972723],[42.273317,34.948436],[42.243034,34.959184],[42.207998,34.972775],[42.189911,34.975927],[42.049351,34.960838],[41.984239,34.964274],[41.852154,35.006778],[41.578372,35.099848],[41.511193,35.108658],[41.342211,35.148501],[41.213743,35.158397],[41.192326,35.158904],[41.191521,35.182143],[41.20134,35.243018],[41.243095,35.366525],[41.25188,35.46409],[41.261078,35.494165],[41.261181,35.494165],[41.261285,35.494165],[41.261285,35.49432],[41.308458,35.552248],[41.34221,35.593694],[41.358023,35.623925],[41.363501,35.655241],[41.359263,35.792752],[41.354509,35.825566],[41.343657,35.857657],[41.266349,35.994238],[41.266349,35.994342],[41.266246,35.99429]]]}},{"type":"Feature","properties":{"id":"IR-16","country":"IR","name_en":"Kurdistan"},"geometry":{"type":"Polygon","coordinates":[[[45.749021,35.810994],[45.731038,35.815128],[45.718739,35.828305],[45.69321,35.879878],[45.646857,35.933208],[45.617039,35.955429],[45.589858,35.959615],[45.576939,35.96623],[45.53999,35.99398],[45.501424,36.005435],[45.501957,36.005968],[45.535857,36.022556],[45.575027,36.054363],[45.591564,36.086945],[45.646961,36.138001],[45.66081,36.186732],[45.682721,36.204974],[45.6944,36.221045],[45.724476,36.247607],[45.88705,36.289878],[45.935212,36.348944],[45.936659,36.397159],[45.958776,36.420206],[46.04642,36.448111],[46.297877,36.419121],[46.815158,36.457775],[46.826941,36.449868],[46.834279,36.437776],[46.848335,36.422583],[46.868488,36.409096],[46.885542,36.393877],[46.923782,36.372457],[47.027652,36.34928],[47.14103,36.341245],[47.216477,36.368194],[47.258749,36.407649],[47.276009,36.435089],[47.28128,36.450721],[47.274148,36.467309],[47.278386,36.487024],[47.307945,36.501493],[47.332336,36.507694],[47.361275,36.484182],[47.86512,36.403411],[47.868531,36.398967],[47.900053,36.370649],[47.906978,36.360107],[47.910905,36.34078],[47.920414,36.318455],[47.931679,36.298818],[47.941084,36.287811],[47.930749,36.279905],[47.928682,36.271042],[47.934883,36.246832],[47.93354,36.239959],[47.929406,36.233577],[47.926202,36.227014],[47.927442,36.219547],[47.931576,36.218306],[47.948939,36.216498],[47.967749,36.160041],[47.967646,36.058316],[47.945632,35.985091],[47.906255,35.95163],[47.889821,35.915534],[47.903567,35.888972],[48.178796,35.752934],[48.197193,35.739059],[48.216933,35.711645],[48.225718,35.690225],[48.078544,35.755699],[48.042577,35.747431],[48.060354,35.707433],[48.089706,35.676272],[48.101591,35.65493],[48.101385,35.62966],[48.030175,35.610049],[48.001442,35.58713],[47.96868,35.575297],[47.937674,35.582092],[47.890442,35.662139],[47.867497,35.660201],[47.814994,35.612529],[47.799491,35.587208],[47.869151,35.503053],[47.976948,35.306372],[48.025937,35.257538],[48.066865,35.236609],[48.124019,35.19023],[48.151511,35.097755],[48.131667,35.023031],[48.096424,34.976806],[48.063248,34.952802],[48.041543,34.962337],[48.009504,35.027268],[47.990901,35.023418],[47.979532,34.995332],[47.943151,34.979106],[47.881863,34.964739],[47.851477,34.951226],[47.820575,34.950373],[47.777373,34.955541],[47.623688,35.097755],[47.509276,35.140388],[47.469795,35.168035],[47.440753,35.17005],[47.430005,35.150981],[47.448091,35.121242],[47.444784,35.087264],[47.410471,35.061529],[47.267327,35.053675],[47.256888,35.034348],[47.250894,34.969494],[47.230637,34.95983],[47.191363,34.96213],[47.129248,34.957143],[47.06889,34.905415],[47.026928,34.893736],[47.014113,34.871774],[47.013906,34.842912],[46.992615,34.822965],[46.960059,34.818469],[46.940319,34.796843],[46.935874,34.763925],[46.897427,34.747233],[46.829628,34.739094],[46.739504,34.747931],[46.679559,34.742479],[46.646486,34.772451],[46.645143,34.811829],[46.653101,34.841207],[46.648967,34.862265],[46.626126,34.860973],[46.583338,34.885364],[46.342939,35.154805],[46.152977,35.277382],[46.125285,35.284989],[46.127396,35.289062],[46.120161,35.318517],[46.096287,35.341151],[46.040993,35.381562],[45.977017,35.46533],[45.963995,35.494165],[45.963582,35.503415],[45.966062,35.511477],[45.971333,35.51804],[45.97924,35.523001],[45.983219,35.52698],[45.984562,35.531062],[45.983115,35.5353],[45.97924,35.539486],[45.968026,35.558503],[45.959344,35.578708],[45.963892,35.579742],[45.968698,35.579742],[45.999238,35.572145],[46.002029,35.585943],[45.992314,35.62439],[45.992365,35.640875],[45.995879,35.658393],[46.003786,35.674258],[46.016498,35.68573],[46.037065,35.691569],[46.107035,35.689812],[46.127603,35.693688],[46.177729,35.715392],[46.217003,35.713583],[46.23788,35.715547],[46.253486,35.727743],[46.267129,35.744124],[46.297515,35.759886],[46.313379,35.771513],[46.325058,35.787843],[46.327074,35.8035],[46.319632,35.816885],[46.302992,35.826548],[46.281392,35.828305],[46.263512,35.821122],[46.246407,35.811407],[46.227441,35.805723],[46.184963,35.798178],[46.163518,35.797506],[46.143364,35.804534],[46.135199,35.810012],[46.129101,35.815541],[46.124812,35.822466],[46.119851,35.842878],[46.115045,35.846444],[46.107759,35.847425],[46.07696,35.856986],[46.060423,35.857244],[46.0443,35.852283],[46.024973,35.843291],[46.004923,35.837969],[45.941257,35.840346],[45.909115,35.831302],[45.898779,35.832181],[45.888496,35.834868],[45.878315,35.83523],[45.854079,35.818332],[45.834752,35.810528],[45.814185,35.80934],[45.797907,35.818383],[45.786745,35.820244],[45.749021,35.810994]]]}},{"type":"Feature","properties":{"id":"IR-17","country":"IR","name_en":"Kermanshah"},"geometry":{"type":"Polygon","coordinates":[[[46.115407,35.226326],[46.101454,35.234285],[46.098767,35.250046],[46.107655,35.262758],[46.120058,35.274902],[46.125285,35.284989],[46.152977,35.277382],[46.342939,35.154805],[46.583338,34.885364],[46.626126,34.860973],[46.648967,34.862265],[46.653101,34.841207],[46.645143,34.811829],[46.646486,34.772451],[46.679559,34.742479],[46.739504,34.747931],[46.829628,34.739094],[46.897427,34.747233],[46.935874,34.763925],[46.940319,34.796843],[46.960059,34.818469],[46.992615,34.822965],[47.013906,34.842912],[47.014113,34.871774],[47.026928,34.893736],[47.06889,34.905415],[47.129248,34.957143],[47.191363,34.96213],[47.230637,34.95983],[47.250894,34.969494],[47.256888,35.034348],[47.267327,35.053675],[47.410471,35.061529],[47.444784,35.087264],[47.448091,35.121242],[47.430005,35.150981],[47.440753,35.17005],[47.469795,35.168035],[47.509276,35.140388],[47.623688,35.097755],[47.777373,34.955541],[47.820575,34.950373],[47.851477,34.951226],[47.851994,34.936059],[47.84662,34.908128],[47.81365,34.876864],[47.773963,34.803664],[47.727041,34.746613],[47.626892,34.737156],[47.595059,34.726821],[47.580693,34.711189],[47.590408,34.671424],[47.641154,34.637524],[47.714638,34.6044],[47.747505,34.599025],[47.774583,34.587243],[47.789362,34.545902],[47.814787,34.513811],[47.900157,34.587372],[47.946252,34.604038],[47.9693,34.608172],[47.98842,34.584246],[47.998549,34.543525],[47.98749,34.477482],[47.990074,34.430999],[47.959585,34.410122],[47.847343,34.42994],[47.748228,34.424049],[47.711331,34.377876],[47.693968,34.349712],[47.625238,34.357438],[47.596196,34.350953],[47.576972,34.340385],[47.573975,34.318061],[47.58307,34.264033],[47.577386,34.208041],[47.528913,34.187242],[47.457393,34.184219],[47.399722,34.16068],[47.393624,34.146443],[47.396208,34.136728],[47.402203,34.130139],[47.409024,34.124067],[47.414088,34.116006],[47.415845,34.104456],[47.413055,34.085827],[47.414088,34.075052],[47.417809,34.067456],[47.403546,34.048103],[47.386183,34.037819],[47.369646,34.042057],[47.335643,34.044434],[47.175136,34.013635],[47.175136,33.983068],[47.202628,33.948936],[47.217408,33.923744],[47.203455,33.859071],[47.182474,33.824912],[47.025895,33.830855],[46.855673,33.794708],[46.738781,33.80264],[46.48784,33.869974],[46.414253,33.923123],[46.347073,33.957385],[46.266355,33.972785],[46.185739,33.977565],[46.035878,34.028621],[45.880848,34.012395],[45.822041,34.013841],[45.80354,33.99591],[45.817493,33.957721],[45.806538,33.893435],[45.768504,33.793726],[45.747317,33.648851],[45.72463,33.633036],[45.721116,33.640764],[45.673987,33.669031],[45.658794,33.681692],[45.645151,33.697918],[45.635126,33.714171],[45.628202,33.731844],[45.623912,33.752075],[45.616729,33.768689],[45.603604,33.78073],[45.588204,33.791504],[45.574768,33.803933],[45.485781,33.938653],[45.483921,33.940048],[45.481751,33.940875],[45.47927,33.941185],[45.449711,33.937387],[45.423718,33.938782],[45.401032,33.949453],[45.380361,33.97356],[45.401755,33.981622],[45.411471,33.987151],[45.419739,33.994257],[45.419946,33.994257],[45.419946,33.99436],[45.43519,34.022136],[45.443613,34.047664],[45.454879,34.06986],[45.47927,34.087636],[45.493946,34.100685],[45.534357,34.128202],[45.544537,34.139494],[45.544537,34.15063],[45.538801,34.159234],[45.531463,34.167916],[45.526657,34.17931],[45.528673,34.18856],[45.542729,34.207474],[45.54769,34.216491],[45.561022,34.264602],[45.563038,34.289278],[45.55756,34.311964],[45.542212,34.331601],[45.521541,34.342504],[45.499217,34.342401],[45.47927,34.329146],[45.46077,34.340463],[45.447954,34.36209],[45.417052,34.444359],[45.426767,34.45751],[45.47927,34.467251],[45.486505,34.472729],[45.493016,34.479008],[45.4987,34.486242],[45.503455,34.494175],[45.50485,34.523785],[45.49653,34.564248],[45.500664,34.591688],[45.539628,34.582231],[45.573941,34.567297],[45.604844,34.561147],[45.673573,34.556652],[45.695588,34.550244],[45.70153,34.551277],[45.705613,34.557737],[45.7083,34.568382],[45.708558,34.579079],[45.705613,34.58559],[45.694451,34.598561],[45.691247,34.615511],[45.690782,34.634321],[45.687629,34.653235],[45.683495,34.660211],[45.678379,34.66512],[45.67347,34.671166],[45.67037,34.681812],[45.666856,34.689977],[45.659517,34.697211],[45.650526,34.702999],[45.642258,34.706875],[45.627375,34.720828],[45.635023,34.736951],[45.662825,34.763254],[45.665925,34.774726],[45.6636,34.794932],[45.666752,34.80692],[45.676571,34.818289],[45.689231,34.82263],[45.717705,34.825111],[45.745404,34.840975],[45.750468,34.865367],[45.748504,34.89074],[45.755119,34.909963],[45.77827,34.910893],[45.796202,34.903064],[45.808036,34.897871],[45.835011,34.890171],[45.850203,34.906811],[45.857852,34.931306],[45.866327,34.949547],[45.868962,34.968358],[45.859712,34.994248],[45.859712,34.994403],[45.856818,35.008045],[45.857025,35.021274],[45.861882,35.032798],[45.872476,35.041428],[45.879039,35.043237],[45.893095,35.044374],[45.899089,35.046906],[45.901156,35.051608],[45.898366,35.063907],[45.899399,35.06861],[45.913197,35.087317],[45.920173,35.089642],[45.934953,35.085456],[45.956037,35.074243],[45.966372,35.070729],[45.97924,35.071555],[46.009212,35.06091],[46.025077,35.064269],[46.039753,35.075535],[46.066573,35.088815],[46.07665,35.089694],[46.09453,35.085818],[46.119954,35.092743],[46.132357,35.094758],[46.143106,35.099512],[46.151064,35.111605],[46.130393,35.131397],[46.143829,35.159612],[46.165481,35.189946],[46.169254,35.216249],[46.154164,35.226636],[46.115407,35.226326]]]}},{"type":"Feature","properties":{"id":"IR-05","country":"IR","name_en":"Ilam"},"geometry":{"type":"Polygon","coordinates":[[[45.734552,33.583119],[45.72773,33.590096],[45.727989,33.625649],[45.72463,33.633036],[45.747317,33.648851],[45.768504,33.793726],[45.806538,33.893435],[45.817493,33.957721],[45.80354,33.99591],[45.822041,34.013841],[45.880848,34.012395],[46.035878,34.028621],[46.185739,33.977565],[46.266355,33.972785],[46.347073,33.957385],[46.414253,33.923123],[46.48784,33.869974],[46.738781,33.80264],[46.855673,33.794708],[47.025895,33.830855],[47.182474,33.824912],[47.203455,33.859071],[47.217408,33.923744],[47.202628,33.948936],[47.175136,33.983068],[47.175136,34.013635],[47.335643,34.044434],[47.369646,34.042057],[47.386183,34.037819],[47.399929,34.022265],[47.42277,33.978236],[47.431658,33.929247],[47.426491,33.897466],[47.413055,33.875039],[47.389283,33.854032],[47.333473,33.822923],[47.313733,33.799565],[46.963573,33.717451],[46.901561,33.668359],[46.879547,33.622961],[46.862081,33.621333],[46.844924,33.615106],[46.842133,33.600068],[46.82663,33.561414],[46.827871,33.553663],[46.843477,33.546118],[46.866008,33.512838],[46.897427,33.498989],[46.923575,33.471187],[46.944556,33.464909],[46.999126,33.436977],[47.009462,33.43336],[47.013286,33.424808],[47.011839,33.414705],[47.000367,33.397238],[47.003157,33.388815],[47.016283,33.375534],[47.029409,33.365871],[47.047392,33.358817],[47.085116,33.348843],[47.086873,33.346208],[47.08832,33.341324],[47.091627,33.336673],[47.098759,33.334555],[47.104133,33.33564],[47.109197,33.340317],[47.115915,33.341402],[47.123667,33.339929],[47.129248,33.336208],[47.134002,33.331558],[47.183508,33.299828],[47.201181,33.292981],[47.201078,33.279804],[47.219371,33.264197],[47.2449,33.251252],[47.287378,33.242467],[47.410367,33.190791],[47.420909,33.180326],[47.426491,33.167872],[47.439513,33.164384],[47.454292,33.163661],[47.465351,33.159527],[47.489226,33.135962],[47.508863,33.104517],[47.521782,33.092373],[47.540695,33.087541],[47.555475,33.08134],[47.588134,33.050954],[47.705853,32.920833],[47.866877,32.635476],[47.886514,32.611188],[47.898813,32.601473],[47.806829,32.420502],[47.733759,32.334978],[47.735412,32.284102],[47.747298,32.220204],[47.711538,32.170724],[47.607048,32.112562],[47.580232,32.103495],[47.578057,32.106155],[47.55873,32.112976],[47.54364,32.114578],[47.534752,32.123157],[47.52669,32.133389],[47.513823,32.140313],[47.498165,32.144137],[47.491344,32.148633],[47.490413,32.15654],[47.492481,32.170492],[47.496408,32.181344],[47.502351,32.190129],[47.507673,32.199844],[47.509224,32.213797],[47.504004,32.226742],[47.484522,32.239351],[47.479148,32.252063],[47.469433,32.25612],[47.463025,32.26183],[47.445352,32.28263],[47.441579,32.288185],[47.436877,32.293689],[47.407059,32.31777],[47.40246,32.323506],[47.395794,32.33702],[47.395949,32.34198],[47.39998,32.345779],[47.408765,32.364331],[47.414346,32.36986],[47.417963,32.376423],[47.416413,32.387973],[47.410832,32.395285],[47.384115,32.41257],[47.36732,32.430761],[47.356106,32.446186],[47.343342,32.458692],[47.321948,32.468226],[47.265311,32.484685],[47.251255,32.48546],[47.20547,32.46404],[47.187796,32.458382],[47.152553,32.455178],[47.12103,32.461043],[47.090593,32.474556],[47.058657,32.4944],[47.058605,32.494478],[47.058398,32.494478],[46.757332,32.716195],[46.715887,32.756012],[46.650361,32.789369],[46.604421,32.820685],[46.600598,32.822519],[46.507321,32.868021],[46.479312,32.891792],[46.379629,32.931764],[46.273433,32.959488],[46.15556,32.948352],[46.09701,32.95432],[46.075719,32.994344],[46.075719,32.994499],[46.088018,33.00672],[46.104658,33.018063],[46.119489,33.031008],[46.126156,33.047984],[46.12042,33.061678],[46.106002,33.072504],[46.087192,33.079222],[46.043267,33.08346],[46.029314,33.093511],[46.030296,33.105681],[46.050398,33.115112],[46.072412,33.116765],[46.089155,33.11568],[46.105382,33.118393],[46.126466,33.131777],[46.153441,33.154256],[46.167187,33.168338],[46.174318,33.18118],[46.173698,33.190223],[46.162122,33.196373],[46.157678,33.205675],[46.15835,33.213865],[46.164396,33.233063],[46.164189,33.243347],[46.155301,33.260219],[46.141349,33.272105],[46.109516,33.293705],[46.069725,33.34086],[46.036239,33.367939],[46.031071,33.382511],[46.030503,33.399203],[46.027454,33.419512],[46.019392,33.438399],[46.008023,33.455659],[45.974434,33.490799],[45.971385,33.492763],[45.968232,33.494236],[45.964461,33.495966],[45.963272,33.496561],[45.958156,33.497388],[45.953143,33.496587],[45.948182,33.494262],[45.929682,33.479508],[45.899399,33.476304],[45.869737,33.482118],[45.852581,33.494365],[45.868187,33.511573],[45.915626,33.535809],[45.927925,33.550873],[45.920897,33.572991],[45.89971,33.58516],[45.882036,33.600198],[45.885964,33.63092],[45.864363,33.626424],[45.815787,33.625804],[45.797545,33.619319],[45.768451,33.595909],[45.752018,33.586762],[45.734552,33.583119]]]}}]}
