{"type":"FeatureCollection","features":[{"type":"Feature","properties":{"id":"GB-AGY","country":"GB","name_en":"Anglesey"},"geometry":{"type":"MultiPolygon","coordinates":[[[[-4.57726,53.27204],[-4.572743,53.266506],[-4.563954,53.260443],[-4.558461,53.252753],[-4.563629,53.241929],[-4.571889,53.239488],[-4.581899,53.242011],[-4.602406,53.253079],[-4.622792,53.275946],[-4.632558,53.282945],[-4.641347,53.284369],[-4.6704,53.282945],[-4.676666,53.285102],[-4.693959,53.302802],[-4.693959,53.309638],[-4.667307,53.32392],[-4.65567,53.31977],[-4.644195,53.319525],[-4.626291,53.320868],[-4.618886,53.317084],[-4.603831,53.308173],[-4.590443,53.297553],[-4.580922,53.285468],[-4.57726,53.27204]]],[[[-4.098134,53.309638],[-4.068918,53.31037],[-4.055043,53.308539],[-4.042877,53.302802],[-4.063385,53.289293],[-4.098053,53.250149],[-4.121978,53.241929],[-4.146718,53.239081],[-4.171986,53.231391],[-4.195546,53.220282],[-4.214833,53.207221],[-4.218495,53.204047],[-4.220367,53.201483],[-4.221018,53.197455],[-4.221018,53.190131],[-4.222035,53.182115],[-4.225006,53.18122],[-4.22936,53.182196],[-4.264556,53.166938],[-4.280141,53.154975],[-4.343861,53.132066],[-4.35436,53.12995],[-4.366689,53.131415],[-4.392405,53.138332],[-4.39269,53.136054],[-4.398671,53.132758],[-4.406606,53.130601],[-4.412831,53.132066],[-4.414296,53.137844],[-4.413686,53.147121],[-4.411977,53.155585],[-4.409739,53.15941],[-4.401926,53.163723],[-4.39037,53.173082],[-4.385121,53.18244],[-4.395741,53.186713],[-4.410878,53.182196],[-4.432851,53.162909],[-4.447581,53.15941],[-4.448557,53.162543],[-4.481679,53.179877],[-4.484486,53.180609],[-4.492502,53.179348],[-4.495351,53.179877],[-4.496002,53.182563],[-4.4947,53.190863],[-4.495351,53.193549],[-4.495107,53.196479],[-4.496327,53.203803],[-4.499623,53.211249],[-4.519887,53.222846],[-4.55309,53.261949],[-4.571034,53.275458],[-4.571034,53.282945],[-4.565256,53.293036],[-4.563222,53.308254],[-4.563629,53.330064],[-4.558665,53.363349],[-4.560862,53.377834],[-4.571034,53.392768],[-4.553456,53.40058],[-4.425364,53.426703],[-4.412831,53.426947],[-4.343495,53.420071],[-4.324696,53.419501],[-4.286529,53.40644],[-4.276723,53.401028],[-4.271881,53.389065],[-4.269358,53.377102],[-4.266021,53.371649],[-4.266916,53.368964],[-4.254506,53.363227],[-4.240061,53.358344],[-4.234731,53.358059],[-4.233713,53.352973],[-4.234853,53.346137],[-4.235178,53.340074],[-4.231557,53.337592],[-4.230621,53.335273],[-4.214833,53.32392],[-4.20934,53.312405],[-4.207428,53.3039],[-4.203236,53.298489],[-4.190582,53.296576],[-4.177805,53.297553],[-4.154897,53.301825],[-4.142486,53.302802],[-4.136627,53.30508],[-4.127797,53.314846],[-4.121978,53.317084],[-4.115142,53.315904],[-4.102528,53.310777],[-4.098134,53.309638]]]]}},{"type":"Feature","properties":{"id":"GB-BGE","country":"GB","name_en":"Bridgend"},"geometry":{"type":"Polygon","coordinates":[[[-3.575311,51.420441],[-3.604726,51.445705],[-3.663197,51.476223],[-3.676991,51.477037],[-3.695424,51.471503],[-3.717926,51.478583],[-3.73762,51.490871],[-3.748036,51.500922],[-3.74942,51.505357],[-3.74767,51.507025],[-3.744537,51.507636],[-3.741851,51.508368],[-3.749338,51.528062],[-3.751909,51.533081],[-3.691139,51.525796],[-3.640315,51.542436],[-3.651968,51.569927],[-3.682509,51.587446],[-3.680855,51.595766],[-3.667523,51.604964],[-3.660288,51.634936],[-3.653622,51.639949],[-3.588638,51.634368],[-3.549184,51.641758],[-3.525231,51.633309],[-3.490815,51.617005],[-3.461825,51.589823],[-3.469059,51.542746],[-3.475235,51.510396],[-3.479188,51.511636],[-3.523087,51.49355],[-3.519211,51.478822],[-3.52394,51.467453],[-3.517273,51.449935],[-3.535334,51.452441],[-3.54337,51.447997],[-3.525593,51.435775],[-3.572903,51.421099],[-3.574298,51.420738],[-3.575311,51.420441]]]}},{"type":"Feature","properties":{"id":"GB-BGW","country":"GB","name_en":"Blaenau Gwent"},"geometry":{"type":"Polygon","coordinates":[[[-3.217963,51.732786],[-3.232252,51.738289],[-3.25114,51.756893],[-3.257522,51.770225],[-3.288993,51.793273],[-3.292843,51.798802],[-3.29062,51.806606],[-3.274187,51.814667],[-3.206698,51.808569],[-3.16223,51.809654],[-3.156856,51.81074],[-3.141172,51.799991],[-3.128486,51.794539],[-3.126677,51.78547],[-3.110399,51.765574],[-3.106756,51.747436],[-3.106756,51.725706],[-3.106756,51.703976],[-3.11474,51.700772],[-3.115825,51.700359],[-3.141172,51.711211],[-3.170189,51.725706],[-3.210031,51.738393],[-3.217963,51.732786]]]}},{"type":"Feature","properties":{"id":"GB-CAY","country":"GB","name_en":"Caerphilly"},"geometry":{"type":"Polygon","coordinates":[[[-3.031877,51.605739],[-3.052418,51.598892],[-3.109159,51.587239],[-3.110037,51.586309],[-3.108926,51.579126],[-3.083631,51.562719],[-3.102389,51.543107],[-3.156417,51.553003],[-3.212537,51.550239],[-3.227524,51.545123],[-3.257134,51.578971],[-3.301731,51.648579],[-3.277055,51.658656],[-3.275273,51.676794],[-3.296951,51.709402],[-3.325967,51.767383],[-3.333848,51.789914],[-3.288993,51.793273],[-3.257522,51.770225],[-3.25114,51.756893],[-3.232252,51.738289],[-3.217963,51.732786],[-3.210031,51.738393],[-3.170189,51.725706],[-3.141172,51.711211],[-3.115825,51.700359],[-3.11474,51.700772],[-3.10859,51.691264],[-3.088669,51.687646],[-3.070556,51.680412],[-3.068696,51.66956],[-3.070556,51.655039],[-3.074174,51.640569],[-3.075957,51.629691],[-3.061436,51.617005],[-3.031877,51.605739]]]}},{"type":"Feature","properties":{"id":"GB-CGN","country":"GB","name_en":"Ceredigion"},"geometry":{"type":"Polygon","coordinates":[[[-4.693763,52.107267],[-4.673451,52.097398],[-4.675689,52.126939],[-4.637522,52.138495],[-4.513824,52.135688],[-4.502268,52.138373],[-4.495758,52.1435],[-4.490956,52.150377],[-4.484283,52.156317],[-4.454701,52.162055],[-4.434804,52.170356],[-4.415395,52.181545],[-4.385569,52.203437],[-4.371246,52.209296],[-4.354726,52.212104],[-4.33434,52.212836],[-4.315826,52.216295],[-4.197133,52.279283],[-4.139068,52.330227],[-4.109609,52.365302],[-4.096262,52.387885],[-4.087392,52.430121],[-4.078969,52.45303],[-4.067942,52.473619],[-4.056549,52.48786],[-4.061838,52.497056],[-4.064036,52.509182],[-4.062571,52.520982],[-4.056549,52.529446],[-4.048492,52.530463],[-4.026601,52.523383],[-4.016184,52.521959],[-3.998769,52.525946],[-3.947336,52.549262],[-3.947336,52.550877],[-3.927455,52.553175],[-3.86782,52.556069],[-3.839476,52.548576],[-3.829192,52.532711],[-3.833946,52.504134],[-3.813121,52.481345],[-3.76669,52.486616],[-3.745321,52.501059],[-3.724728,52.498837],[-3.736976,52.467185],[-3.757801,52.458555],[-3.76085,52.43742],[-3.720052,52.420211],[-3.694472,52.382436],[-3.69057,52.364091],[-3.670313,52.363264],[-3.651968,52.347451],[-3.662252,52.33939],[-3.703644,52.334687],[-3.731162,52.318822],[-3.731679,52.311045],[-3.715866,52.298565],[-3.717003,52.286602],[-3.701138,52.273838],[-3.706125,52.267714],[-3.734754,52.257999],[-3.739482,52.246889],[-3.733772,52.242083],[-3.741575,52.23614],[-3.743099,52.202705],[-3.75253,52.178521],[-3.746691,52.143846],[-3.755786,52.124622],[-3.741161,52.121625],[-3.762917,52.106122],[-3.784596,52.106122],[-3.811829,52.117],[-3.840794,52.120592],[-3.866141,52.124209],[-3.882445,52.120592],[-3.900583,52.120592],[-3.913244,52.120592],[-3.935,52.1224],[-3.945878,52.118809],[-3.971225,52.109739],[-3.989338,52.097079],[-4.016493,52.097079],[-4.036441,52.098887],[-4.060031,52.106122],[-4.072666,52.104313],[-4.119717,52.089792],[-4.161446,52.069897],[-4.203097,52.040906],[-4.235705,52.031863],[-4.271904,52.031863],[-4.306347,52.031863],[-4.335363,52.030054],[-4.367945,52.028246],[-4.409596,52.028246],[-4.496593,52.037289],[-4.556331,52.039098],[-4.558683,52.037677],[-4.559406,52.038219],[-4.582454,52.043542],[-4.606406,52.046177],[-4.622348,52.050622],[-4.632993,52.055944],[-4.64183,52.063928],[-4.653354,52.065711],[-4.6702,52.065711],[-4.684386,52.065711],[-4.696814,52.068347],[-4.698571,52.080749],[-4.697718,52.095839],[-4.695083,52.104133],[-4.694902,52.104779],[-4.693791,52.107207],[-4.693763,52.107267]]]}},{"type":"Feature","properties":{"id":"GB-CMN","country":"GB","name_en":"Carmarthenshire"},"geometry":{"type":"Polygon","coordinates":[[[-4.070546,51.675971],[-4.075429,51.677802],[-4.08727,51.66885],[-4.095448,51.665107],[-4.106842,51.664252],[-4.146352,51.66706],[-4.200551,51.685858],[-4.214955,51.679674],[-4.293691,51.672268],[-4.315297,51.677476],[-4.342356,51.690863],[-4.366444,51.708482],[-4.379262,51.726874],[-4.338043,51.723334],[-4.319976,51.72484],[-4.310455,51.73371],[-4.328725,51.732978],[-4.347157,51.735785],[-4.362538,51.742865],[-4.371816,51.754788],[-4.368764,51.756985],[-4.362904,51.763861],[-4.358022,51.773139],[-4.358225,51.782131],[-4.365102,51.789049],[-4.37149,51.785956],[-4.379262,51.775295],[-4.384918,51.771877],[-4.392974,51.763739],[-4.399159,51.761623],[-4.409332,51.76317],[-4.417877,51.76789],[-4.426503,51.775295],[-4.44579,51.773261],[-4.44933,51.766303],[-4.441396,51.756781],[-4.426503,51.747301],[-4.460764,51.735785],[-4.498891,51.734849],[-4.574208,51.741156],[-4.603424,51.739244],[-4.639261,51.733164],[-4.638988,51.734259],[-4.637412,51.743044],[-4.637412,51.75989],[-4.637412,51.778494],[-4.637412,51.793531],[-4.640047,51.805985],[-4.649814,51.817509],[-4.663121,51.825467],[-4.676402,51.826346],[-4.690587,51.826346],[-4.702111,51.825467],[-4.715417,51.821928],[-4.72428,51.820145],[-4.737586,51.820145],[-4.750867,51.820145],[-4.761513,51.821928],[-4.766835,51.824589],[-4.767714,51.83079],[-4.758825,51.838774],[-4.734873,51.841435],[-4.72428,51.84588],[-4.723375,51.853838],[-4.725158,51.860039],[-4.740222,51.868927],[-4.7411,51.874198],[-4.732264,51.883965],[-4.693274,51.908796],[-4.672862,51.912336],[-4.654232,51.913214],[-4.63121,51.910579],[-4.597517,51.919441],[-4.517729,51.948664],[-4.494681,51.960188],[-4.494681,51.969076],[-4.506205,51.977913],[-4.523982,51.993881],[-4.53548,52.009849],[-4.541681,52.024938],[-4.558683,52.037677],[-4.556331,52.039098],[-4.496593,52.037289],[-4.409596,52.028246],[-4.367945,52.028246],[-4.335363,52.030054],[-4.306347,52.031863],[-4.271904,52.031863],[-4.235705,52.031863],[-4.203097,52.040906],[-4.161446,52.069897],[-4.119717,52.089792],[-4.072666,52.104313],[-4.060031,52.106122],[-4.036441,52.098887],[-4.016493,52.097079],[-3.989338,52.097079],[-3.971225,52.109739],[-3.945878,52.118809],[-3.935,52.1224],[-3.913244,52.120592],[-3.900583,52.120592],[-3.882445,52.120592],[-3.866141,52.124209],[-3.840794,52.120592],[-3.811829,52.117],[-3.784596,52.106122],[-3.762917,52.106122],[-3.741161,52.121625],[-3.706693,52.114649],[-3.703903,52.108293],[-3.713618,52.090206],[-3.710569,52.086588],[-3.667523,52.07522],[-3.660856,52.069664],[-3.658918,52.054911],[-3.641994,52.041888],[-3.643648,52.031346],[-3.67362,52.012691],[-3.695583,51.988817],[-3.697805,51.971324],[-3.686695,51.948251],[-3.69057,51.940499],[-3.701655,51.936417],[-3.709897,51.932334],[-3.716693,51.903292],[-3.711292,51.881795],[-3.721679,51.865775],[-3.752272,51.847172],[-3.766922,51.817716],[-3.799995,51.785263],[-3.819451,51.799939],[-3.867252,51.800198],[-3.884202,51.793015],[-3.878104,51.775238],[-3.884744,51.764954],[-3.896139,51.763559],[-3.91451,51.771052],[-3.933139,51.762215],[-3.935026,51.761337],[-3.978098,51.766608],[-3.992257,51.756893],[-4.00975,51.754955],[-4.023082,51.744077],[-4.023082,51.73214],[-4.035898,51.721598],[-4.041996,51.702167],[-4.070546,51.675971]]]}},{"type":"Feature","properties":{"id":"GB-CRF","country":"GB","name_en":"Cardiff"},"geometry":{"type":"Polygon","coordinates":[[[-3.076506,51.507754],[-3.088938,51.505072],[-3.105621,51.497219],[-3.131703,51.480414],[-3.135081,51.476304],[-3.14094,51.464789],[-3.145375,51.459947],[-3.152415,51.45718],[-3.166656,51.456],[-3.172393,51.453274],[-3.172719,51.453111],[-3.179749,51.458746],[-3.179904,51.458927],[-3.190291,51.465309],[-3.200729,51.467711],[-3.211142,51.467711],[-3.227937,51.466936],[-3.239952,51.46611],[-3.250339,51.46611],[-3.260752,51.469313],[-3.269562,51.477323],[-3.284807,51.493343],[-3.29137,51.500423],[-3.284471,51.503006],[-3.276125,51.516339],[-3.235301,51.542436],[-3.227524,51.545123],[-3.212537,51.550239],[-3.156417,51.553003],[-3.102389,51.543107],[-3.095025,51.533289],[-3.067507,51.526054],[-3.065621,51.522695],[-3.076964,51.510758],[-3.076506,51.507754]]]}},{"type":"Feature","properties":{"id":"GB-CWY","country":"GB","name_en":"Conwy"},"geometry":{"type":"Polygon","coordinates":[[[-4.00043,53.248733],[-3.974599,53.261786],[-3.865305,53.28913],[-3.831288,53.28913],[-3.84142,53.30744],[-3.870758,53.325629],[-3.878407,53.337592],[-3.859975,53.33633],[-3.840566,53.332831],[-3.822987,53.326565],[-3.810129,53.317084],[-3.790517,53.323432],[-3.76887,53.319159],[-3.748199,53.307807],[-3.731923,53.292873],[-3.716298,53.286933],[-3.602203,53.288886],[-3.562327,53.29442],[-3.513459,53.308925],[-3.513656,53.306876],[-3.514819,53.290959],[-3.516111,53.267808],[-3.517403,53.260057],[-3.518694,53.249773],[-3.505827,53.24073],[-3.491642,53.231712],[-3.477457,53.212411],[-3.474899,53.193084],[-3.474899,53.169881],[-3.498076,53.144095],[-3.585667,53.087406],[-3.548305,53.080998],[-3.517403,53.079706],[-3.504535,53.073247],[-3.477457,53.056503],[-3.468439,53.033301],[-3.465855,53.008806],[-3.46154,52.976405],[-3.493916,52.964674],[-3.518359,52.969377],[-3.567244,52.965191],[-3.593367,52.981624],[-3.585874,52.997179],[-3.590008,53.003535],[-3.601118,53.006894],[-3.669383,52.988833],[-3.682302,52.981779],[-3.71969,52.963744],[-3.767361,52.949585],[-3.787954,52.936692],[-3.821441,52.944417],[-3.860095,52.963744],[-3.883272,52.986947],[-3.887147,53.002398],[-3.894821,53.008806],[-3.906474,53.004982],[-3.925801,53.002398],[-3.945128,52.995939],[-3.968357,52.995939],[-3.979932,52.995939],[-3.983808,53.007566],[-3.978589,53.015266],[-3.968357,53.030743],[-3.968357,53.047486],[-3.976031,53.060379],[-3.992774,53.074538],[-4.006959,53.088698],[-4.008251,53.100325],[-4.004401,53.110609],[-3.977323,53.129936],[-3.95027,53.157014],[-3.927093,53.200784],[-3.994841,53.245587],[-4.00043,53.248733]]]}},{"type":"Feature","properties":{"id":"GB-DEN","country":"GB","name_en":"Denbighshire"},"geometry":{"type":"Polygon","coordinates":[[[-3.513459,53.308925],[-3.37206,53.350898],[-3.360462,53.351146],[-3.361262,53.350361],[-3.36537,53.344806],[-3.365267,53.344806],[-3.37568,53.332197],[-3.382114,53.297419],[-3.374388,53.290959],[-3.349919,53.284552],[-3.340876,53.272924],[-3.340876,53.261349],[-3.347335,53.245898],[-3.347335,53.230446],[-3.340876,53.218819],[-3.326716,53.20466],[-3.298372,53.176315],[-3.271319,53.157014],[-3.251992,53.151846],[-3.231373,53.151846],[-3.212072,53.151846],[-3.191453,53.147971],[-3.182436,53.138927],[-3.168251,53.117068],[-3.1451,53.088698],[-3.12275,53.066374],[-3.132181,53.059087],[-3.141198,53.021725],[-3.141198,52.997231],[-3.128356,52.985655],[-3.110321,52.976612],[-3.094818,52.963744],[-3.148924,52.950877],[-3.200471,52.937984],[-3.235249,52.9354],[-3.282921,52.934134],[-3.311265,52.932842],[-3.342168,52.913515],[-3.373096,52.88902],[-3.390744,52.867368],[-3.436167,52.856619],[-3.470015,52.861942],[-3.468362,52.893568],[-3.452807,52.902973],[-3.450327,52.909949],[-3.455029,52.916047],[-3.467793,52.917442],[-3.476681,52.933307],[-3.434462,52.958577],[-3.423377,52.970772],[-3.426426,52.973563],[-3.456424,52.978265],[-3.46154,52.976405],[-3.465855,53.008806],[-3.468439,53.033301],[-3.477457,53.056503],[-3.504535,53.073247],[-3.517403,53.079706],[-3.548305,53.080998],[-3.585667,53.087406],[-3.498076,53.144095],[-3.474899,53.169881],[-3.474899,53.193084],[-3.477457,53.212411],[-3.491642,53.231712],[-3.505827,53.24073],[-3.518694,53.249773],[-3.517403,53.260057],[-3.516111,53.267808],[-3.514819,53.290959],[-3.513656,53.306876],[-3.513459,53.308925]]]}},{"type":"Feature","properties":{"id":"GB-FLN","country":"GB","name_en":"Flintshire"},"geometry":{"type":"Polygon","coordinates":[[[-3.084543,53.258572],[-3.066681,53.253236],[-3.028984,53.249051],[-3.019759,53.246699],[-2.955551,53.215513],[-2.922427,53.193473],[-2.917983,53.189261],[-2.913564,53.183422],[-2.911445,53.174714],[-2.912557,53.170141],[-2.915295,53.167143],[-2.952399,53.152881],[-2.95581,53.150555],[-2.957231,53.147145],[-2.956797,53.144604],[-2.957385,53.144508],[-2.99175,53.138927],[-3.053607,53.106733],[-3.103836,53.080998],[-3.12275,53.066374],[-3.1451,53.088698],[-3.168251,53.117068],[-3.182436,53.138927],[-3.191453,53.147971],[-3.212072,53.151846],[-3.231373,53.151846],[-3.251992,53.151846],[-3.271319,53.157014],[-3.298372,53.176315],[-3.326716,53.20466],[-3.340876,53.218819],[-3.347335,53.230446],[-3.347335,53.245898],[-3.340876,53.261349],[-3.340876,53.272924],[-3.349919,53.284552],[-3.374388,53.290959],[-3.382114,53.297419],[-3.37568,53.332197],[-3.365267,53.344806],[-3.36537,53.344806],[-3.361262,53.350361],[-3.360462,53.351146],[-3.330312,53.351793],[-3.292388,53.340522],[-3.271311,53.330552],[-3.262074,53.320502],[-3.250803,53.312567],[-3.122222,53.262274],[-3.107533,53.251899],[-3.095123,53.239325],[-3.087758,53.234687],[-3.084543,53.238593],[-3.084543,53.258572]]]}},{"type":"Feature","properties":{"id":"GB-GWN","country":"GB","name_en":"Gwynedd"},"geometry":{"type":"Polygon","coordinates":[[[-3.947336,52.550877],[-3.947336,52.556708],[-3.974477,52.556545],[-4.025868,52.545356],[-4.053131,52.542426],[-4.068471,52.550116],[-4.114125,52.588609],[-4.125478,52.603909],[-4.122222,52.62873],[-4.105946,52.65351],[-4.084828,52.672675],[-4.067128,52.680243],[-4.063547,52.683092],[-4.058827,52.696601],[-4.056549,52.70067],[-4.052724,52.702216],[-4.041982,52.704657],[-4.001088,52.724107],[-3.988271,52.73428],[-4.014719,52.732327],[-4.031972,52.723944],[-4.048818,52.721584],[-4.125152,52.778306],[-4.144358,52.802802],[-4.149037,52.812079],[-4.14623,52.820217],[-4.128896,52.823635],[-4.11734,52.830756],[-4.119781,52.846259],[-4.127756,52.861721],[-4.132192,52.868313],[-4.131988,52.882473],[-4.129872,52.889228],[-4.123606,52.893256],[-4.064036,52.919176],[-4.071401,52.921088],[-4.074574,52.922797],[-4.077626,52.926663],[-4.089101,52.91885],[-4.100494,52.91413],[-4.110585,52.915676],[-4.11856,52.926663],[-4.144399,52.914781],[-4.17162,52.913479],[-4.228505,52.919176],[-4.300689,52.905585],[-4.317291,52.899359],[-4.33731,52.892035],[-4.406606,52.892524],[-4.427235,52.885972],[-4.446197,52.875922],[-4.481679,52.850898],[-4.477935,52.848334],[-4.475494,52.844143],[-4.491363,52.838202],[-4.500966,52.826809],[-4.501332,52.81391],[-4.489125,52.803168],[-4.501943,52.794989],[-4.509185,52.791449],[-4.516469,52.789496],[-4.528554,52.790473],[-4.54247,52.800686],[-4.563954,52.805243],[-4.583079,52.814643],[-4.594635,52.816799],[-4.606516,52.81509],[-4.613515,52.811103],[-4.619211,52.806545],[-4.626332,52.803168],[-4.64859,52.799628],[-4.704498,52.803168],[-4.719309,52.797512],[-4.733225,52.787502],[-4.747426,52.783433],[-4.762847,52.789496],[-4.752512,52.798774],[-4.751454,52.803209],[-4.755442,52.809312],[-4.749257,52.814276],[-4.734934,52.830471],[-4.596059,52.928412],[-4.580963,52.933498],[-4.562082,52.934516],[-4.543528,52.937934],[-4.523997,52.944241],[-4.44343,52.982164],[-4.423695,53.002631],[-4.358225,53.028469],[-4.349965,53.04149],[-4.345693,53.059475],[-4.343861,53.10106],[-4.340891,53.112738],[-4.33434,53.116767],[-4.327626,53.114691],[-4.324696,53.107896],[-4.320668,53.101508],[-4.312245,53.109442],[-4.304758,53.120998],[-4.303619,53.125312],[-4.263539,53.154527],[-4.252349,53.15941],[-4.234527,53.164008],[-4.221303,53.175035],[-4.200551,53.200995],[-4.177968,53.217597],[-4.151519,53.228095],[-4.122222,53.233466],[-4.090688,53.235175],[-4.082346,53.233547],[-4.07433,53.230658],[-4.066884,53.229071],[-4.054107,53.234361],[-4.032297,53.240709],[-4.008901,53.244452],[-4.00043,53.248733],[-3.994841,53.245587],[-3.927093,53.200784],[-3.95027,53.157014],[-3.977323,53.129936],[-4.004401,53.110609],[-4.008251,53.100325],[-4.006959,53.088698],[-3.992774,53.074538],[-3.976031,53.060379],[-3.968357,53.047486],[-3.968357,53.030743],[-3.978589,53.015266],[-3.983808,53.007566],[-3.979932,52.995939],[-3.968357,52.995939],[-3.945128,52.995939],[-3.925801,53.002398],[-3.906474,53.004982],[-3.894821,53.008806],[-3.887147,53.002398],[-3.883272,52.986947],[-3.860095,52.963744],[-3.821441,52.944417],[-3.787954,52.936692],[-3.767361,52.949585],[-3.71969,52.963744],[-3.682302,52.981779],[-3.669383,52.988833],[-3.601118,53.006894],[-3.590008,53.003535],[-3.585874,52.997179],[-3.593367,52.981624],[-3.567244,52.965191],[-3.518359,52.969377],[-3.493916,52.964674],[-3.46154,52.976405],[-3.456424,52.978265],[-3.426426,52.973563],[-3.423377,52.970772],[-3.434462,52.958577],[-3.476681,52.933307],[-3.467793,52.917442],[-3.455029,52.916047],[-3.450327,52.909949],[-3.452807,52.902973],[-3.468362,52.893568],[-3.470015,52.861942],[-3.476966,52.84494],[-3.490841,52.834656],[-3.527247,52.833261],[-3.577528,52.819102],[-3.587243,52.811609],[-3.597217,52.784375],[-3.580293,52.76355],[-3.571689,52.730528],[-3.601454,52.695492],[-3.667755,52.688826],[-3.698606,52.676062],[-3.726718,52.677715],[-3.763072,52.669395],[-3.796972,52.674666],[-3.833636,52.640767],[-3.827823,52.626607],[-3.837822,52.599115],[-3.875572,52.576068],[-3.911952,52.568006],[-3.927455,52.553175],[-3.947336,52.550877]]]}},{"type":"Feature","properties":{"id":"GB-MON","country":"GB","name_en":"Monmouthshire"},"geometry":{"type":"Polygon","coordinates":[[[-3.05125,51.983503],[-3.050843,51.98303],[-3.02826,51.963289],[-2.998779,51.946701],[-2.997099,51.945254],[-2.9948,51.942645],[-2.993404,51.939337],[-2.991932,51.931922],[-2.988211,51.927581],[-2.982268,51.922827],[-2.960848,51.911122],[-2.952502,51.908693],[-2.94178,51.908538],[-2.934726,51.909262],[-2.924339,51.912052],[-2.894573,51.925824],[-2.884625,51.92833],[-2.873592,51.929209],[-2.775666,51.875026],[-2.765124,51.866499],[-2.762643,51.863373],[-2.749311,51.853658],[-2.746572,51.85079],[-2.742334,51.844873],[-2.739647,51.84216],[-2.734996,51.839886],[-2.728743,51.838387],[-2.710553,51.839137],[-2.702595,51.838542],[-2.695826,51.836269],[-2.677532,51.825184],[-2.658877,51.817665],[-2.648511,51.8214],[-2.647043,51.821928],[-2.654174,51.807769],[-2.675775,51.786659],[-2.679341,51.778365],[-2.680994,51.772267],[-2.680581,51.764929],[-2.676705,51.758186],[-2.670194,51.749504],[-2.670556,51.743949],[-2.673915,51.73643],[-2.677222,51.732244],[-2.683733,51.726094],[-2.684353,51.721935],[-2.68301,51.716741],[-2.674225,51.703228],[-2.666783,51.685735],[-2.663579,51.680206],[-2.661719,51.675529],[-2.661616,51.672248],[-2.665802,51.668553],[-2.681615,51.664444],[-2.684043,51.662119],[-2.683475,51.659018],[-2.678101,51.653928],[-2.673036,51.647314],[-2.672519,51.637986],[-2.665354,51.617255],[-2.693756,51.596177],[-2.713124,51.586615],[-2.760487,51.579779],[-2.798096,51.563499],[-2.833232,51.573545],[-2.853154,51.584397],[-2.847702,51.595275],[-2.818737,51.611579],[-2.79879,51.622431],[-2.789747,51.6315],[-2.800599,51.644187],[-2.815094,51.649613],[-2.835015,51.649613],[-2.896614,51.626074],[-2.921987,51.626074],[-2.93103,51.627883],[-2.945525,51.629691],[-2.961312,51.627443],[-2.970898,51.642378],[-2.976324,51.667751],[-2.976324,51.694907],[-2.976324,51.709402],[-2.99082,51.722063],[-3.005341,51.722063],[-3.021619,51.727515],[-3.032471,51.740201],[-3.03428,51.763766],[-3.048801,51.783661],[-3.081408,51.794539],[-3.104973,51.794539],[-3.128486,51.794539],[-3.141172,51.799991],[-3.156856,51.81074],[-3.135875,51.814925],[-3.115877,51.825777],[-3.088669,51.829111],[-3.067017,51.853838],[-3.064459,51.867429],[-3.034977,51.886032],[-3.063916,51.938277],[-3.059162,51.953005],[-3.061384,51.968275],[-3.051462,51.983184],[-3.05125,51.983503]]]}},{"type":"Feature","properties":{"id":"GB-MTY","country":"GB","name_en":"Merthyr Tydfil"},"geometry":{"type":"Polygon","coordinates":[[[-3.333848,51.789914],[-3.325967,51.767383],[-3.296951,51.709402],[-3.275273,51.676794],[-3.277055,51.658656],[-3.301731,51.648579],[-3.302403,51.649613],[-3.378496,51.702167],[-3.438286,51.754671],[-3.412913,51.765574],[-3.435159,51.816631],[-3.426426,51.81384],[-3.420587,51.815236],[-3.414489,51.825493],[-3.405006,51.827715],[-3.38586,51.811618],[-3.356973,51.805469],[-3.3478,51.788829],[-3.333848,51.789914]]]}},{"type":"Feature","properties":{"id":"GB-NTL","country":"GB","name_en":"Neath Port Talbot"},"geometry":{"type":"Polygon","coordinates":[[[-3.751909,51.533081],[-3.758941,51.54678],[-3.770131,51.5633],[-3.782216,51.576646],[-3.790273,51.581977],[-3.807729,51.589179],[-3.816965,51.596503],[-3.832672,51.615546],[-3.841624,51.621527],[-3.854888,51.623847],[-3.88679,51.621405],[-3.87521,51.636952],[-3.829916,51.687646],[-3.866141,51.714828],[-3.916861,51.751053],[-3.933139,51.762215],[-3.91451,51.771052],[-3.896139,51.763559],[-3.884744,51.764954],[-3.878104,51.775238],[-3.884202,51.793015],[-3.867252,51.800198],[-3.819451,51.799939],[-3.799995,51.785263],[-3.763382,51.75772],[-3.7331,51.760769],[-3.723075,51.77299],[-3.695583,51.768003],[-3.648351,51.779372],[-3.591687,51.762448],[-3.583729,51.75126],[-3.59223,51.742423],[-3.571689,51.73214],[-3.567787,51.721339],[-3.572231,51.690747],[-3.569467,51.672454],[-3.548357,51.653282],[-3.545566,51.64243],[-3.549184,51.641758],[-3.588638,51.634368],[-3.653622,51.639949],[-3.660288,51.634936],[-3.667523,51.604964],[-3.680855,51.595766],[-3.682509,51.587446],[-3.651968,51.569927],[-3.640315,51.542436],[-3.691139,51.525796],[-3.751909,51.533081]]]}},{"type":"Feature","properties":{"id":"GB-NWP","country":"GB","name_en":"Newport"},"geometry":{"type":"Polygon","coordinates":[[[-2.798096,51.563499],[-2.816396,51.555569],[-2.858713,51.546129],[-2.943349,51.542548],[-2.956288,51.545722],[-2.964101,51.552802],[-2.969472,51.559882],[-2.97468,51.562974],[-2.984039,51.558539],[-3.010243,51.538031],[-3.015696,51.531643],[-3.07372,51.508368],[-3.076506,51.507754],[-3.076964,51.510758],[-3.065621,51.522695],[-3.067507,51.526054],[-3.095025,51.533289],[-3.102389,51.543107],[-3.083631,51.562719],[-3.108926,51.579126],[-3.110037,51.586309],[-3.109159,51.587239],[-3.052418,51.598892],[-3.031877,51.605739],[-2.970898,51.626074],[-2.961312,51.627443],[-2.945525,51.629691],[-2.93103,51.627883],[-2.921987,51.626074],[-2.896614,51.626074],[-2.835015,51.649613],[-2.815094,51.649613],[-2.800599,51.644187],[-2.789747,51.6315],[-2.79879,51.622431],[-2.818737,51.611579],[-2.847702,51.595275],[-2.853154,51.584397],[-2.833232,51.573545],[-2.798096,51.563499]]]}},{"type":"Feature","properties":{"id":"GB-PEM","country":"GB","name_en":"Pembrokeshire"},"geometry":{"type":"Polygon","coordinates":[[[-4.639261,51.733164],[-4.645375,51.732123],[-4.678212,51.717434],[-4.680287,51.692694],[-4.689443,51.691596],[-4.69164,51.689887],[-4.69164,51.685981],[-4.693959,51.678412],[-4.71231,51.650092],[-4.721425,51.652045],[-4.734934,51.659247],[-4.741851,51.656073],[-4.759185,51.644965],[-4.848297,51.646308],[-4.863515,51.64411],[-4.878977,51.637437],[-4.887807,51.62995],[-4.895741,51.62108],[-4.904775,51.613837],[-4.923695,51.608629],[-4.931996,51.599026],[-4.941029,51.596503],[-4.946034,51.597602],[-4.956451,51.602769],[-5.021596,51.616034],[-5.045766,51.626899],[-5.03661,51.637437],[-5.051178,51.656928],[-5.100494,51.6647],[-5.11974,51.678412],[-5.113433,51.685289],[-5.03661,51.678412],[-5.038726,51.68183],[-5.041331,51.689399],[-5.043446,51.692694],[-5.028676,51.692939],[-5.002553,51.687405],[-4.988189,51.685858],[-4.974599,51.687934],[-4.941029,51.700141],[-4.892649,51.706366],[-4.868276,51.716783],[-4.858062,51.718329],[-4.844838,51.713813],[-4.844838,51.720038],[-4.873402,51.737738],[-4.879018,51.76203],[-4.862538,51.782375],[-4.82433,51.788275],[-4.82433,51.795722],[-4.836008,51.790717],[-4.86498,51.783271],[-4.921295,51.780015],[-4.933583,51.775295],[-4.917226,51.775336],[-4.905181,51.771186],[-4.900543,51.762112],[-4.906239,51.747301],[-4.892079,51.739407],[-4.89566,51.728176],[-4.910553,51.718207],[-4.988189,51.706855],[-5.009918,51.706366],[-5.149241,51.718085],[-5.1669,51.713813],[-5.156972,51.697577],[-5.168609,51.68891],[-5.182851,51.689276],[-5.180653,51.700141],[-5.180653,51.706366],[-5.230133,51.730048],[-5.249501,51.73371],[-5.228139,51.733954],[-5.213938,51.735745],[-5.20287,51.74079],[-5.191151,51.751044],[-5.176829,51.75967],[-5.143219,51.763861],[-5.125966,51.7685],[-5.11026,51.77851],[-5.107086,51.788072],[-5.112294,51.813178],[-5.113393,51.828803],[-5.117502,51.843695],[-5.125885,51.856024],[-5.139638,51.864],[-5.146474,51.857164],[-5.164377,51.866767],[-5.203765,51.870185],[-5.221588,51.877672],[-5.235829,51.871039],[-5.291412,51.864],[-5.310943,51.864],[-5.30427,51.867621],[-5.297353,51.870185],[-5.297353,51.877672],[-5.300689,51.882025],[-5.302561,51.88524],[-5.30016,51.888332],[-5.290517,51.891995],[-5.290517,51.898139],[-5.298329,51.910956],[-5.28893,51.916938],[-5.252838,51.918647],[-5.234202,51.923041],[-5.204172,51.942288],[-5.191151,51.946601],[-5.16039,51.949449],[-5.119537,51.95893],[-5.088043,51.97602],[-5.085032,52.001858],[-5.07079,52.001858],[-5.07079,52.008043],[-5.082753,52.014472],[-5.081207,52.021186],[-5.070221,52.026353],[-5.0537,52.02851],[-5.026601,52.027411],[-5.015045,52.025336],[-4.961741,52.007514],[-4.942535,52.007473],[-4.913686,52.014838],[-4.920522,52.02851],[-4.901601,52.026435],[-4.863189,52.016995],[-4.84142,52.014838],[-4.832265,52.018988],[-4.833852,52.028754],[-4.838287,52.040107],[-4.838002,52.049018],[-4.830393,52.052924],[-4.796986,52.056464],[-4.777577,52.064887],[-4.763173,52.075873],[-4.738678,52.100816],[-4.720286,52.113349],[-4.706532,52.113471],[-4.693763,52.107267],[-4.693791,52.107207],[-4.694902,52.104779],[-4.695083,52.104133],[-4.697718,52.095839],[-4.698571,52.080749],[-4.696814,52.068347],[-4.684386,52.065711],[-4.6702,52.065711],[-4.653354,52.065711],[-4.64183,52.063928],[-4.632993,52.055944],[-4.622348,52.050622],[-4.606406,52.046177],[-4.582454,52.043542],[-4.559406,52.038219],[-4.558683,52.037677],[-4.541681,52.024938],[-4.53548,52.009849],[-4.523982,51.993881],[-4.506205,51.977913],[-4.494681,51.969076],[-4.494681,51.960188],[-4.517729,51.948664],[-4.597517,51.919441],[-4.63121,51.910579],[-4.654232,51.913214],[-4.672862,51.912336],[-4.693274,51.908796],[-4.732264,51.883965],[-4.7411,51.874198],[-4.740222,51.868927],[-4.725158,51.860039],[-4.723375,51.853838],[-4.72428,51.84588],[-4.734873,51.841435],[-4.758825,51.838774],[-4.767714,51.83079],[-4.766835,51.824589],[-4.761513,51.821928],[-4.750867,51.820145],[-4.737586,51.820145],[-4.72428,51.820145],[-4.715417,51.821928],[-4.702111,51.825467],[-4.690587,51.826346],[-4.676402,51.826346],[-4.663121,51.825467],[-4.649814,51.817509],[-4.640047,51.805985],[-4.637412,51.793531],[-4.637412,51.778494],[-4.637412,51.75989],[-4.637412,51.743044],[-4.638988,51.734259],[-4.639261,51.733164]]]}},{"type":"Feature","properties":{"id":"GB-POW","country":"GB","name_en":"Powys"},"geometry":{"type":"Polygon","coordinates":[[[-3.14043,52.796341],[-3.14032,52.796133],[-3.130114,52.789415],[-3.113061,52.784583],[-3.08221,52.783033],[-3.077559,52.781792],[-3.074717,52.77988],[-3.067715,52.771638],[-3.062961,52.768434],[-3.057509,52.766212],[-3.029552,52.763886],[-3.005781,52.759055],[-2.999941,52.756988],[-2.998546,52.756109],[-2.988211,52.744973],[-2.983353,52.741536],[-2.978599,52.739004],[-2.961494,52.733733],[-2.959944,52.731098],[-2.961107,52.728049],[-2.967411,52.719858],[-2.97369,52.716396],[-2.979839,52.7142],[-2.99927,52.713244],[-3.005522,52.712262],[-3.00976,52.710789],[-3.013274,52.70836],[-3.016245,52.704898],[-3.021129,52.69557],[-3.027898,52.686914],[-3.029087,52.683039],[-3.030275,52.67645],[-3.029216,52.663944],[-3.032446,52.654617],[-3.035753,52.649397],[-3.040223,52.64671],[-3.059266,52.639837],[-3.062935,52.637512],[-3.065725,52.63361],[-3.067586,52.62821],[-3.070454,52.614567],[-3.072056,52.609994],[-3.074175,52.606687],[-3.080608,52.601054],[-3.088928,52.59661],[-3.116317,52.586326],[-3.120037,52.584052],[-3.122983,52.580978],[-3.124662,52.576689],[-3.124972,52.571056],[-3.124042,52.566534],[-3.120037,52.559661],[-3.112183,52.551109],[-3.109883,52.54806],[-3.108359,52.544804],[-3.108359,52.540928],[-3.109883,52.537595],[-3.115387,52.531782],[-3.115128,52.528991],[-3.110684,52.52695],[-3.099909,52.526666],[-3.092546,52.527493],[-3.086551,52.529069],[-3.08283,52.531446],[-3.079678,52.53434],[-3.074614,52.540825],[-3.071126,52.543331],[-3.067198,52.54545],[-3.039164,52.554984],[-3.020043,52.566663],[-3.015238,52.568188],[-3.010147,52.568317],[-3.005316,52.567335],[-2.980459,52.549817],[-2.976997,52.545631],[-2.975498,52.541833],[-2.976377,52.53806],[-2.981338,52.533254],[-2.988857,52.527751],[-3.014876,52.513256],[-3.024178,52.499665],[-3.030844,52.4969],[-3.107738,52.493903],[-3.117996,52.491345],[-3.144196,52.480054],[-3.190317,52.46884],[-3.194632,52.466928],[-3.201454,52.462122],[-3.213107,52.450081],[-3.214657,52.446154],[-3.215122,52.442226],[-3.21507,52.438402],[-3.21321,52.430522],[-3.211505,52.426155],[-3.208766,52.421298],[-3.205975,52.417939],[-3.202668,52.414993],[-3.199309,52.412513],[-3.165099,52.398637],[-3.139519,52.383703],[-3.103656,52.368071],[-3.077559,52.35032],[-3.070557,52.346573],[-2.957414,52.341183],[-2.956662,52.341147],[-2.954983,52.331587],[-2.957334,52.327944],[-2.96369,52.322596],[-2.984025,52.314276],[-2.991079,52.309651],[-2.996169,52.302984],[-2.999476,52.296215],[-2.99927,52.294458],[-2.996531,52.283942],[-2.993275,52.279627],[-2.988676,52.276293],[-2.963613,52.27172],[-2.958962,52.270015],[-2.95643,52.267328],[-2.956378,52.264098],[-2.962166,52.259757],[-2.968367,52.257845],[-3.002525,52.257018],[-3.011904,52.254848],[-3.016064,52.253039],[-3.019036,52.251256],[-3.025883,52.244435],[-3.029087,52.242032],[-3.033169,52.239862],[-3.046812,52.235056],[-3.050998,52.232834],[-3.05415,52.230172],[-3.056682,52.226658],[-3.061669,52.215109],[-3.06694,52.209166],[-3.107661,52.172708],[-3.108927,52.168471],[-3.107428,52.163923],[-3.099418,52.157541],[-3.093166,52.156068],[-3.087404,52.156172],[-3.082469,52.156921],[-3.077663,52.15581],[-3.075699,52.152787],[-3.078231,52.147283],[-3.082133,52.143588],[-3.087016,52.140772],[-3.113371,52.135217],[-3.122208,52.132013],[-3.124662,52.128964],[-3.123913,52.125088],[-3.116575,52.11943],[-3.101434,52.113151],[-3.100814,52.111962],[-3.101744,52.110386],[-3.106808,52.107932],[-3.10996,52.105115],[-3.113216,52.101575],[-3.117479,52.092997],[-3.123758,52.075686],[-3.123086,52.073257],[-3.121717,52.070802],[-3.114301,52.068735],[-3.105051,52.063748],[-3.087559,52.051734],[-3.084691,52.047935],[-3.082624,52.043259],[-3.082133,52.035042],[-3.083425,52.029849],[-3.0819,52.022304],[-3.079885,52.0168],[-3.05125,51.983503],[-3.051462,51.983184],[-3.061384,51.968275],[-3.059162,51.953005],[-3.063916,51.938277],[-3.034977,51.886032],[-3.064459,51.867429],[-3.067017,51.853838],[-3.088669,51.829111],[-3.115877,51.825777],[-3.135875,51.814925],[-3.156856,51.81074],[-3.16223,51.809654],[-3.206698,51.808569],[-3.274187,51.814667],[-3.29062,51.806606],[-3.292843,51.798802],[-3.288993,51.793273],[-3.333848,51.789914],[-3.3478,51.788829],[-3.356973,51.805469],[-3.38586,51.811618],[-3.405006,51.827715],[-3.414489,51.825493],[-3.420587,51.815236],[-3.426426,51.81384],[-3.435159,51.816631],[-3.450843,51.821592],[-3.464486,51.821075],[-3.471152,51.816321],[-3.472522,51.795753],[-3.478645,51.790224],[-3.526394,51.780509],[-3.522234,51.77467],[-3.525309,51.770794],[-3.546961,51.773584],[-3.55864,51.761905],[-3.583729,51.75126],[-3.591687,51.762448],[-3.648351,51.779372],[-3.695583,51.768003],[-3.723075,51.77299],[-3.7331,51.760769],[-3.763382,51.75772],[-3.799995,51.785263],[-3.766922,51.817716],[-3.752272,51.847172],[-3.721679,51.865775],[-3.711292,51.881795],[-3.716693,51.903292],[-3.709897,51.932334],[-3.701655,51.936417],[-3.69057,51.940499],[-3.686695,51.948251],[-3.697805,51.971324],[-3.695583,51.988817],[-3.67362,52.012691],[-3.643648,52.031346],[-3.641994,52.041888],[-3.658918,52.054911],[-3.660856,52.069664],[-3.667523,52.07522],[-3.710569,52.086588],[-3.713618,52.090206],[-3.703903,52.108293],[-3.706693,52.114649],[-3.741161,52.121625],[-3.755786,52.124622],[-3.746691,52.143846],[-3.75253,52.178521],[-3.743099,52.202705],[-3.741575,52.23614],[-3.733772,52.242083],[-3.739482,52.246889],[-3.734754,52.257999],[-3.706125,52.267714],[-3.701138,52.273838],[-3.717003,52.286602],[-3.715866,52.298565],[-3.731679,52.311045],[-3.731162,52.318822],[-3.703644,52.334687],[-3.662252,52.33939],[-3.651968,52.347451],[-3.670313,52.363264],[-3.69057,52.364091],[-3.694472,52.382436],[-3.720052,52.420211],[-3.76085,52.43742],[-3.757801,52.458555],[-3.736976,52.467185],[-3.724728,52.498837],[-3.745321,52.501059],[-3.76669,52.486616],[-3.813121,52.481345],[-3.833946,52.504134],[-3.829192,52.532711],[-3.839476,52.548576],[-3.86782,52.556069],[-3.927455,52.553175],[-3.911952,52.568006],[-3.875572,52.576068],[-3.837822,52.599115],[-3.827823,52.626607],[-3.833636,52.640767],[-3.796972,52.674666],[-3.763072,52.669395],[-3.726718,52.677715],[-3.698606,52.676062],[-3.667755,52.688826],[-3.601454,52.695492],[-3.571689,52.730528],[-3.580293,52.76355],[-3.597217,52.784375],[-3.587243,52.811609],[-3.577528,52.819102],[-3.527247,52.833261],[-3.490841,52.834656],[-3.476966,52.84494],[-3.470015,52.861942],[-3.436167,52.856619],[-3.390744,52.867368],[-3.378651,52.87021],[-3.374466,52.867988],[-3.377514,52.855482],[-3.371985,52.849953],[-3.299741,52.826905],[-3.288915,52.81967],[-3.265299,52.797449],[-3.268374,52.785512],[-3.261708,52.7805],[-3.2422,52.779104],[-3.190885,52.793264],[-3.140888,52.796313],[-3.14043,52.796341]]]}},{"type":"Feature","properties":{"id":"GB-RCT","country":"GB","name_en":"Rhondda Cynon Taf"},"geometry":{"type":"Polygon","coordinates":[[[-3.301731,51.648579],[-3.257134,51.578971],[-3.227524,51.545123],[-3.235301,51.542436],[-3.276125,51.516339],[-3.284471,51.503006],[-3.29137,51.500423],[-3.293359,51.499673],[-3.322246,51.513807],[-3.326975,51.51298],[-3.330592,51.500216],[-3.372243,51.506882],[-3.392242,51.496056],[-3.401957,51.503265],[-3.427821,51.506882],[-3.442523,51.515771],[-3.454461,51.515512],[-3.463917,51.506882],[-3.475235,51.510396],[-3.469059,51.542746],[-3.461825,51.589823],[-3.490815,51.617005],[-3.525231,51.633309],[-3.549184,51.641758],[-3.545566,51.64243],[-3.548357,51.653282],[-3.569467,51.672454],[-3.572231,51.690747],[-3.567787,51.721339],[-3.571689,51.73214],[-3.59223,51.742423],[-3.583729,51.75126],[-3.55864,51.761905],[-3.546961,51.773584],[-3.525309,51.770794],[-3.522234,51.77467],[-3.526394,51.780509],[-3.478645,51.790224],[-3.472522,51.795753],[-3.471152,51.816321],[-3.464486,51.821075],[-3.450843,51.821592],[-3.435159,51.816631],[-3.412913,51.765574],[-3.438286,51.754671],[-3.378496,51.702167],[-3.302403,51.649613],[-3.301731,51.648579]]]}},{"type":"Feature","properties":{"id":"GB-SWA","country":"GB","name_en":"Swansea"},"geometry":{"type":"Polygon","coordinates":[[[-3.88679,51.621405],[-3.962392,51.615627],[-3.976633,51.611884],[-3.98998,51.606513],[-3.998769,51.600287],[-3.999908,51.590888],[-3.992258,51.581122],[-3.981801,51.571601],[-3.974599,51.562974],[-4.016184,51.562974],[-4.016103,51.56037],[-4.020823,51.555854],[-4.026519,51.554023],[-4.029205,51.559272],[-4.031972,51.563137],[-4.038564,51.56623],[-4.046457,51.568427],[-4.053131,51.569241],[-4.056304,51.567043],[-4.065582,51.557563],[-4.070221,51.555569],[-4.076812,51.556952],[-4.08727,51.561916],[-4.112131,51.565619],[-4.121653,51.565985],[-4.132192,51.562974],[-4.14273,51.556952],[-4.156809,51.546291],[-4.166412,51.542548],[-4.176503,51.544257],[-4.187734,51.548774],[-4.196767,51.549384],[-4.200551,51.538764],[-4.213368,51.53913],[-4.27245,51.554755],[-4.289906,51.555569],[-4.293324,51.559149],[-4.295155,51.561957],[-4.297353,51.569241],[-4.27831,51.578192],[-4.280832,51.588813],[-4.289703,51.601549],[-4.289906,51.617011],[-4.255767,51.623847],[-4.252024,51.627102],[-4.241282,51.63935],[-4.234731,51.644965],[-4.228505,51.637437],[-4.234731,51.637437],[-4.234731,51.631293],[-4.227854,51.628119],[-4.221018,51.623847],[-4.190094,51.630276],[-4.139027,51.63231],[-4.091298,51.639879],[-4.070221,51.662299],[-4.069814,51.668931],[-4.070383,51.674302],[-4.070546,51.675971],[-4.041996,51.702167],[-4.035898,51.721598],[-4.023082,51.73214],[-4.023082,51.744077],[-4.00975,51.754955],[-3.992257,51.756893],[-3.978098,51.766608],[-3.935026,51.761337],[-3.933139,51.762215],[-3.916861,51.751053],[-3.866141,51.714828],[-3.829916,51.687646],[-3.87521,51.636952],[-3.88679,51.621405]]]}},{"type":"Feature","properties":{"id":"GB-TOF","country":"GB","name_en":"Torfaen"},"geometry":{"type":"Polygon","coordinates":[[[-3.031877,51.605739],[-3.061436,51.617005],[-3.075957,51.629691],[-3.074174,51.640569],[-3.070556,51.655039],[-3.068696,51.66956],[-3.070556,51.680412],[-3.088669,51.687646],[-3.10859,51.691264],[-3.11474,51.700772],[-3.106756,51.703976],[-3.106756,51.725706],[-3.106756,51.747436],[-3.110399,51.765574],[-3.126677,51.78547],[-3.128486,51.794539],[-3.104973,51.794539],[-3.081408,51.794539],[-3.048801,51.783661],[-3.03428,51.763766],[-3.032471,51.740201],[-3.021619,51.727515],[-3.005341,51.722063],[-2.99082,51.722063],[-2.976324,51.709402],[-2.976324,51.694907],[-2.976324,51.667751],[-2.970898,51.642378],[-2.961312,51.627443],[-2.970898,51.626074],[-3.031877,51.605739]]]}},{"type":"Feature","properties":{"id":"GB-VGL","country":"GB","name_en":"Vale of Glamorgan"},"geometry":{"type":"Polygon","coordinates":[[[-3.172719,51.453111],[-3.160064,51.43183],[-3.167144,51.410468],[-3.184804,51.39761],[-3.20401,51.401597],[-3.218861,51.402777],[-3.289418,51.384223],[-3.539174,51.398505],[-3.557444,51.405097],[-3.575311,51.420441],[-3.574298,51.420738],[-3.572903,51.421099],[-3.525593,51.435775],[-3.54337,51.447997],[-3.535334,51.452441],[-3.517273,51.449935],[-3.52394,51.467453],[-3.519211,51.478822],[-3.523087,51.49355],[-3.479188,51.511636],[-3.475235,51.510396],[-3.463917,51.506882],[-3.454461,51.515512],[-3.442523,51.515771],[-3.427821,51.506882],[-3.401957,51.503265],[-3.392242,51.496056],[-3.372243,51.506882],[-3.330592,51.500216],[-3.326975,51.51298],[-3.322246,51.513807],[-3.293359,51.499673],[-3.29137,51.500423],[-3.284807,51.493343],[-3.269562,51.477323],[-3.260752,51.469313],[-3.250339,51.46611],[-3.239952,51.46611],[-3.227937,51.466936],[-3.211142,51.467711],[-3.200729,51.467711],[-3.190291,51.465309],[-3.179904,51.458927],[-3.179749,51.458746],[-3.172719,51.453111]]]}},{"type":"Feature","properties":{"id":"GB-WRX","country":"GB","name_en":"Wrexham"},"geometry":{"type":"Polygon","coordinates":[[[-2.956797,53.144604],[-2.956662,53.143812],[-2.951469,53.138411],[-2.902635,53.106708],[-2.897364,53.102238],[-2.870957,53.066271],[-2.864058,53.053171],[-2.857495,53.035549],[-2.857004,53.03188],[-2.85734,53.027901],[-2.855118,53.022863],[-2.850545,53.017178],[-2.825766,52.99997],[-2.81835,52.98948],[-2.813441,52.986844],[-2.806181,52.984958],[-2.768638,52.981548],[-2.727731,52.96654],[-2.727297,52.966381],[-2.725023,52.958345],[-2.718822,52.948914],[-2.717116,52.945555],[-2.716238,52.941783],[-2.716755,52.925608],[-2.717685,52.921603],[-2.721509,52.918166],[-2.727813,52.916151],[-2.741197,52.914342],[-2.751171,52.9115],[-2.771532,52.902198],[-2.77949,52.900571],[-2.788998,52.902095],[-2.795044,52.90393],[-2.847961,52.937287],[-2.853154,52.939095],[-2.865066,52.941137],[-2.877985,52.941421],[-2.917156,52.934109],[-2.925941,52.93354],[-2.932969,52.934264],[-2.937542,52.935866],[-2.941599,52.938165],[-2.958368,52.95049],[-2.962967,52.951963],[-2.974775,52.953539],[-2.99281,52.95297],[-3.00392,52.949844],[-3.054718,52.926409],[-3.058594,52.925272],[-3.063607,52.924678],[-3.067586,52.923515],[-3.08035,52.917624],[-3.086189,52.913567],[-3.09146,52.908115],[-3.099703,52.89747],[-3.106343,52.893103],[-3.112906,52.890416],[-3.123474,52.887884],[-3.126859,52.884603],[-3.128357,52.880003],[-3.126264,52.871761],[-3.124223,52.866929],[-3.121691,52.862588],[-3.120864,52.859074],[-3.121898,52.854914],[-3.127065,52.849747],[-3.140682,52.841866],[-3.144299,52.839179],[-3.150268,52.833314],[-3.152232,52.829826],[-3.152619,52.823883],[-3.152335,52.818973],[-3.14043,52.796341],[-3.140888,52.796313],[-3.190885,52.793264],[-3.2422,52.779104],[-3.261708,52.7805],[-3.268374,52.785512],[-3.265299,52.797449],[-3.288915,52.81967],[-3.299741,52.826905],[-3.371985,52.849953],[-3.377514,52.855482],[-3.374466,52.867988],[-3.378651,52.87021],[-3.390744,52.867368],[-3.373096,52.88902],[-3.342168,52.913515],[-3.311265,52.932842],[-3.282921,52.934134],[-3.235249,52.9354],[-3.200471,52.937984],[-3.148924,52.950877],[-3.094818,52.963744],[-3.110321,52.976612],[-3.128356,52.985655],[-3.141198,52.997231],[-3.141198,53.021725],[-3.132181,53.059087],[-3.12275,53.066374],[-3.103836,53.080998],[-3.053607,53.106733],[-2.99175,53.138927],[-2.957385,53.144508],[-2.956797,53.144604]]]}}]}
