{"type":"FeatureCollection","features":[{"type":"Feature","properties":{"id":"IN-JK","country":"IN","name_en":"Jammu and Kashmir"},"geometry":{"type":"Polygon","coordinates":[[[74.724978,32.46081],[74.689322,32.471352],[74.662553,32.498379],[74.632581,32.568168],[74.629584,32.588089],[74.636922,32.606254],[74.647981,32.623617],[74.656042,32.64067],[74.657282,32.660592],[74.650151,32.701235],[74.649738,32.723146],[74.656972,32.745341],[74.682294,32.787328],[74.689115,32.808825],[74.685291,32.831227],[74.671752,32.840581],[74.653562,32.837428],[74.635888,32.82208],[74.626276,32.80265],[74.622039,32.785416],[74.614081,32.770404],[74.59341,32.757872],[74.573773,32.75255],[74.52096,32.745289],[74.500909,32.746013],[74.484476,32.753532],[74.455331,32.778595],[74.438691,32.785984],[74.418951,32.784615],[74.386394,32.767768],[74.367688,32.763531],[74.34619,32.76689],[74.329344,32.776424],[74.316321,32.791075],[74.306503,32.809911],[74.315939,32.82175],[74.316989,32.823067],[74.322936,32.830529],[74.333788,32.849262],[74.336682,32.870139],[74.324486,32.921402],[74.322006,32.972045],[74.311257,32.994292],[74.283972,33.008813],[74.190851,33.022094],[74.153851,33.040181],[74.098453,33.104828],[74.065794,33.132604],[74.029414,33.154153],[74.002335,33.177692],[73.988486,33.20862],[73.991793,33.252571],[74.001715,33.270167],[74.017838,33.279494],[74.055355,33.292026],[74.071995,33.302284],[74.085121,33.314324],[74.095973,33.328484],[74.105481,33.345201],[74.136281,33.418013],[74.157778,33.494236],[74.141552,33.549374],[74.088118,33.58529],[74.024246,33.614254],[73.976704,33.648387],[73.968332,33.662081],[73.963061,33.676757],[73.960787,33.692286],[73.963061,33.72156],[73.966162,33.734531],[73.970709,33.747063],[73.976704,33.758922],[74.011327,33.81047],[74.034581,33.828608],[74.142275,33.84424],[74.177518,33.857547],[74.212555,33.878424],[74.23953,33.901007],[74.262474,33.929946],[74.272293,33.96214],[74.259684,33.994386],[74.228368,34.012886],[74.192091,34.011853],[74.154264,34.004101],[74.118401,34.002525],[74.065277,34.018338],[74.04502,34.019423],[73.976704,34.004592],[73.945801,34.009786],[73.916242,34.02795],[73.893711,34.054305],[73.88441,34.0842],[73.893298,34.11474],[73.916862,34.135256],[73.976704,34.161559],[73.995411,34.176442],[73.998304,34.196803],[73.990553,34.218507],[73.976704,34.23755],[73.95438,34.287185],[73.93774,34.304212],[73.907457,34.306796],[73.879035,34.30429],[73.8533,34.307416],[73.829116,34.315348],[73.804208,34.327492],[73.78271,34.346819],[73.774856,34.370952],[73.779817,34.396067],[73.79625,34.418546],[73.806792,34.425161],[73.831596,34.4364],[73.840381,34.44441],[73.845549,34.456477],[73.846996,34.494175],[73.846996,34.49433],[73.863119,34.517067],[73.910971,34.544973],[73.925957,34.564971],[73.925441,34.593393],[73.917483,34.619283],[73.919343,34.642538],[73.948592,34.662743],[73.962234,34.668169],[74.120881,34.690855],[74.146823,34.701862],[74.221753,34.747751],[74.285832,34.768887],[74.348877,34.773434],[74.412129,34.764494],[74.66493,34.688323],[75.017777,34.629722],[75.111001,34.633649],[75.17632,34.64538],[75.212907,34.644967],[75.224544,34.638622],[75.236885,34.631892],[75.251355,34.613082],[75.267478,34.598303],[75.306958,34.574015],[75.348093,34.55722],[75.344128,34.469013],[75.374549,34.370981],[75.469487,34.280052],[75.584564,34.210116],[75.6634,34.19923],[75.69129,34.163725],[75.699541,34.117676],[75.741656,34.066434],[75.784892,34.0311],[75.836681,33.994557],[75.879592,33.963696],[75.977853,33.971267],[76.024367,33.982089],[76.05115,33.952652],[76.073332,33.92202],[76.166381,33.873232],[76.209792,33.794304],[76.235838,33.728794],[76.232681,33.649865],[76.246099,33.574094],[76.305295,33.551994],[76.385747,33.53866],[76.488031,33.502231],[76.577838,33.427705],[76.646566,33.352107],[76.688729,33.270763],[76.739843,33.197406],[76.625949,33.189292],[76.611893,33.193917],[76.558562,33.23146],[76.542439,33.232856],[76.512157,33.217223],[76.396712,33.197716],[76.353304,33.180094],[76.294289,33.147899],[76.28106,33.136453],[76.274755,33.12679],[76.274239,33.116609],[76.270828,33.103535],[76.261733,33.086456],[76.237032,33.063486],[76.215948,33.051084],[76.194657,33.043281],[76.152799,33.032299],[76.100813,33.01305],[76.081692,33.000803],[76.075491,32.993284],[76.05141,32.969461],[75.972448,32.911041],[75.954672,32.901377],[75.943613,32.898121],[75.935965,32.903237],[75.919842,32.920265],[75.911677,32.925898],[75.903099,32.928921],[75.893797,32.930807],[75.869612,32.940005],[75.858554,32.94215],[75.846048,32.942227],[75.826411,32.938067],[75.814629,32.931789],[75.806877,32.923675],[75.803363,32.911997],[75.804913,32.898612],[75.811735,32.884298],[75.82424,32.870449],[75.858554,32.839546],[75.869612,32.827402],[75.876537,32.81761],[75.880878,32.80885],[75.886665,32.79973],[75.903305,32.781617],[75.9093,32.772703],[75.9124,32.761902],[75.913227,32.755675],[75.903409,32.736374],[75.901445,32.702862],[75.904856,32.691312],[75.924699,32.651961],[75.926043,32.641186],[75.925733,32.630567],[75.922632,32.617338],[75.920462,32.61447],[75.912917,32.610542],[75.895554,32.596848],[75.865892,32.560571],[75.867132,32.547471],[75.85504,32.526284],[75.847391,32.516749],[75.839123,32.506569],[75.828581,32.497887],[75.818039,32.494787],[75.797679,32.481118],[75.743005,32.464375],[75.736804,32.4559],[75.732566,32.437168],[75.729362,32.429623],[75.723161,32.424223],[75.705695,32.412802],[75.698253,32.406033],[75.682647,32.399806],[75.611954,32.395465],[75.5733,32.374639],[75.537953,32.345184],[75.5024,32.300587],[75.480695,32.30746],[75.474184,32.312137],[75.464779,32.317743],[75.451447,32.324022],[75.444729,32.330301],[75.442041,32.336192],[75.444419,32.353193],[75.441938,32.359756],[75.43677,32.360221],[75.422714,32.353994],[75.414136,32.34601],[75.390365,32.335494],[75.327113,32.339964],[75.298403,32.332427],[75.230167,32.380195],[75.196164,32.3973],[75.125988,32.411744],[75.092191,32.429339],[75.054881,32.455539],[75.023668,32.466262],[74.990699,32.463368],[74.948427,32.44877],[74.906983,32.445178],[74.83815,32.474866],[74.799393,32.47267],[74.763529,32.462671],[74.724978,32.46081]]]}}]}
