{"type":"FeatureCollection","features":[{"type":"Feature","properties":{"id":"ES-BI","country":"ES","name_en":"Biscay"},"geometry":{"type":"Polygon","coordinates":[[[-3.150602,43.360155],[-3.1315,43.35578],[-3.112375,43.354071],[-3.089508,43.366889],[-3.057851,43.352362],[-3.008168,43.320909],[-3.008168,43.328437],[-3.020009,43.352566],[-3.023427,43.364936],[-3.029286,43.372138],[-3.029286,43.376166],[-3.024322,43.380927],[-3.010976,43.384141],[-2.99942,43.394355],[-2.955922,43.413845],[-2.939931,43.4171],[-2.939931,43.424587],[-2.946685,43.424587],[-2.946685,43.430772],[-2.930084,43.437934],[-2.905263,43.439887],[-2.854237,43.438259],[-2.806996,43.441677],[-2.785959,43.447862],[-2.768625,43.452501],[-2.755849,43.450263],[-2.734934,43.438788],[-2.715199,43.424506],[-2.706532,43.413682],[-2.694936,43.388617],[-2.691029,43.36754],[-2.687001,43.371446],[-2.67927,43.389838],[-2.678456,43.394639],[-2.678782,43.40058],[-2.677805,43.406195],[-2.672963,43.410346],[-2.661204,43.411933],[-2.649322,43.409532],[-2.638092,43.405951],[-2.606923,43.401882],[-2.548899,43.383612],[-2.506012,43.377143],[-2.48351,43.370632],[-2.464426,43.349229],[-2.406784,43.329306],[-2.440167,43.288126],[-2.418194,43.267538],[-2.45936,43.227306],[-2.464688,43.224768],[-2.468094,43.224768],[-2.47696,43.227592],[-2.490528,43.222351],[-2.488946,43.183657],[-2.495713,43.168397],[-2.498954,43.167475],[-2.501778,43.167826],[-2.504327,43.167508],[-2.506733,43.164574],[-2.507051,43.161531],[-2.498262,43.118684],[-2.501723,43.103227],[-2.514006,43.093229],[-2.546547,43.088043],[-2.600237,43.081463],[-2.622452,43.087659],[-2.637437,43.085473],[-2.65685,43.075761],[-2.658663,43.072893],[-2.657256,43.069751],[-2.63524,43.047141],[-2.629802,43.035474],[-2.63313,43.024872],[-2.636646,43.02284],[-2.640524,43.022719],[-2.667946,43.027234],[-2.686898,43.021477],[-2.697906,43.02062],[-2.738368,43.033156],[-2.781863,43.026707],[-2.829258,43.037166],[-2.851198,43.046878],[-2.862679,43.048822],[-2.895385,43.047482],[-2.948273,43.083869],[-2.956788,43.096019],[-2.954019,43.10928],[-2.936738,43.135394],[-2.935914,43.146864],[-2.950372,43.173484],[-2.970477,43.193259],[-2.984308,43.201818],[-2.999327,43.204982],[-3.015378,43.19984],[-3.021838,43.191677],[-3.025265,43.170408],[-3.031473,43.160883],[-3.043261,43.154708],[-3.104081,43.145216],[-3.116738,43.149754],[-3.141844,43.165117],[-3.142154,43.174781],[-3.145926,43.178373],[-3.151508,43.181447],[-3.173573,43.183979],[-3.207499,43.184393],[-3.229746,43.186977],[-3.246592,43.198087],[-3.252483,43.200438],[-3.25946,43.201188],[-3.268322,43.199947],[-3.278477,43.197312],[-3.362425,43.157934],[-3.423791,43.140623],[-3.425651,43.153129],[-3.433118,43.17398],[-3.437769,43.181137],[-3.440947,43.188062],[-3.441464,43.195142],[-3.440043,43.202144],[-3.440327,43.209869],[-3.441722,43.217311],[-3.44503,43.224235],[-3.441645,43.233305],[-3.430896,43.243459],[-3.347155,43.287591],[-3.335812,43.29529],[-3.322944,43.300096],[-3.261036,43.296763],[-3.235198,43.299089],[-3.212899,43.293198],[-3.203546,43.292293],[-3.160241,43.307796],[-3.15391,43.315031],[-3.149544,43.324436],[-3.1505,43.353685],[-3.150602,43.360155]],[[-3.299199,43.216869],[-3.26736,43.227394],[-3.268909,43.237589],[-3.286147,43.256365],[-3.304197,43.260683],[-3.304241,43.222154],[-3.299199,43.216869]]]}},{"type":"Feature","properties":{"id":"ES-SS","country":"ES","name_en":"Gipuzkoa"},"geometry":{"type":"Polygon","coordinates":[[[-1.794075,43.386015],[-1.796449,43.374382],[-1.797172,43.353324],[-1.796914,43.341128],[-1.768234,43.330922],[-1.75578,43.318546],[-1.752421,43.299089],[-1.74973,43.294793],[-1.749939,43.294748],[-1.773452,43.289709],[-1.781927,43.284464],[-1.791306,43.27741],[-1.805543,43.256998],[-1.821072,43.238601],[-1.833681,43.229506],[-1.847401,43.223615],[-1.857271,43.222866],[-1.864118,43.225656],[-1.872697,43.227698],[-1.878097,43.224649],[-1.880009,43.219481],[-1.879802,43.214133],[-1.883704,43.211962],[-1.889259,43.211626],[-1.902411,43.21576],[-1.908534,43.218344],[-1.910989,43.213512],[-1.918663,43.192248],[-1.919283,43.184548],[-1.917578,43.169174],[-1.916079,43.16212],[-1.91241,43.155712],[-1.911092,43.146281],[-1.912488,43.135145],[-1.926724,43.114371],[-1.937912,43.105586],[-1.950754,43.098093],[-1.964009,43.093287],[-2.0146,43.066958],[-2.028579,43.049026],[-2.036563,43.036443],[-2.040568,43.027555],[-2.041808,43.019545],[-2.039482,43.012259],[-2.039586,43.0043],[-2.04266,42.994456],[-2.049404,42.988229],[-2.057285,42.983837],[-2.085216,42.979651],[-2.09475,42.975465],[-2.113586,42.956164],[-2.122759,42.949627],[-2.132913,42.94694],[-2.143791,42.94588],[-2.154488,42.945958],[-2.174099,42.944046],[-2.182884,42.945906],[-2.200816,42.951642],[-2.214149,42.949627],[-2.22544,42.94141],[-2.231693,42.935157],[-2.235801,42.928698],[-2.237506,42.922962],[-2.252958,42.900069],[-2.281194,42.90099],[-2.290126,42.905978],[-2.308408,42.928599],[-2.354704,42.950099],[-2.503129,42.960624],[-2.529189,42.969138],[-2.535187,42.973379],[-2.53778,42.972797],[-2.549393,42.96459],[-2.55482,42.962821],[-2.559017,42.962832],[-2.602819,42.982355],[-2.595623,43.003767],[-2.588921,43.010117],[-2.541307,43.025762],[-2.53366,43.034452],[-2.532232,43.047262],[-2.546547,43.088043],[-2.514006,43.093229],[-2.501723,43.103227],[-2.498262,43.118684],[-2.507051,43.161531],[-2.506733,43.164574],[-2.504327,43.167508],[-2.501778,43.167826],[-2.498954,43.167475],[-2.495713,43.168397],[-2.488946,43.183657],[-2.490528,43.222351],[-2.47696,43.227592],[-2.468094,43.224768],[-2.464688,43.224768],[-2.45936,43.227306],[-2.418194,43.267538],[-2.440167,43.288126],[-2.406784,43.329306],[-2.367421,43.315701],[-2.327056,43.30683],[-2.284657,43.303494],[-2.241119,43.307237],[-2.207875,43.313992],[-2.196278,43.314765],[-2.190419,43.311591],[-2.183461,43.304511],[-2.174469,43.297431],[-2.162221,43.294257],[-2.159576,43.295356],[-2.156321,43.297675],[-2.151519,43.299994],[-2.144846,43.301093],[-2.140045,43.298896],[-2.137807,43.294216],[-2.134836,43.289578],[-2.127797,43.287421],[-2.098866,43.304145],[-2.086415,43.307237],[-2.065541,43.309597],[-1.994618,43.328437],[-1.971791,43.339219],[-1.960357,43.343085],[-1.945627,43.342637],[-1.933705,43.335639],[-1.926584,43.325873],[-1.918691,43.32099],[-1.904652,43.328437],[-1.910227,43.331366],[-1.918853,43.338568],[-1.925689,43.342637],[-1.884918,43.356024],[-1.847401,43.380927],[-1.811269,43.395087],[-1.794075,43.386015]]]}},{"type":"Feature","properties":{"id":"ES-VI","country":"ES","name_en":"Araba / Álava"},"geometry":{"type":"Polygon","coordinates":[[[-2.829925,42.613807],[-2.836023,42.621456],[-2.83747,42.634452],[-2.837315,42.644116],[-2.841707,42.65582],[-2.852456,42.665406],[-2.91793,42.705792],[-2.943355,42.714344],[-2.968676,42.737753],[-2.984128,42.743128],[-3.003196,42.75323],[-3.031437,42.772738],[-3.063503,42.785296],[-3.093992,42.774444],[-3.119571,42.768708],[-3.123861,42.770051],[-3.136315,42.769896],[-3.132232,42.777389],[-3.129002,42.786252],[-3.134454,42.793228],[-3.141586,42.797956],[-3.147735,42.803693],[-3.151869,42.810152],[-3.151197,42.817593],[-3.147683,42.825397],[-3.141301,42.834698],[-3.130217,42.845215],[-3.119313,42.858315],[-3.112544,42.868262],[-3.110425,42.879605],[-3.114223,42.886917],[-3.121225,42.890328],[-3.130217,42.888623],[-3.144221,42.873533],[-3.151482,42.868107],[-3.159078,42.864619],[-3.178121,42.865239],[-3.187552,42.863715],[-3.195691,42.86033],[-3.202719,42.855059],[-3.20737,42.848858],[-3.21091,42.842863],[-3.209979,42.837282],[-3.211917,42.832063],[-3.217395,42.829737],[-3.224294,42.83183],[-3.231451,42.835887],[-3.261811,42.864929],[-3.275919,42.874696],[-3.280078,42.880355],[-3.279097,42.887202],[-3.275453,42.89392],[-3.27026,42.900948],[-3.256023,42.912265],[-3.244422,42.924615],[-3.239978,42.931566],[-3.233182,42.938155],[-3.224113,42.943787],[-3.188327,42.946733],[-3.17595,42.945079],[-3.166054,42.942857],[-3.15745,42.939343],[-3.151197,42.934279],[-3.146495,42.921256],[-3.141043,42.916089],[-3.133059,42.91304],[-3.123912,42.910766],[-3.104146,42.908518],[-3.094405,42.906503],[-3.084742,42.905547],[-3.075285,42.905573],[-3.058981,42.908673],[-3.037897,42.908854],[-3.029189,42.910249],[-3.021696,42.914461],[-3.008958,42.923272],[-3.000871,42.923272],[-2.987461,42.926321],[-2.982267,42.929395],[-2.979063,42.933607],[-2.977125,42.939033],[-2.978521,42.944485],[-2.983378,42.950996],[-3.012291,42.958463],[-3.025443,42.965078],[-3.03428,42.972623],[-3.039628,42.978049],[-3.03937,42.987041],[-3.027019,42.986498],[-3.008596,42.988978],[-3.001646,42.989056],[-2.99932,42.989469],[-2.996995,42.990916],[-2.992913,42.994275],[-2.989709,43.000476],[-2.987409,43.008925],[-2.989502,43.014687],[-2.997124,43.020837],[-3.016089,43.02541],[-3.022885,43.031327],[-3.023583,43.037115],[-3.023608,43.043109],[-3.028621,43.047347],[-3.036734,43.049724],[-3.05526,43.043135],[-3.073528,43.013964],[-3.084948,43.010708],[-3.09208,43.012207],[-3.121613,43.013576],[-3.152231,43.019855],[-3.160473,43.022956],[-3.165124,43.026676],[-3.160938,43.033033],[-3.155125,43.039595],[-3.14851,43.050447],[-3.148149,43.074219],[-3.142748,43.09246],[-3.141844,43.104139],[-3.14758,43.111271],[-3.165098,43.116542],[-3.170835,43.122433],[-3.172566,43.131373],[-3.164814,43.146979],[-3.159543,43.154937],[-3.141844,43.165117],[-3.116738,43.149754],[-3.104081,43.145216],[-3.043261,43.154708],[-3.031473,43.160883],[-3.025265,43.170408],[-3.021838,43.191677],[-3.015378,43.19984],[-2.999327,43.204982],[-2.984308,43.201818],[-2.970477,43.193259],[-2.950372,43.173484],[-2.935914,43.146864],[-2.936738,43.135394],[-2.954019,43.10928],[-2.956788,43.096019],[-2.948273,43.083869],[-2.895385,43.047482],[-2.862679,43.048822],[-2.851198,43.046878],[-2.829258,43.037166],[-2.781863,43.026707],[-2.738368,43.033156],[-2.697906,43.02062],[-2.686898,43.021477],[-2.667946,43.027234],[-2.640524,43.022719],[-2.636646,43.02284],[-2.63313,43.024872],[-2.629802,43.035474],[-2.63524,43.047141],[-2.657256,43.069751],[-2.658663,43.072893],[-2.65685,43.075761],[-2.637437,43.085473],[-2.622452,43.087659],[-2.600237,43.081463],[-2.546547,43.088043],[-2.532232,43.047262],[-2.53366,43.034452],[-2.541307,43.025762],[-2.588921,43.010117],[-2.595623,43.003767],[-2.602819,42.982355],[-2.559017,42.962832],[-2.55482,42.962821],[-2.549393,42.96459],[-2.53778,42.972797],[-2.535187,42.973379],[-2.529189,42.969138],[-2.503129,42.960624],[-2.354704,42.950099],[-2.308408,42.928599],[-2.290126,42.905978],[-2.281194,42.90099],[-2.252958,42.900069],[-2.239134,42.858315],[-2.23978,42.849426],[-2.242312,42.839194],[-2.263422,42.813718],[-2.274429,42.79098],[-2.276522,42.776046],[-2.276987,42.759638],[-2.279416,42.750931],[-2.28492,42.744678],[-2.312076,42.737753],[-2.32037,42.728994],[-2.320706,42.72101],[-2.312024,42.682925],[-2.306856,42.680083],[-2.295927,42.677912],[-2.293162,42.672021],[-2.292697,42.663081],[-2.298459,42.657758],[-2.328431,42.642979],[-2.338301,42.639491],[-2.348094,42.638121],[-2.365871,42.637915],[-2.372589,42.641842],[-2.38096,42.652849],[-2.385301,42.65613],[-2.391037,42.658585],[-2.399512,42.659929],[-2.40871,42.660213],[-2.418012,42.657526],[-2.437856,42.645563],[-2.450672,42.634814],[-2.47018,42.622851],[-2.47868,42.619104],[-2.492736,42.609337],[-2.494545,42.601999],[-2.493279,42.595307],[-2.488085,42.589907],[-2.481368,42.585876],[-2.473358,42.584714],[-2.45801,42.578125],[-2.450052,42.576006],[-2.441732,42.578978],[-2.42132,42.598795],[-2.41331,42.598279],[-2.405868,42.596108],[-2.400675,42.590734],[-2.398065,42.583964],[-2.394009,42.564973],[-2.402871,42.512237],[-2.406075,42.497096],[-2.427133,42.49937],[-2.462041,42.507251],[-2.491651,42.520092],[-2.501521,42.537662],[-2.510616,42.535233],[-2.518058,42.531048],[-2.524026,42.525105],[-2.528832,42.517173],[-2.526507,42.515131],[-2.525318,42.514305],[-2.524181,42.513219],[-2.522037,42.510351],[-2.541648,42.512367],[-2.557745,42.510842],[-2.571336,42.505623],[-2.583454,42.496683],[-2.585134,42.511979],[-2.595056,42.517508],[-2.606166,42.516862],[-2.611385,42.513762],[-2.617871,42.507716],[-2.632082,42.512522],[-2.667454,42.533166],[-2.676756,42.536887],[-2.684663,42.537766],[-2.687737,42.553424],[-2.687246,42.567919],[-2.685179,42.574714],[-2.685644,42.581794],[-2.689133,42.589494],[-2.699442,42.59771],[-2.733988,42.61572],[-2.747398,42.618691],[-2.761841,42.614505],[-2.76967,42.608821],[-2.773391,42.60156],[-2.77998,42.585618],[-2.793493,42.58691],[-2.805973,42.582362],[-2.813001,42.580812],[-2.821037,42.584274],[-2.826825,42.590191],[-2.826773,42.596005],[-2.814784,42.605875],[-2.812665,42.611094],[-2.816231,42.620215],[-2.829925,42.613807]],[[-2.626294,42.773203],[-2.638903,42.774237],[-2.700424,42.787957],[-2.715023,42.792996],[-2.726133,42.795063],[-2.752798,42.796975],[-2.816593,42.793977],[-2.827083,42.791833],[-2.832871,42.787259],[-2.853541,42.763695],[-2.868114,42.751396],[-2.870155,42.744678],[-2.865323,42.736281],[-2.840751,42.717755],[-2.814138,42.702923],[-2.752436,42.68184],[-2.684353,42.67029],[-2.634071,42.654761],[-2.556919,42.653366],[-2.550407,42.651815],[-2.545136,42.650007],[-2.542759,42.646209],[-2.538237,42.643366],[-2.526042,42.644736],[-2.515267,42.649309],[-2.512942,42.653366],[-2.51444,42.665768],[-2.51829,42.674527],[-2.519531,42.680961],[-2.522554,42.686387],[-2.525783,42.689488],[-2.532346,42.688816],[-2.537721,42.685974],[-2.5471,42.678067],[-2.553301,42.67538],[-2.559502,42.67352],[-2.566065,42.674527],[-2.572137,42.677395],[-2.581982,42.688247],[-2.586839,42.692537],[-2.592162,42.696257],[-2.597045,42.700288],[-2.600792,42.70437],[-2.600301,42.709073],[-2.598208,42.713155],[-2.593118,42.715894],[-2.580431,42.718478],[-2.57516,42.72132],[-2.571285,42.725248],[-2.561931,42.739149],[-2.560355,42.743851],[-2.557771,42.748244],[-2.556066,42.756383],[-2.559192,42.759354],[-2.569502,42.759096],[-2.578106,42.760491],[-2.586943,42.764884],[-2.592704,42.76925],[-2.596348,42.773643],[-2.601541,42.776097],[-2.60813,42.776614],[-2.616682,42.774185],[-2.626294,42.773203]]]}},{"type":"Feature","properties":{"id":"ES-NA","country":"ES","name_en":"Navarre"},"geometry":{"type":"MultiPolygon","coordinates":[[[[-1.74973,43.294793],[-1.747356,43.291002],[-1.736556,43.29232],[-1.724825,43.296531],[-1.703328,43.298624],[-1.683019,43.304929],[-1.673872,43.304154],[-1.654907,43.297539],[-1.645037,43.292372],[-1.645192,43.287643],[-1.647983,43.281545],[-1.646329,43.272786],[-1.639043,43.255681],[-1.634082,43.251108],[-1.621886,43.247],[-1.611086,43.245811],[-1.598477,43.247],[-1.587573,43.251599],[-1.581888,43.260358],[-1.573982,43.277437],[-1.559047,43.284077],[-1.539204,43.283561],[-1.508094,43.276765],[-1.466392,43.260771],[-1.455281,43.262218],[-1.444222,43.265112],[-1.432233,43.265009],[-1.403501,43.243331],[-1.399677,43.206744],[-1.410529,43.166901],[-1.425774,43.135275],[-1.438435,43.122795],[-1.479621,43.090265],[-1.487837,43.081816],[-1.47528,43.060138],[-1.457141,43.045074],[-1.435024,43.035721],[-1.410529,43.030915],[-1.383141,43.029209],[-1.366139,43.033318],[-1.357613,43.046831],[-1.355184,43.073031],[-1.348259,43.093081],[-1.331051,43.107344],[-1.308623,43.113571],[-1.286041,43.109179],[-1.30697,43.095975],[-1.315083,43.082875],[-1.310587,43.069491],[-1.293689,43.055203],[-1.274879,43.046831],[-1.216898,43.03926],[-1.182533,43.025282],[-1.149925,43.005722],[-1.112408,43.008254],[-1.103726,43.005748],[-1.08719,42.997997],[-1.079697,42.993398],[-1.045074,42.990219],[-1.028485,42.986705],[-1.01629,42.976241],[-0.98146,42.957043],[-0.943219,42.947896],[-0.863534,42.943065],[-0.786433,42.953271],[-0.759665,42.946501],[-0.745032,42.918727],[-0.745246,42.918724],[-0.771446,42.918363],[-0.806224,42.904358],[-0.813097,42.896297],[-0.816353,42.888855],[-0.815655,42.882137],[-0.819195,42.876091],[-0.846222,42.849478],[-0.850382,42.840486],[-0.852526,42.83227],[-0.851002,42.81656],[-0.856945,42.786898],[-0.867022,42.769948],[-0.877538,42.763747],[-0.890224,42.758889],[-0.896426,42.755013],[-0.904358,42.742559],[-0.924977,42.735583],[-0.951745,42.716695],[-0.964509,42.710287],[-0.977118,42.705714],[-1.024635,42.696128],[-1.031663,42.690108],[-1.034376,42.68308],[-1.033704,42.676258],[-1.034996,42.669179],[-1.040267,42.655846],[-1.044453,42.649955],[-1.055486,42.645356],[-1.075665,42.645356],[-1.085225,42.64701],[-1.145015,42.641377],[-1.151655,42.635925],[-1.154291,42.629336],[-1.154523,42.6236],[-1.155531,42.618639],[-1.165531,42.615048],[-1.172326,42.613472],[-1.168915,42.611094],[-1.153283,42.605436],[-1.154782,42.601793],[-1.160544,42.596082],[-1.184961,42.584559],[-1.195761,42.575334],[-1.203048,42.566601],[-1.205347,42.5581],[-1.212014,42.553889],[-1.219662,42.550633],[-1.228033,42.549393],[-1.246042,42.553372],[-1.257411,42.553217],[-1.265008,42.548463],[-1.271493,42.541538],[-1.278159,42.53203],[-1.28219,42.524175],[-1.284516,42.516578],[-1.283043,42.510119],[-1.28033,42.50477],[-1.275756,42.498492],[-1.273689,42.494771],[-1.272682,42.487639],[-1.279477,42.476994],[-1.294412,42.459838],[-1.320663,42.440924],[-1.341954,42.414827],[-1.348052,42.397387],[-1.350377,42.386793],[-1.349111,42.379171],[-1.345494,42.372944],[-1.338827,42.369611],[-1.333401,42.364133],[-1.331024,42.357983],[-1.334487,42.34987],[-1.364123,42.323153],[-1.384019,42.300416],[-1.390891,42.28729],[-1.395,42.277161],[-1.395852,42.269772],[-1.400865,42.253907],[-1.404896,42.244269],[-1.412544,42.230187],[-1.41642,42.220576],[-1.41704,42.211946],[-1.415438,42.204892],[-1.411149,42.19758],[-1.405413,42.191534],[-1.400426,42.185151],[-1.396628,42.177968],[-1.395336,42.169416],[-1.394767,42.149624],[-1.393708,42.141614],[-1.394225,42.127584],[-1.392468,42.120788],[-1.387171,42.114742],[-1.373425,42.104691],[-1.368516,42.098774],[-1.364356,42.092237],[-1.361746,42.085338],[-1.356708,42.078672],[-1.350661,42.072729],[-1.342419,42.069215],[-1.33335,42.067458],[-1.323919,42.067252],[-1.316452,42.062756],[-1.312447,42.054281],[-1.315961,42.03715],[-1.322369,42.027771],[-1.342987,42.006971],[-1.361178,41.983768],[-1.37451,41.960462],[-1.38066,41.953124],[-1.38314,41.943693],[-1.393992,41.932738],[-1.403423,41.925452],[-1.40903,41.915736],[-1.414663,41.910827],[-1.419288,41.908863],[-1.426393,41.910982],[-1.444738,41.914393],[-1.454402,41.915194],[-1.483289,41.92217],[-1.490705,41.922661],[-1.497888,41.921628],[-1.503004,41.92],[-1.518326,41.913411],[-1.537136,41.910879],[-1.546644,41.910672],[-1.555946,41.911602],[-1.573749,41.916744],[-1.589432,41.925193],[-1.596357,41.930154],[-1.607287,41.941885],[-1.614211,41.947001],[-1.621937,41.951238],[-1.639403,41.957594],[-1.657154,41.962168],[-1.66643,41.960333],[-1.68493,41.953977],[-1.694646,41.953305],[-1.70418,41.955062],[-1.72361,41.960592],[-1.732033,41.964674],[-1.739604,41.969299],[-1.752136,41.981417],[-1.759499,41.986998],[-1.767716,41.990616],[-1.776579,41.992993],[-1.814845,41.995266],[-1.823888,41.994646],[-1.834611,41.99891],[-1.836394,42.000279],[-1.838668,42.000847],[-1.841277,42.001881],[-1.852414,42.001209],[-1.890603,42.025316],[-1.897321,42.0356],[-1.901325,42.045599],[-1.902101,42.054384],[-1.90148,42.061929],[-1.89993,42.06937],[-1.896054,42.07614],[-1.856393,42.111538],[-1.84182,42.122029],[-1.835774,42.127868],[-1.831976,42.134431],[-1.829108,42.140787],[-1.823423,42.145619],[-1.814587,42.146937],[-1.804303,42.145903],[-1.792314,42.141123],[-1.782728,42.139289],[-1.774227,42.13996],[-1.754073,42.146394],[-1.744591,42.146627],[-1.734669,42.144224],[-1.713094,42.136136],[-1.703172,42.136343],[-1.694129,42.138462],[-1.688186,42.143061],[-1.685783,42.14903],[-1.689995,42.156394],[-1.692268,42.166781],[-1.691778,42.171535],[-1.690098,42.174403],[-1.689116,42.176806],[-1.688599,42.180759],[-1.691648,42.187038],[-1.697746,42.194531],[-1.697074,42.215821],[-1.726943,42.231479],[-1.747407,42.236001],[-1.795776,42.256491],[-1.820013,42.272872],[-1.829314,42.277575],[-1.8358,42.278143],[-1.851251,42.27618],[-1.857271,42.277575],[-1.861922,42.284189],[-1.862155,42.291992],[-1.861405,42.299434],[-1.863472,42.304912],[-1.901325,42.325375],[-1.976747,42.393046],[-2.032403,42.392968],[-2.055605,42.399066],[-2.069558,42.414776],[-2.064804,42.417308],[-2.060153,42.423561],[-2.05527,42.428418],[-2.076509,42.442578],[-2.104956,42.445161],[-2.171955,42.441441],[-2.191385,42.442939],[-2.20601,42.446402],[-2.218231,42.45343],[-2.230298,42.465677],[-2.238721,42.471982],[-2.267892,42.486916],[-2.278383,42.489862],[-2.343262,42.48304],[-2.384474,42.494667],[-2.406075,42.497096],[-2.402871,42.512237],[-2.394009,42.564973],[-2.398065,42.583964],[-2.400675,42.590734],[-2.405868,42.596108],[-2.41331,42.598279],[-2.42132,42.598795],[-2.441732,42.578978],[-2.450052,42.576006],[-2.45801,42.578125],[-2.473358,42.584714],[-2.481368,42.585876],[-2.488085,42.589907],[-2.493279,42.595307],[-2.494545,42.601999],[-2.492736,42.609337],[-2.47868,42.619104],[-2.47018,42.622851],[-2.450672,42.634814],[-2.437856,42.645563],[-2.418012,42.657526],[-2.40871,42.660213],[-2.399512,42.659929],[-2.391037,42.658585],[-2.385301,42.65613],[-2.38096,42.652849],[-2.372589,42.641842],[-2.365871,42.637915],[-2.348094,42.638121],[-2.338301,42.639491],[-2.328431,42.642979],[-2.298459,42.657758],[-2.292697,42.663081],[-2.293162,42.672021],[-2.295927,42.677912],[-2.306856,42.680083],[-2.312024,42.682925],[-2.320706,42.72101],[-2.32037,42.728994],[-2.312076,42.737753],[-2.28492,42.744678],[-2.279416,42.750931],[-2.276987,42.759638],[-2.276522,42.776046],[-2.274429,42.79098],[-2.263422,42.813718],[-2.242312,42.839194],[-2.23978,42.849426],[-2.239134,42.858315],[-2.252958,42.900069],[-2.237506,42.922962],[-2.235801,42.928698],[-2.231693,42.935157],[-2.22544,42.94141],[-2.214149,42.949627],[-2.200816,42.951642],[-2.182884,42.945906],[-2.174099,42.944046],[-2.154488,42.945958],[-2.143791,42.94588],[-2.132913,42.94694],[-2.122759,42.949627],[-2.113586,42.956164],[-2.09475,42.975465],[-2.085216,42.979651],[-2.057285,42.983837],[-2.049404,42.988229],[-2.04266,42.994456],[-2.039586,43.0043],[-2.039482,43.012259],[-2.041808,43.019545],[-2.040568,43.027555],[-2.036563,43.036443],[-2.028579,43.049026],[-2.0146,43.066958],[-1.964009,43.093287],[-1.950754,43.098093],[-1.937912,43.105586],[-1.926724,43.114371],[-1.912488,43.135145],[-1.911092,43.146281],[-1.91241,43.155712],[-1.916079,43.16212],[-1.917578,43.169174],[-1.919283,43.184548],[-1.918663,43.192248],[-1.910989,43.213512],[-1.908534,43.218344],[-1.902411,43.21576],[-1.889259,43.211626],[-1.883704,43.211962],[-1.879802,43.214133],[-1.880009,43.219481],[-1.878097,43.224649],[-1.872697,43.227698],[-1.864118,43.225656],[-1.857271,43.222866],[-1.847401,43.223615],[-1.833681,43.229506],[-1.821072,43.238601],[-1.805543,43.256998],[-1.791306,43.27741],[-1.781927,43.284464],[-1.773452,43.289709],[-1.749939,43.294748],[-1.74973,43.294793]]],[[[-1.163929,42.440872],[-1.158141,42.436738],[-1.158141,42.425989],[-1.165582,42.411933],[-1.176331,42.403665],[-1.190387,42.402838],[-1.197002,42.411933],[-1.194521,42.424336],[-1.186253,42.43095],[-1.173024,42.435911],[-1.163929,42.440872]]],[[[-1.106051,42.48304],[-1.09861,42.482213],[-1.095302,42.474772],[-1.094475,42.463197],[-1.08538,42.459062],[-1.074632,42.450794],[-1.06719,42.445833],[-1.06719,42.436738],[-1.075459,42.432604],[-1.087034,42.433431],[-1.108531,42.436738],[-1.123414,42.440045],[-1.134163,42.44666],[-1.133336,42.456582],[-1.128375,42.466504],[-1.124241,42.473118],[-1.112666,42.482213],[-1.106051,42.48304]]]]}},{"type":"Feature","properties":{"id":"FR-64","country":"FR","name_en":"Pyrenees-Atlantics"},"geometry":{"type":"Polygon","coordinates":[[[-1.747356,43.291002],[-1.74973,43.294793],[-1.752421,43.299089],[-1.75578,43.318546],[-1.768234,43.330922],[-1.796914,43.341128],[-1.797172,43.353324],[-1.796449,43.374382],[-1.794075,43.386015],[-1.791371,43.384589],[-1.790761,43.384263],[-1.775502,43.376166],[-1.767974,43.383612],[-1.749623,43.389228],[-1.661,43.399685],[-1.637807,43.423774],[-1.615468,43.432563],[-1.59675,43.442532],[-1.588043,43.451158],[-1.566396,43.482164],[-1.562082,43.493394],[-1.553334,43.50137],[-1.513987,43.538642],[-1.470942,43.509468],[-1.440663,43.499086],[-1.418328,43.50381],[-1.384512,43.507556],[-1.316639,43.508699],[-1.284295,43.514313],[-1.242909,43.530913],[-1.210115,43.553699],[-1.204128,43.564279],[-1.172981,43.551095],[-1.166741,43.537176],[-1.171718,43.505172],[-1.153997,43.489989],[-1.131464,43.497438],[-1.106404,43.513181],[-1.081103,43.522893],[-1.038245,43.503975],[-1.023688,43.501811],[-1.005308,43.505348],[-0.991202,43.511314],[-0.983346,43.523377],[-0.983753,43.545228],[-0.942862,43.540186],[-0.923844,43.533748],[-0.923647,43.534561],[-0.913375,43.544448],[-0.902839,43.547448],[-0.859487,43.544383],[-0.799974,43.567421],[-0.780187,43.569343],[-0.760708,43.566531],[-0.715346,43.54747],[-0.70492,43.54825],[-0.672049,43.557259],[-0.562251,43.543108],[-0.54798,43.5458],[-0.47235,43.589822],[-0.460441,43.592063],[-0.446851,43.588482],[-0.447126,43.581319],[-0.451641,43.571431],[-0.450817,43.55973],[-0.434008,43.552963],[-0.322925,43.563751],[-0.267269,43.582077],[-0.236342,43.587053],[-0.202955,43.588998],[-0.109681,43.574804],[-0.089653,43.56452],[-0.079523,43.545196],[-0.071778,43.539614],[-0.061022,43.534835],[-0.053453,43.529276],[-0.047278,43.522223],[-0.022735,43.479409],[-0.017769,43.467885],[-0.016297,43.459107],[-0.019812,43.453987],[-0.026921,43.451273],[-0.035468,43.451768],[-0.043378,43.453163],[-0.049684,43.449856],[-0.052211,43.440836],[-0.049014,43.421171],[-0.042137,43.414821],[-0.034183,43.414381],[-0.027305,43.419567],[-0.021647,43.425565],[-0.015242,43.430729],[-0.007793,43.434168],[0.002204,43.433322],[0.007005,43.428565],[0.009027,43.422006],[0.00561,43.384685],[0.008873,43.371128],[0.0221,43.348936],[0.023232,43.339169],[0.018793,43.332445],[0.011191,43.328831],[-0.007793,43.325051],[-0.014748,43.322107],[-0.021647,43.316526],[-0.027514,43.310308],[-0.032502,43.301695],[-0.035831,43.291884],[-0.036863,43.276898],[-0.02792,43.258079],[-0.026349,43.253487],[-0.027206,43.247927],[-0.030173,43.241984],[-0.034952,43.235864],[-0.042214,43.229404],[-0.059187,43.217517],[-0.066351,43.211475],[-0.070613,43.203982],[-0.077172,43.181339],[-0.080688,43.172506],[-0.085928,43.165947],[-0.092729,43.163618],[-0.10544,43.166464],[-0.110944,43.164761],[-0.118151,43.158817],[-0.132214,43.133977],[-0.138871,43.12499],[-0.147869,43.118662],[-0.156416,43.114268],[-0.176752,43.107138],[-0.183882,43.102018],[-0.191408,43.091845],[-0.192649,43.076804],[-0.191869,43.065741],[-0.18497,43.046471],[-0.189617,43.039418],[-0.198692,43.034243],[-0.208953,43.032848],[-0.237836,43.03254],[-0.246054,43.030497],[-0.253239,43.026311],[-0.264961,43.015358],[-0.281551,43.003163],[-0.288318,42.994693],[-0.290032,42.987606],[-0.28856,42.980531],[-0.283649,42.965853],[-0.282847,42.956317],[-0.284187,42.940761],[-0.289406,42.931642],[-0.29703,42.923633],[-0.305171,42.91681],[-0.31251,42.908131],[-0.315872,42.900891],[-0.317026,42.893871],[-0.317059,42.887301],[-0.315147,42.873766],[-0.308786,42.848443],[-0.305171,42.830974],[-0.305139,42.830812],[-0.307418,42.831831],[-0.322792,42.842502],[-0.328244,42.83258],[-0.335169,42.824958],[-0.342998,42.822736],[-0.351679,42.829247],[-0.399738,42.801316],[-0.423923,42.790671],[-0.454464,42.788914],[-0.508414,42.807492],[-0.53389,42.808008],[-0.535647,42.784211],[-0.544432,42.782015],[-0.561175,42.77354],[-0.56903,42.772636],[-0.578694,42.777338],[-0.578539,42.783307],[-0.577144,42.789792],[-0.582931,42.795839],[-0.587324,42.796846],[-0.60355,42.796846],[-0.610165,42.799094],[-0.609958,42.802841],[-0.608046,42.807181],[-0.609493,42.811445],[-0.648302,42.849789],[-0.666079,42.860744],[-0.700392,42.876428],[-0.71052,42.877668],[-0.720287,42.876609],[-0.730106,42.877513],[-0.740286,42.884799],[-0.745867,42.89392],[-0.744782,42.899295],[-0.741423,42.903894],[-0.740906,42.910896],[-0.745032,42.918727],[-0.759665,42.946501],[-0.786433,42.953271],[-0.863534,42.943065],[-0.943219,42.947896],[-0.98146,42.957043],[-1.01629,42.976241],[-1.028485,42.986705],[-1.045074,42.990219],[-1.079697,42.993398],[-1.08719,42.997997],[-1.103726,43.005748],[-1.112408,43.008254],[-1.149925,43.005722],[-1.182533,43.025282],[-1.216898,43.03926],[-1.274879,43.046831],[-1.293689,43.055203],[-1.310587,43.069491],[-1.315083,43.082875],[-1.30697,43.095975],[-1.286041,43.109179],[-1.308623,43.113571],[-1.331051,43.107344],[-1.348259,43.093081],[-1.355184,43.073031],[-1.357613,43.046831],[-1.366139,43.033318],[-1.383141,43.029209],[-1.410529,43.030915],[-1.435024,43.035721],[-1.457141,43.045074],[-1.47528,43.060138],[-1.487837,43.081816],[-1.479621,43.090265],[-1.438435,43.122795],[-1.425774,43.135275],[-1.410529,43.166901],[-1.399677,43.206744],[-1.403501,43.243331],[-1.432233,43.265009],[-1.444222,43.265112],[-1.455281,43.262218],[-1.466392,43.260771],[-1.508094,43.276765],[-1.539204,43.283561],[-1.559047,43.284077],[-1.573982,43.277437],[-1.581888,43.260358],[-1.587573,43.251599],[-1.598477,43.247],[-1.611086,43.245811],[-1.621886,43.247],[-1.634082,43.251108],[-1.639043,43.255681],[-1.646329,43.272786],[-1.647983,43.281545],[-1.645192,43.287643],[-1.645037,43.292372],[-1.654907,43.297539],[-1.673872,43.304154],[-1.683019,43.304929],[-1.703328,43.298624],[-1.724825,43.296531],[-1.736556,43.29232],[-1.747356,43.291002]],[[-0.096805,43.327787],[-0.086994,43.32815],[-0.083379,43.329402],[-0.07993,43.331303],[-0.076766,43.333863],[-0.073953,43.337114],[-0.066186,43.351364],[-0.064021,43.359219],[-0.063483,43.367283],[-0.064483,43.37282],[-0.066878,43.377588],[-0.070591,43.381422],[-0.075524,43.384147],[-0.087356,43.386652],[-0.093454,43.386421],[-0.099288,43.385048],[-0.107187,43.37906],[-0.111922,43.369491],[-0.114811,43.348716],[-0.112284,43.338477],[-0.105759,43.331358],[-0.096805,43.327787]],[[-0.117975,43.247565],[-0.107538,43.247818],[-0.097497,43.250795],[-0.080501,43.272152],[-0.090301,43.295498],[-0.113636,43.305265],[-0.137278,43.285819],[-0.138619,43.27179],[-0.137553,43.264824],[-0.134872,43.258342],[-0.127511,43.250806],[-0.117975,43.247565]]]}}]}
