{"type":"FeatureCollection","features":[{"type":"Feature","properties":{"id":"ES-C","country":"ES","name_en":"A Coruña"},"geometry":{"type":"Polygon","coordinates":[[[-8.730946,42.688422],[-8.737172,42.688422],[-8.744049,42.672431],[-8.753896,42.656887],[-8.767323,42.645168],[-8.784983,42.64057],[-8.803822,42.645941],[-8.815989,42.658515],[-8.826243,42.67414],[-8.839508,42.68244],[-8.854604,42.661566],[-8.857004,42.649115],[-8.846995,42.64057],[-8.868764,42.617499],[-8.880523,42.611802],[-8.894846,42.620103],[-8.889475,42.630601],[-8.903432,42.625474],[-8.936391,42.606431],[-8.922231,42.593695],[-8.93399,42.586819],[-8.969879,42.579169],[-8.972768,42.57392],[-8.980784,42.551215],[-8.989166,42.548896],[-8.99706,42.543402],[-9.011545,42.530707],[-9.026357,42.543118],[-9.028554,42.561469],[-9.033355,42.578111],[-9.055816,42.585395],[-9.070872,42.596137],[-9.065745,42.620307],[-9.051422,42.645941],[-9.038808,42.661078],[-9.039459,42.673041],[-9.036285,42.687934],[-9.030141,42.707709],[-9.018788,42.719753],[-9.014027,42.726833],[-9.006256,42.733832],[-8.994496,42.737006],[-8.992014,42.739081],[-8.963124,42.751288],[-8.937367,42.777777],[-8.922231,42.788113],[-8.898264,42.792304],[-8.891347,42.799343],[-8.884918,42.815009],[-8.887685,42.831122],[-8.908437,42.839464],[-8.912587,42.816596],[-8.92809,42.802517],[-8.951039,42.795111],[-8.977366,42.792304],[-9.028188,42.797878],[-9.04894,42.794745],[-9.045644,42.778022],[-9.068674,42.759711],[-9.081288,42.754828],[-9.10025,42.757514],[-9.113433,42.766059],[-9.120107,42.778998],[-9.125478,42.794989],[-9.134999,42.812771],[-9.122548,42.812608],[-9.113189,42.816352],[-9.106191,42.82331],[-9.10025,42.833279],[-9.108388,42.844835],[-9.122222,42.851752],[-9.141225,42.857449],[-9.142323,42.865302],[-9.147532,42.878607],[-9.148671,42.884467],[-9.146637,42.888373],[-9.137522,42.896064],[-9.134999,42.902167],[-9.133697,42.9112],[-9.134511,42.917548],[-9.141428,42.921413],[-9.158599,42.922634],[-9.167877,42.926825],[-9.183461,42.945258],[-9.195872,42.949327],[-9.195872,42.943142],[-9.190012,42.9324],[-9.19579,42.926581],[-9.20519,42.92475],[-9.210072,42.925727],[-9.214345,42.939032],[-9.224233,42.940212],[-9.235585,42.934882],[-9.244252,42.928778],[-9.251698,42.920233],[-9.261708,42.900173],[-9.268422,42.891303],[-9.273061,42.893337],[-9.282948,42.916612],[-9.291982,42.922634],[-9.291982,42.928778],[-9.28539,42.938341],[-9.26476,42.980333],[-9.263987,42.986518],[-9.26183,42.994493],[-9.258656,43.002387],[-9.254791,43.008002],[-9.250966,43.016791],[-9.257314,43.023261],[-9.272125,43.031277],[-9.27953,43.054999],[-9.271108,43.060492],[-9.257924,43.060899],[-9.251088,43.06977],[-9.245717,43.087999],[-9.233957,43.096503],[-9.22232,43.102729],[-9.2176,43.114447],[-9.202952,43.105048],[-9.189809,43.102322],[-9.176829,43.105577],[-9.162262,43.114447],[-9.15689,43.119737],[-9.154205,43.124701],[-9.150299,43.129584],[-9.141225,43.134874],[-9.133127,43.137966],[-9.125803,43.139594],[-9.107737,43.14114],[-9.107737,43.148505],[-9.124664,43.142524],[-9.147084,43.138699],[-9.163319,43.139757],[-9.162262,43.148505],[-9.194203,43.136542],[-9.208363,43.137885],[-9.2176,43.155341],[-9.170074,43.188747],[-9.137929,43.201524],[-9.100413,43.189521],[-9.08316,43.189765],[-9.065175,43.192328],[-9.052398,43.196357],[-9.039784,43.204535],[-9.026967,43.21015],[-9.016754,43.223863],[-9.011545,43.238756],[-9.004058,43.238756],[-8.985748,43.226874],[-8.958974,43.227484],[-8.932525,43.235297],[-8.915273,43.245022],[-8.936391,43.244086],[-8.94815,43.249945],[-8.963124,43.272284],[-8.967519,43.271959],[-8.979807,43.276923],[-8.988026,43.283026],[-8.980784,43.285956],[-8.970855,43.286566],[-8.930491,43.29975],[-8.88801,43.320746],[-8.856597,43.32689],[-8.84911,43.334052],[-8.841176,43.338935],[-8.829986,43.341213],[-8.817006,43.335842],[-8.785553,43.312445],[-8.768544,43.307074],[-8.750478,43.304918],[-8.711741,43.295559],[-8.693105,43.293402],[-8.665395,43.301174],[-8.630035,43.315863],[-8.592519,43.324205],[-8.55842,43.313218],[-8.505971,43.331529],[-8.497548,43.337795],[-8.494252,43.346625],[-8.486073,43.354315],[-8.475982,43.359687],[-8.455719,43.363349],[-8.451405,43.367377],[-8.448964,43.371975],[-8.443023,43.375312],[-8.388295,43.385891],[-8.384674,43.372707],[-8.375722,43.362982],[-8.353586,43.348619],[-8.34081,43.359931],[-8.33727,43.369045],[-8.339915,43.392727],[-8.330719,43.405666],[-8.310618,43.403144],[-8.281565,43.389594],[-8.267201,43.385932],[-8.260813,43.377021],[-8.257069,43.365668],[-8.250559,43.354885],[-8.227528,43.338121],[-8.217275,43.328315],[-8.210194,43.313218],[-8.202463,43.32925],[-8.202952,43.344672],[-8.210194,43.375312],[-8.209625,43.390692],[-8.204823,43.399726],[-8.193959,43.406806],[-8.175404,43.416327],[-8.195058,43.423245],[-8.213287,43.424954],[-8.247141,43.423082],[-8.26476,43.427314],[-8.288726,43.446234],[-8.305165,43.451077],[-8.286488,43.461982],[-8.185618,43.471503],[-8.178782,43.473293],[-8.171457,43.477973],[-8.166982,43.484565],[-8.168568,43.492011],[-8.173451,43.492743],[-8.196523,43.485175],[-8.257314,43.477729],[-8.253651,43.481269],[-8.250885,43.482856],[-8.243723,43.485175],[-8.247548,43.487738],[-8.257314,43.492011],[-8.269195,43.478949],[-8.288971,43.472968],[-8.333119,43.471503],[-8.325347,43.486762],[-8.321685,43.50788],[-8.31664,43.522895],[-8.305165,43.519355],[-8.292104,43.532945],[-8.30016,43.538235],[-8.308217,43.546332],[-8.313222,43.556342],[-8.312652,43.567125],[-8.308705,43.567125],[-8.291331,43.564846],[-8.284657,43.567125],[-8.260976,43.564521],[-8.232249,43.575507],[-8.086659,43.65648],[-8.082997,43.645453],[-8.074615,43.639635],[-8.063547,43.638861],[-8.051869,43.642808],[-8.062408,43.64232],[-8.065541,43.642808],[-8.065541,43.649075],[-8.061269,43.650946],[-8.056467,43.654242],[-8.051869,43.65648],[-8.071156,43.667873],[-8.073964,43.678534],[-8.069163,43.689276],[-8.065541,43.700873],[-8.059316,43.709418],[-8.044504,43.712104],[-8.010976,43.711737],[-7.981191,43.717841],[-7.952952,43.730129],[-7.928131,43.746772],[-7.908559,43.766343],[-7.880849,43.763251],[-7.869049,43.748847],[-7.86148,43.731187],[-7.846506,43.717963],[-7.846506,43.711737],[-7.852284,43.714179],[-7.862294,43.716254],[-7.867584,43.717963],[-7.874623,43.709418],[-7.879262,43.700507],[-7.879791,43.691962],[-7.873769,43.684475],[-7.884104,43.678616],[-7.887318,43.679674],[-7.894887,43.684475],[-7.901235,43.679755],[-7.903879,43.67829],[-7.908559,43.676988],[-7.908559,43.670152],[-7.858388,43.668199],[-7.849233,43.675605],[-7.867584,43.697455],[-7.856028,43.703437],[-7.843861,43.703803],[-7.819163,43.697455],[-7.821401,43.700751],[-7.823964,43.708075],[-7.826039,43.711737],[-7.812001,43.72309],[-7.793853,43.734117],[-7.773793,43.74258],[-7.734039,43.750067],[-7.712758,43.760688],[-7.695709,43.774888],[-7.688832,43.789984],[-7.685536,43.793443],[-7.678334,43.790473],[-7.671295,43.782864],[-7.668324,43.772528],[-7.672597,43.766669],[-7.695627,43.745917],[-7.696156,43.731513],[-7.709473,43.674175],[-7.69095,43.653927],[-7.723635,43.625802],[-7.728919,43.615706],[-7.725338,43.597578],[-7.72659,43.586482],[-7.729974,43.581505],[-7.753792,43.563411],[-7.758428,43.554754],[-7.758341,43.545525],[-7.746662,43.530584],[-7.744805,43.526321],[-7.746014,43.5213],[-7.78017,43.449054],[-7.807285,43.437398],[-7.817205,43.41503],[-7.82461,43.406592],[-7.836135,43.401912],[-7.882091,43.407526],[-7.889309,43.341454],[-7.896505,43.330105],[-7.931661,43.299926],[-7.936759,43.293202],[-7.937769,43.28505],[-7.934605,43.277129],[-7.930408,43.271043],[-7.927552,43.264495],[-7.928398,43.255167],[-7.961357,43.189953],[-7.924685,43.092174],[-7.927025,43.084143],[-7.931727,43.076332],[-7.935385,43.065159],[-7.934847,43.051843],[-7.906414,42.987639],[-7.906601,42.961909],[-7.911776,42.936729],[-7.935627,42.903429],[-7.944845,42.89731],[-7.965982,42.889048],[-7.975266,42.88305],[-7.999809,42.84886],[-8.032834,42.836456],[-8.049215,42.834534],[-8.174448,42.853013],[-8.192191,42.847619],[-8.204627,42.834292],[-8.209945,42.8307],[-8.220711,42.829041],[-8.252066,42.836303],[-8.262294,42.833765],[-8.289661,42.820032],[-8.298835,42.821636],[-8.304361,42.828294],[-8.308953,42.836786],[-8.315314,42.843938],[-8.321752,42.846113],[-8.329322,42.845718],[-8.335958,42.842675],[-8.339616,42.83694],[-8.33932,42.831666],[-8.333848,42.812957],[-8.333431,42.801421],[-8.335914,42.791424],[-8.34222,42.783986],[-8.353327,42.780152],[-8.392032,42.78949],[-8.42164,42.756762],[-8.445371,42.744292],[-8.458291,42.742018],[-8.472342,42.743248],[-8.502335,42.75607],[-8.578053,42.745874],[-8.594126,42.738436],[-8.599663,42.732086],[-8.601651,42.726297],[-8.602025,42.722166],[-8.603475,42.719419],[-8.608748,42.717804],[-8.645432,42.725517],[-8.716337,42.706455],[-8.730946,42.688422]]]}},{"type":"Feature","properties":{"id":"ES-LU","country":"ES","name_en":"Lugo"},"geometry":{"type":"Polygon","coordinates":[[[-7.696156,43.731513],[-7.691558,43.72724],[-7.68399,43.728705],[-7.67516,43.731635],[-7.673573,43.734361],[-7.674143,43.739203],[-7.672475,43.743842],[-7.664622,43.745917],[-7.65803,43.746527],[-7.641021,43.752672],[-7.637603,43.739081],[-7.613026,43.704291],[-7.615956,43.688544],[-7.607167,43.691107],[-7.594594,43.703681],[-7.586415,43.717963],[-7.57429,43.714545],[-7.565419,43.719794],[-7.555776,43.727607],[-7.541412,43.731635],[-7.502024,43.728339],[-7.490142,43.725328],[-7.407623,43.69123],[-7.367055,43.68008],[-7.304107,43.598578],[-7.256744,43.58161],[-7.260162,43.577501],[-7.262278,43.574286],[-7.265126,43.571479],[-7.271067,43.56863],[-7.271067,43.561143],[-7.257721,43.556667],[-7.249623,43.559394],[-7.242014,43.564805],[-7.230092,43.56863],[-7.215443,43.568671],[-7.194895,43.563503],[-7.156972,43.559272],[-7.095855,43.560981],[-7.079335,43.56863],[-7.061594,43.561591],[-7.044301,43.559394],[-7.032338,43.553005],[-7.030873,43.53323],[-7.03775,43.522244],[-7.048411,43.510443],[-7.053619,43.496527],[-7.046923,43.483678],[-7.048892,43.477889],[-7.05052,43.476339],[-7.081138,43.456056],[-7.095014,43.440062],[-7.105116,43.43306],[-7.112739,43.429339],[-7.119947,43.428693],[-7.127441,43.428822],[-7.137621,43.431458],[-7.14855,43.431458],[-7.160901,43.429132],[-7.16687,43.423396],[-7.168808,43.416782],[-7.171624,43.396111],[-7.170125,43.39084],[-7.166947,43.386215],[-7.153589,43.381383],[-7.136613,43.382107],[-7.13005,43.378619],[-7.126045,43.372702],[-7.12527,43.365209],[-7.125477,43.357199],[-7.124805,43.348207],[-7.121601,43.336787],[-7.115348,43.326555],[-7.108372,43.319036],[-7.094884,43.308675],[-7.086487,43.307021],[-7.078348,43.303094],[-7.071268,43.297719],[-7.062793,43.254879],[-7.056799,43.244648],[-7.050959,43.237309],[-7.043415,43.231677],[-7.021349,43.218758],[-7.013597,43.217362],[-7.006957,43.217001],[-6.995898,43.206045],[-6.979956,43.200102],[-6.971843,43.198423],[-6.965564,43.195012],[-6.965177,43.189612],[-6.965848,43.183256],[-6.97267,43.168864],[-6.973781,43.159226],[-6.970913,43.151733],[-6.965693,43.144602],[-6.959285,43.13884],[-6.951534,43.134577],[-6.943421,43.132613],[-6.926652,43.138039],[-6.907919,43.146411],[-6.898462,43.149124],[-6.891176,43.15318],[-6.886267,43.1584],[-6.884251,43.164678],[-6.879962,43.170595],[-6.873813,43.174626],[-6.866294,43.175298],[-6.85738,43.169252],[-6.847587,43.159226],[-6.832161,43.139899],[-6.829603,43.128866],[-6.831541,43.120159],[-6.868981,43.095303],[-6.877223,43.091789],[-6.913242,43.080575],[-6.922595,43.08011],[-6.932724,43.080988],[-6.93939,43.079593],[-6.945204,43.076725],[-6.948847,43.072074],[-6.95218,43.066209],[-6.955203,43.059465],[-6.958252,43.049802],[-6.963445,43.042593],[-6.971223,43.038614],[-6.979568,43.036624],[-6.986131,43.030216],[-6.988457,43.019338],[-6.983315,43.007969],[-6.975848,42.998306],[-6.966391,42.994275],[-6.961973,42.99567],[-6.957683,42.997944],[-6.955978,42.999882],[-6.954893,43.001587],[-6.95373,43.004921],[-6.953575,43.023782],[-6.951327,43.025126],[-6.945204,43.024609],[-6.924481,43.002388],[-6.922001,43.000192],[-6.913707,42.99474],[-6.905852,42.992079],[-6.896395,42.99071],[-6.877378,42.991278],[-6.868852,42.988668],[-6.845649,42.971408],[-6.83689,42.962701],[-6.83366,42.952366],[-6.828286,42.914797],[-6.837097,42.905573],[-6.839086,42.896658],[-6.843556,42.889088],[-6.86048,42.874463],[-6.862263,42.862035],[-6.854072,42.837592],[-6.853891,42.829427],[-6.857535,42.818136],[-6.863348,42.808447],[-6.89562,42.780645],[-6.918048,42.757313],[-6.92859,42.750052],[-6.938718,42.74659],[-6.947607,42.747339],[-6.955746,42.749122],[-6.965693,42.747029],[-6.988379,42.730105],[-7.016956,42.720855],[-7.021245,42.718065],[-7.032795,42.706257],[-7.037653,42.698169],[-7.039694,42.689126],[-7.03618,42.675923],[-7.030237,42.667189],[-7.023364,42.65998],[-7.01675,42.65427],[-7.013907,42.64763],[-7.014295,42.641325],[-7.023183,42.635434],[-7.032253,42.631558],[-7.039901,42.625564],[-7.044345,42.617089],[-7.042019,42.589106],[-7.042795,42.577608],[-7.060106,42.548618],[-7.062509,42.540659],[-7.061967,42.522004],[-7.071036,42.503452],[-7.103215,42.457824],[-7.138887,42.440388],[-7.15083,42.427227],[-7.20263,42.325526],[-7.255727,42.406221],[-7.269317,42.414691],[-7.320228,42.425007],[-7.361987,42.419536],[-7.369743,42.421272],[-7.406372,42.444321],[-7.418281,42.43317],[-7.520871,42.395004],[-7.577066,42.40766],[-7.617342,42.40209],[-7.715406,42.451144],[-7.75109,42.452133],[-7.752727,42.451133],[-7.781544,42.472073],[-7.861502,42.503977],[-7.896845,42.505691],[-7.892648,42.536519],[-7.894417,42.546362],[-7.900679,42.556492],[-7.930804,42.578454],[-7.893,42.635308],[-7.890924,42.66763],[-7.887331,42.678275],[-7.868248,42.698161],[-7.868149,42.713212],[-7.88041,42.722012],[-7.912281,42.729856],[-7.932254,42.739953],[-7.978518,42.781151],[-7.981572,42.795082],[-7.964455,42.842356],[-7.999809,42.84886],[-7.975266,42.88305],[-7.965982,42.889048],[-7.944845,42.89731],[-7.935627,42.903429],[-7.911776,42.936729],[-7.906601,42.961909],[-7.906414,42.987639],[-7.934847,43.051843],[-7.935385,43.065159],[-7.931727,43.076332],[-7.927025,43.084143],[-7.924685,43.092174],[-7.961357,43.189953],[-7.928398,43.255167],[-7.927552,43.264495],[-7.930408,43.271043],[-7.934605,43.277129],[-7.937769,43.28505],[-7.936759,43.293202],[-7.931661,43.299926],[-7.896505,43.330105],[-7.889309,43.341454],[-7.882091,43.407526],[-7.836135,43.401912],[-7.82461,43.406592],[-7.817205,43.41503],[-7.807285,43.437398],[-7.78017,43.449054],[-7.746014,43.5213],[-7.744805,43.526321],[-7.746662,43.530584],[-7.758341,43.545525],[-7.758428,43.554754],[-7.753792,43.563411],[-7.729974,43.581505],[-7.72659,43.586482],[-7.725338,43.597578],[-7.728919,43.615706],[-7.723635,43.625802],[-7.69095,43.653927],[-7.709473,43.674175],[-7.696156,43.731513]]]}},{"type":"Feature","properties":{"id":"ES-OR","country":"ES","name_en":"Ourense"},"geometry":{"type":"Polygon","coordinates":[[[-8.191304,42.062085],[-8.204016,42.069552],[-8.207375,42.085779],[-8.204327,42.128799],[-8.213396,42.144018],[-8.222362,42.15363],[-8.183357,42.173116],[-8.179611,42.209873],[-8.164868,42.245908],[-8.235631,42.231813],[-8.245947,42.236295],[-8.268436,42.256686],[-8.274522,42.266398],[-8.275478,42.278516],[-8.261976,42.315232],[-8.276005,42.318506],[-8.286431,42.323845],[-8.318105,42.360836],[-8.318973,42.366582],[-8.317006,42.383985],[-8.318643,42.389159],[-8.334145,42.412703],[-8.342286,42.432544],[-8.339012,42.485235],[-8.340572,42.49231],[-8.302823,42.490255],[-8.248869,42.531421],[-8.21413,42.539979],[-8.173778,42.571928],[-8.146674,42.548593],[-8.067144,42.552042],[-8.018673,42.542067],[-8.012685,42.545385],[-7.992613,42.570247],[-7.984241,42.571796],[-7.958215,42.568467],[-7.930804,42.578454],[-7.900679,42.556492],[-7.894417,42.546362],[-7.892648,42.536519],[-7.896845,42.505691],[-7.861502,42.503977],[-7.781544,42.472073],[-7.752727,42.451133],[-7.75109,42.452133],[-7.715406,42.451144],[-7.617342,42.40209],[-7.577066,42.40766],[-7.520871,42.395004],[-7.418281,42.43317],[-7.406372,42.444321],[-7.369743,42.421272],[-7.361987,42.419536],[-7.320228,42.425007],[-7.269317,42.414691],[-7.255727,42.406221],[-7.20263,42.325526],[-7.15083,42.427227],[-7.138887,42.440388],[-7.103215,42.457824],[-7.071036,42.503452],[-7.026284,42.502006],[-6.983134,42.494822],[-6.972308,42.495701],[-6.968355,42.498388],[-6.966624,42.500559],[-6.962024,42.503814],[-6.952645,42.508258],[-6.93293,42.513064],[-6.919986,42.512832],[-6.909444,42.509292],[-6.89717,42.501618],[-6.892571,42.499783],[-6.821051,42.485056],[-6.808778,42.464023],[-6.810819,42.456117],[-6.813041,42.438909],[-6.8164,42.430201],[-6.820741,42.423664],[-6.828544,42.415447],[-6.831851,42.412605],[-6.839112,42.410125],[-6.789167,42.378886],[-6.755422,42.36266],[-6.740462,42.350258],[-6.735707,42.341137],[-6.738059,42.33385],[-6.738756,42.326357],[-6.737749,42.311991],[-6.738317,42.304963],[-6.740617,42.298194],[-6.744415,42.291837],[-6.756404,42.280882],[-6.769814,42.261968],[-6.78325,42.252873],[-6.799424,42.238378],[-6.802396,42.230808],[-6.805471,42.21794],[-6.811336,42.216597],[-6.830456,42.220937],[-6.844641,42.220886],[-6.866759,42.21701],[-6.882546,42.209594],[-6.898411,42.200163],[-6.932905,42.174119],[-6.940579,42.165334],[-6.944739,42.158357],[-6.955591,42.132209],[-6.962593,42.126163],[-6.970809,42.122029],[-6.979181,42.119497],[-6.986932,42.114122],[-7.01122,42.085752],[-7.024656,42.075727],[-7.028144,42.067975],[-7.026284,42.061361],[-7.019773,42.056245],[-7.012693,42.052214],[-7.005071,42.051025],[-6.984762,42.05118],[-6.977863,42.047925],[-6.967502,42.035936],[-6.966003,42.032964],[-6.965306,42.028314],[-6.983134,41.996713],[-6.986467,41.989169],[-6.987707,41.983381],[-6.982721,41.973976],[-6.983444,41.963175],[-6.983456,41.962996],[-6.992359,41.96638],[-7.015769,41.953668],[-7.05127,41.942015],[-7.082741,41.952789],[-7.113179,41.972426],[-7.145373,41.98749],[-7.159739,41.985733],[-7.177309,41.978369],[-7.192605,41.96961],[-7.199943,41.963719],[-7.202114,41.94974],[-7.195654,41.917365],[-7.197928,41.9015],[-7.209316,41.889161],[-7.21865,41.879047],[-7.251465,41.863699],[-7.322468,41.845406],[-7.340503,41.843209],[-7.376832,41.844036],[-7.391921,41.842047],[-7.405409,41.835199],[-7.429542,41.814503],[-7.442719,41.805951],[-7.446957,41.821841],[-7.456569,41.83923],[-7.469384,41.852537],[-7.483285,41.856206],[-7.493,41.856904],[-7.508142,41.864939],[-7.515841,41.864991],[-7.523283,41.860159],[-7.525247,41.854165],[-7.526332,41.847369],[-7.531551,41.84016],[-7.546692,41.832047],[-7.567104,41.826595],[-7.588395,41.824218],[-7.606068,41.825536],[-7.622192,41.832331],[-7.622812,41.841737],[-7.60736,41.873182],[-7.661156,41.874913],[-7.678674,41.881347],[-7.706372,41.896255],[-7.72203,41.899252],[-7.750142,41.888375],[-7.812154,41.877135],[-7.839233,41.878375],[-7.849723,41.875765],[-7.854425,41.870262],[-7.857888,41.863777],[-7.864812,41.857885],[-7.896593,41.857937],[-7.903363,41.886824],[-7.906102,41.913851],[-7.925791,41.908167],[-7.930493,41.896669],[-7.935351,41.879951],[-7.944756,41.866955],[-7.963359,41.866619],[-7.979431,41.868608],[-7.993642,41.863673],[-8.005889,41.853958],[-8.015708,41.841892],[-8.048574,41.816389],[-8.050446,41.815986],[-8.093481,41.806726],[-8.179574,41.810705],[-8.179265,41.812613],[-8.175388,41.836595],[-8.177041,41.84985],[-8.184586,41.85773],[-8.220398,41.868195],[-8.231715,41.886049],[-8.230216,41.904678],[-8.220708,41.922714],[-8.182132,41.965424],[-8.15296,41.986818],[-8.123918,42.0009],[-8.108028,42.010899],[-8.097356,42.023483],[-8.095083,42.040923],[-8.103196,42.055806],[-8.11844,42.066865],[-8.137612,42.072911],[-8.158386,42.071387],[-8.176163,42.065263],[-8.191304,42.062085]]]}},{"type":"Feature","properties":{"id":"ES-PO","country":"ES","name_en":"Pontevedra"},"geometry":{"type":"Polygon","coordinates":[[[-8.222362,42.15363],[-8.252334,42.137584],[-8.270679,42.132003],[-8.287836,42.131435],[-8.29538,42.130091],[-8.304269,42.125828],[-8.329952,42.108439],[-8.346747,42.101695],[-8.501208,42.083091],[-8.520018,42.077717],[-8.554434,42.060069],[-8.572805,42.054411],[-8.609418,42.053662],[-8.626885,42.051026],[-8.643886,42.041492],[-8.652568,42.031441],[-8.663213,42.009892],[-8.67081,41.999815],[-8.691274,41.989609],[-8.717008,41.983769],[-8.739591,41.975113],[-8.750803,41.96898],[-8.761952,41.952582],[-8.777089,41.937161],[-8.7954,41.925686],[-8.815989,41.92121],[-8.832834,41.913967],[-8.848785,41.899482],[-8.864654,41.888902],[-8.881256,41.893297],[-8.878733,41.907131],[-8.89859,42.101752],[-8.895497,42.119086],[-8.884592,42.126044],[-8.84496,42.126614],[-8.826527,42.13052],[-8.819081,42.139716],[-8.82372,42.14761],[-8.842763,42.154446],[-8.846995,42.160834],[-8.84203,42.164293],[-8.815989,42.174506],[-8.813466,42.178697],[-8.811025,42.188137],[-8.805776,42.197496],[-8.795237,42.201728],[-8.790639,42.204535],[-8.771962,42.222235],[-8.719553,42.252346],[-8.706451,42.256415],[-8.701894,42.258531],[-8.669911,42.280911],[-8.652008,42.286322],[-8.631744,42.29682],[-8.625152,42.301947],[-8.621653,42.310207],[-8.621653,42.340806],[-8.622711,42.34748],[-8.626454,42.348334],[-8.634755,42.346381],[-8.649892,42.335598],[-8.660756,42.316799],[-8.674794,42.299018],[-8.699574,42.291164],[-8.719838,42.287584],[-8.773915,42.268988],[-8.784983,42.260077],[-8.795766,42.258246],[-8.848297,42.260972],[-8.867502,42.256415],[-8.863637,42.268988],[-8.853424,42.291083],[-8.853261,42.304836],[-8.846995,42.304836],[-8.832997,42.28913],[-8.827219,42.296698],[-8.826527,42.329047],[-8.828521,42.337226],[-8.830719,42.34162],[-8.82726,42.344143],[-8.812856,42.346381],[-8.776926,42.340155],[-8.771962,42.342719],[-8.764638,42.355699],[-8.726877,42.388739],[-8.709828,42.400377],[-8.676869,42.416449],[-8.662506,42.426907],[-8.655263,42.441352],[-8.664377,42.437974],[-8.672515,42.438422],[-8.682525,42.441352],[-8.691274,42.440619],[-8.694488,42.439643],[-8.696767,42.437974],[-8.718821,42.427965],[-8.743642,42.413235],[-8.757639,42.407213],[-8.779368,42.402899],[-8.811025,42.400702],[-8.843577,42.403713],[-8.867502,42.4147],[-8.875722,42.425971],[-8.880238,42.445014],[-8.88801,42.455634],[-8.90095,42.461005],[-8.935455,42.465399],[-8.942616,42.469306],[-8.935048,42.479071],[-8.916737,42.487616],[-8.895985,42.493883],[-8.881256,42.496568],[-8.869008,42.493394],[-8.860829,42.485012],[-8.861155,42.475572],[-8.874338,42.469306],[-8.865549,42.465033],[-8.851552,42.460761],[-8.836985,42.45893],[-8.826527,42.461859],[-8.822499,42.472357],[-8.825185,42.484117],[-8.825063,42.49494],[-8.812856,42.502753],[-8.825185,42.537421],[-8.826527,42.554633],[-8.822987,42.569525],[-8.813832,42.581448],[-8.801584,42.589301],[-8.788401,42.59219],[-8.775502,42.604722],[-8.738759,42.666083],[-8.730946,42.688422],[-8.716337,42.706455],[-8.645432,42.725517],[-8.608748,42.717804],[-8.603475,42.719419],[-8.602025,42.722166],[-8.601651,42.726297],[-8.599663,42.732086],[-8.594126,42.738436],[-8.578053,42.745874],[-8.502335,42.75607],[-8.472342,42.743248],[-8.458291,42.742018],[-8.445371,42.744292],[-8.42164,42.756762],[-8.392032,42.78949],[-8.353327,42.780152],[-8.34222,42.783986],[-8.335914,42.791424],[-8.333431,42.801421],[-8.333848,42.812957],[-8.33932,42.831666],[-8.339616,42.83694],[-8.335958,42.842675],[-8.329322,42.845718],[-8.321752,42.846113],[-8.315314,42.843938],[-8.308953,42.836786],[-8.304361,42.828294],[-8.298835,42.821636],[-8.289661,42.820032],[-8.262294,42.833765],[-8.252066,42.836303],[-8.220711,42.829041],[-8.209945,42.8307],[-8.204627,42.834292],[-8.192191,42.847619],[-8.174448,42.853013],[-8.049215,42.834534],[-8.032834,42.836456],[-7.999809,42.84886],[-7.964455,42.842356],[-7.981572,42.795082],[-7.978518,42.781151],[-7.932254,42.739953],[-7.912281,42.729856],[-7.88041,42.722012],[-7.868149,42.713212],[-7.868248,42.698161],[-7.887331,42.678275],[-7.890924,42.66763],[-7.893,42.635308],[-7.930804,42.578454],[-7.958215,42.568467],[-7.984241,42.571796],[-7.992613,42.570247],[-8.012685,42.545385],[-8.018673,42.542067],[-8.067144,42.552042],[-8.146674,42.548593],[-8.173778,42.571928],[-8.21413,42.539979],[-8.248869,42.531421],[-8.302823,42.490255],[-8.340572,42.49231],[-8.339012,42.485235],[-8.342286,42.432544],[-8.334145,42.412703],[-8.318643,42.389159],[-8.317006,42.383985],[-8.318973,42.366582],[-8.318105,42.360836],[-8.286431,42.323845],[-8.276005,42.318506],[-8.261976,42.315232],[-8.275478,42.278516],[-8.274522,42.266398],[-8.268436,42.256686],[-8.245947,42.236295],[-8.235631,42.231813],[-8.164868,42.245908],[-8.179611,42.209873],[-8.183357,42.173116],[-8.222362,42.15363]]]}}]}
