{"type":"FeatureCollection","features":[{"type":"Feature","properties":{"id":"IN-GJ","country":"IN","name_en":"Gujarat"},"geometry":{"type":"Polygon","coordinates":[[[70.996679,24.356602],[71.007118,24.363966],[71.014352,24.375206],[71.025101,24.38629],[71.073057,24.402103],[71.082772,24.411508],[71.07502,24.436417],[71.040087,24.446778],[71.00009,24.452901],[70.977145,24.464942],[70.974355,24.472202],[70.973114,24.479644],[70.973218,24.48724],[70.974768,24.494966],[70.977145,24.515068],[70.980504,24.521889],[70.981899,24.52853],[70.980866,24.534731],[70.977145,24.54039],[70.957767,24.556022],[70.954821,24.584521],[70.962779,24.615785],[70.977145,24.639686],[71.043343,24.669064],[71.063858,24.682577],[71.056632,24.69282],[71.086752,24.687434],[71.129747,24.66095],[71.222351,24.636817],[71.235063,24.635964],[71.251496,24.636817],[71.266999,24.647359],[71.280022,24.653508],[71.296041,24.658263],[71.321983,24.662319],[71.335936,24.660045],[71.35826,24.650485],[71.378414,24.646661],[71.393503,24.648935],[71.408696,24.655317],[71.438978,24.676194],[71.449624,24.681853],[71.469054,24.686426],[71.545845,24.688054],[71.57189,24.686245],[71.59101,24.681905],[71.609614,24.6679],[71.620053,24.662087],[71.637002,24.657643],[71.651885,24.658004],[71.750897,24.678132],[71.762783,24.676582],[71.768881,24.671001],[71.771464,24.661131],[71.775805,24.650434],[71.784797,24.64307],[71.807845,24.636119],[71.821487,24.635706],[71.828722,24.638264],[71.830479,24.643767],[71.829342,24.657022],[71.829652,24.663327],[71.83358,24.671182],[71.841434,24.678442],[71.856834,24.684928],[71.867376,24.686555],[71.876678,24.685574],[71.883086,24.681853],[71.893317,24.667771],[71.901482,24.661828],[71.920499,24.656945],[71.934762,24.658159],[71.947888,24.662629],[71.957396,24.669786],[71.973416,24.687589],[71.97879,24.691491],[71.986748,24.695289],[72.034498,24.706503],[72.050931,24.708363],[72.061059,24.701645],[72.068811,24.690328],[72.080696,24.668598],[72.099403,24.656557],[72.172784,24.634001],[72.20627,24.630073],[72.265905,24.635422],[72.302491,24.643664],[72.318511,24.645421],[72.327503,24.642165],[72.332464,24.635086],[72.333394,24.627076],[72.332154,24.621185],[72.328433,24.617154],[72.320061,24.613821],[72.308589,24.61147],[72.261667,24.60824],[72.255776,24.606535],[72.250712,24.603641],[72.247198,24.599532],[72.248748,24.592711],[72.255363,24.584055],[72.275206,24.568397],[72.288952,24.561214],[72.303112,24.557726],[72.314894,24.557571],[72.330707,24.555866],[72.338458,24.552714],[72.342386,24.548321],[72.34528,24.539924],[72.349207,24.532379],[72.356028,24.524679],[72.3644,24.522044],[72.373081,24.522044],[72.385691,24.524369],[72.397266,24.525222],[72.413596,24.522974],[72.418557,24.517289],[72.419694,24.50977],[72.41773,24.50096],[72.41742,24.499022],[72.418763,24.488816],[72.421967,24.481297],[72.432096,24.46445],[72.440778,24.446157],[72.449149,24.434814],[72.457004,24.43055],[72.464962,24.429698],[72.471577,24.431403],[72.476434,24.433961],[72.479535,24.436648],[72.482636,24.440266],[72.484806,24.443754],[72.500929,24.49605],[72.503616,24.500805],[72.50558,24.50375],[72.50806,24.506463],[72.514882,24.509615],[72.525114,24.511605],[72.544544,24.510132],[72.555706,24.50667],[72.599528,24.480056],[72.615651,24.474656],[72.629913,24.471762],[72.648827,24.46967],[72.658335,24.466801],[72.667637,24.460936],[72.673528,24.453521],[72.679109,24.444322],[72.690581,24.416675],[72.696163,24.407554],[72.703914,24.399906],[72.717557,24.390243],[72.73368,24.384274],[72.747012,24.380657],[72.796208,24.377479],[72.835689,24.37691],[72.860907,24.371898],[72.897391,24.360581],[72.91124,24.360115],[72.924572,24.363397],[72.949687,24.379417],[72.954958,24.384946],[72.958679,24.390062],[72.960746,24.396031],[72.961469,24.401043],[72.961366,24.411327],[72.961986,24.415513],[72.96395,24.420396],[72.96705,24.423962],[72.969738,24.42807],[72.971081,24.43254],[72.972011,24.439645],[72.972218,24.453443],[72.972838,24.458223],[72.974492,24.464192],[72.978833,24.472176],[72.98431,24.480108],[72.994542,24.490056],[72.99971,24.493286],[73.004981,24.494164],[73.014903,24.49481],[73.029786,24.497368],[73.062032,24.507367],[73.079705,24.509124],[73.091074,24.507212],[73.095001,24.503647],[73.096552,24.501115],[73.097275,24.499719],[73.099652,24.492743],[73.100996,24.485095],[73.100996,24.463417],[73.098722,24.442514],[73.090144,24.420784],[73.089834,24.4159],[73.091591,24.410965],[73.097275,24.404299],[73.105026,24.398744],[73.115155,24.394351],[73.165695,24.378383],[73.173446,24.377711],[73.179544,24.379649],[73.186158,24.384713],[73.1967,24.390475],[73.203935,24.391095],[73.211997,24.387426],[73.216027,24.379701],[73.216648,24.36903],[73.21334,24.356136],[73.207966,24.34668],[73.200318,24.3396],[73.19267,24.336138],[73.180887,24.33327],[73.165695,24.33327],[73.151742,24.334691],[73.141613,24.336706],[73.137169,24.335931],[73.135102,24.330557],[73.134069,24.321539],[73.130761,24.313477],[73.12239,24.305364],[73.113708,24.299318],[73.107507,24.29229],[73.080325,24.226842],[73.077535,24.214336],[73.079292,24.204311],[73.094381,24.179558],[73.101616,24.15943],[73.107197,24.149586],[73.117325,24.138992],[73.140063,24.128657],[73.148228,24.122843],[73.161974,24.106823],[73.169415,24.101914],[73.189466,24.093749],[73.196597,24.086566],[73.200731,24.078634],[73.203935,24.062795],[73.207966,24.054036],[73.229773,24.029515],[73.245586,24.015537],[73.255818,24.014917],[73.294679,24.038817],[73.303671,24.045458],[73.312662,24.056],[73.31969,24.067524],[73.331266,24.093827],[73.338087,24.103025],[73.346769,24.108115],[73.354107,24.104731],[73.388523,24.057472],[73.395965,24.042228],[73.398755,24.02905],[73.398342,24.007527],[73.398755,24.002308],[73.399375,23.999827],[73.406197,23.98572],[73.418186,23.968615],[73.42387,23.940942],[73.418289,23.935568],[73.405783,23.926705],[73.391314,23.919393],[73.375398,23.908954],[73.368163,23.899627],[73.364029,23.889085],[73.363409,23.876837],[73.365579,23.851929],[73.365062,23.839579],[73.356897,23.794362],[73.358138,23.78736],[73.361652,23.784233],[73.394931,23.785887],[73.403303,23.783949],[73.411674,23.779221],[73.418599,23.770927],[73.424387,23.7601],[73.430898,23.74284],[73.43896,23.729405],[73.449708,23.719793],[73.462731,23.714703],[73.489086,23.710491],[73.497974,23.706357],[73.502728,23.701706],[73.50986,23.691397],[73.51079,23.684498],[73.508619,23.678038],[73.504485,23.669512],[73.502005,23.659306],[73.501695,23.634268],[73.499834,23.619541],[73.500765,23.607319],[73.504175,23.602642],[73.51358,23.599852],[73.524432,23.603107],[73.536525,23.611143],[73.556472,23.628971],[73.566394,23.635405],[73.57983,23.635173],[73.594402,23.627395],[73.615383,23.60179],[73.620551,23.582592],[73.619104,23.56156],[73.615383,23.544455],[73.61652,23.524973],[73.621791,23.512338],[73.629542,23.498153],[73.631713,23.48774],[73.629646,23.474459],[73.618794,23.451876],[73.627165,23.438699],[73.666129,23.441825],[73.676878,23.436528],[73.698375,23.416323],[73.710674,23.415031],[73.789533,23.43981],[73.803485,23.438802],[73.811857,23.434616],[73.818161,23.424255],[73.855575,23.369556],[73.885444,23.339222],[73.895676,23.335113],[73.904461,23.333382],[73.911592,23.334571],[73.91986,23.336974],[73.925442,23.340126],[73.929162,23.344079],[73.931643,23.34842],[73.93557,23.357567],[73.938464,23.362192],[73.946422,23.362269],[73.959548,23.358833],[73.995721,23.330308],[74.030035,23.297674],[74.083675,23.271526],[74.097524,23.260028],[74.105792,23.247677],[74.107446,23.235533],[74.106102,23.222278],[74.106102,23.207266],[74.108996,23.191117],[74.121915,23.170214],[74.134731,23.161429],[74.14672,23.15807],[74.157262,23.160008],[74.16522,23.162773],[74.171731,23.166493],[74.184754,23.1775],[74.193125,23.177164],[74.205941,23.172074],[74.23333,23.1559],[74.244905,23.141301],[74.252553,23.128821],[74.256377,23.118408],[74.274154,23.09009],[74.281595,23.085439],[74.292861,23.080943],[74.301543,23.075749],[74.308054,23.069471],[74.316115,23.054872],[74.323453,23.036062],[74.343917,22.986918],[74.354976,22.898939],[74.359317,22.883797],[74.365001,22.874961],[74.370582,22.87279],[74.377094,22.87217],[74.384742,22.873281],[74.392493,22.876459],[74.400865,22.881601],[74.412544,22.879637],[74.4266,22.871628],[74.451921,22.840932],[74.459052,22.822457],[74.458122,22.804112],[74.37637,22.651047],[74.368929,22.641176],[74.360247,22.632417],[74.350118,22.624588],[74.338026,22.618],[74.330171,22.615235],[74.317872,22.613607],[74.292137,22.613995],[74.280769,22.612238],[74.272707,22.609654],[74.19757,22.5556],[74.161189,22.516662],[74.151474,22.510306],[74.139899,22.50581],[74.129667,22.503872],[74.119745,22.504389],[74.063108,22.5209],[74.05763,22.521365],[74.050395,22.520538],[74.042437,22.51643],[74.033445,22.509634],[74.024867,22.491341],[74.025694,22.47961],[74.036029,22.468474],[74.081814,22.42783],[74.098144,22.416927],[74.113027,22.410674],[74.124396,22.410958],[74.164393,22.41672],[74.196536,22.414937],[74.221547,22.409433],[74.23457,22.403362],[74.243562,22.394783],[74.245732,22.385611],[74.244492,22.375405],[74.239634,22.365844],[74.23426,22.358894],[74.224338,22.349205],[74.211729,22.340497],[74.196536,22.332694],[74.180103,22.327087],[74.148684,22.321041],[74.136798,22.320912],[74.126876,22.323005],[74.120055,22.326958],[74.105792,22.340497],[74.098454,22.345846],[74.091426,22.348688],[74.084915,22.349411],[74.078404,22.34799],[74.072203,22.344295],[74.065691,22.33489],[74.059387,22.320628],[74.05639,22.294169],[74.05856,22.276754],[74.063831,22.258306],[74.065588,22.24518],[74.064141,22.215388],[74.066208,22.205622],[74.071479,22.197793],[74.088222,22.183814],[74.096387,22.173505],[74.106516,22.152369],[74.111063,22.135523],[74.114164,22.112449],[74.117264,22.102036],[74.123259,22.093277],[74.132457,22.084466],[74.140622,22.07147],[74.141862,22.062814],[74.129047,22.024651],[74.12884,21.951761],[74.06104,21.940315],[73.974637,21.90117],[73.965026,21.887786],[73.942701,21.874608],[73.917587,21.866883],[73.8995,21.869828],[73.870871,21.854661],[73.832941,21.843551],[73.824156,21.842155],[73.809376,21.836471],[73.797594,21.813423],[73.796044,21.805155],[73.796767,21.794484],[73.805035,21.766527],[73.806069,21.75384],[73.803485,21.739784],[73.807516,21.724514],[73.815681,21.714153],[73.82736,21.707409],[73.837178,21.697591],[73.839142,21.682191],[73.8286,21.650927],[73.810927,21.634726],[73.792736,21.626742],[73.762041,21.623771],[73.754082,21.618836],[73.751602,21.611033],[73.757183,21.596305],[73.763281,21.585659],[73.792736,21.552587],[73.800178,21.540468],[73.811237,21.518041],[73.815577,21.51153],[73.820848,21.508326],[73.827256,21.509049],[73.856402,21.520883],[73.923891,21.531322],[73.954897,21.543776],[73.995928,21.555325],[74.018976,21.558891],[74.037889,21.55933],[74.108996,21.552612],[74.119435,21.554835],[74.125119,21.559408],[74.128737,21.56486],[74.131837,21.567779],[74.137212,21.569717],[74.146513,21.570699],[74.155505,21.568839],[74.161499,21.566229],[74.169354,21.560054],[74.175555,21.553233],[74.182583,21.547419],[74.191575,21.545507],[74.229609,21.552432],[74.239634,21.555377],[74.248833,21.55964],[74.265369,21.569536],[74.272914,21.57274],[74.279838,21.574032],[74.28542,21.573102],[74.28883,21.570647],[74.291311,21.566307],[74.297202,21.553078],[74.299579,21.545507],[74.300819,21.53698],[74.299992,21.527911],[74.296788,21.520185],[74.291517,21.513855],[74.280769,21.505406],[74.264956,21.496363],[74.240564,21.486131],[74.108686,21.451559],[74.098248,21.450913],[74.087395,21.452877],[74.063418,21.462695],[74.053496,21.465718],[74.04223,21.461791],[74.030448,21.452102],[74.00709,21.427245],[73.991897,21.416187],[73.974431,21.406859],[73.960168,21.394379],[73.946422,21.373502],[73.929472,21.308519],[73.91862,21.291569],[73.909629,21.286918],[73.853715,21.267772],[73.841312,21.265808],[73.832011,21.268495],[73.816611,21.283507],[73.808446,21.285885],[73.800074,21.280949],[73.792736,21.264878],[73.77744,21.216638],[73.766898,21.203796],[73.755633,21.197156],[73.744471,21.195089],[73.733205,21.191265],[73.723387,21.186278],[73.714705,21.180594],[73.698065,21.165582],[73.696102,21.164677],[73.693001,21.164884],[73.68742,21.166434],[73.680289,21.169173],[73.671607,21.171628],[73.662615,21.172481],[73.653727,21.170233],[73.646595,21.166512],[73.639154,21.164522],[73.632023,21.165918],[73.576936,21.194598],[73.566704,21.197595],[73.558332,21.198112],[73.553475,21.195477],[73.551924,21.190671],[73.552751,21.184831],[73.559882,21.174186],[73.5974,21.139899],[73.633986,21.119383],[73.65166,21.11853],[73.664269,21.119254],[73.675431,21.123285],[73.684629,21.12375],[73.695171,21.122639],[73.705093,21.118711],[73.714292,21.111993],[73.725867,21.097188],[73.730518,21.087731],[73.7423,21.073107],[73.77465,21.062126],[73.789843,21.058482],[73.798628,21.048612],[73.814337,21.025177],[73.832837,21.003705],[73.84741,20.990347],[73.859502,20.982285],[73.868287,20.974767],[73.875005,20.962778],[73.884617,20.926527],[73.894539,20.907458],[73.902911,20.883868],[73.911489,20.806276],[73.911179,20.790359],[73.909008,20.775709],[73.904978,20.762686],[73.89888,20.750956],[73.889165,20.740646],[73.839762,20.705326],[73.81103,20.676904],[73.809686,20.66985],[73.81196,20.65153],[73.810306,20.639309],[73.806276,20.626442],[73.800488,20.615409],[73.792323,20.606184],[73.780541,20.599389],[73.763901,20.59373],[73.736926,20.581044],[73.712845,20.566471],[73.699822,20.562414],[73.647629,20.559159],[73.637914,20.560554],[73.629956,20.563861],[73.623031,20.571148],[73.599467,20.604582],[73.586031,20.615409],[73.569494,20.624865],[73.538902,20.638766],[73.501488,20.664605],[73.495907,20.667395],[73.487122,20.670496],[73.481024,20.673725],[73.475753,20.678712],[73.464694,20.703052],[73.46025,20.710648],[73.453532,20.717211],[73.447228,20.720028],[73.43896,20.719149],[73.433999,20.716281],[73.429038,20.71039],[73.418289,20.683699],[73.404233,20.66985],[73.371677,20.659489],[73.364649,20.652667],[73.364132,20.648456],[73.366509,20.641919],[73.3724,20.638611],[73.380048,20.636906],[73.38966,20.636518],[73.396792,20.635588],[73.403716,20.633599],[73.406817,20.630317],[73.408884,20.62471],[73.411984,20.601844],[73.413948,20.595978],[73.416945,20.592593],[73.42201,20.59032],[73.427694,20.58895],[73.439476,20.587633],[73.443817,20.586677],[73.446401,20.584067],[73.448571,20.579804],[73.450638,20.573835],[73.4587,20.538023],[73.453739,20.520298],[73.44206,20.495545],[73.392864,20.418496],[73.364649,20.38227],[73.360721,20.369377],[73.363512,20.362995],[73.367233,20.358913],[73.376328,20.3562],[73.380152,20.353642],[73.383252,20.348707],[73.385423,20.341058],[73.386663,20.332661],[73.387283,20.318347],[73.394104,20.270391],[73.392554,20.255922],[73.389144,20.244372],[73.380048,20.228326],[73.377878,20.218637],[73.378498,20.209955],[73.383873,20.194194],[73.383149,20.186313],[73.377878,20.180319],[73.363822,20.178304],[73.355037,20.179311],[73.337777,20.18373],[73.271838,20.193419],[73.262536,20.190938],[73.255405,20.186365],[73.247447,20.175332],[73.244966,20.16678],[73.244553,20.160243],[73.245586,20.152724],[73.244966,20.145825],[73.243313,20.138642],[73.237732,20.131381],[73.231014,20.125723],[73.216648,20.117971],[73.202282,20.113243],[73.19298,20.111021],[73.166315,20.114871],[73.170035,20.164532],[73.164454,20.170759],[73.154739,20.177838],[73.119186,20.182438],[73.114018,20.181663],[73.109677,20.178639],[73.106267,20.171689],[73.104716,20.163705],[73.103786,20.151406],[73.102236,20.146807],[73.096345,20.142673],[73.086113,20.139236],[73.065752,20.138254],[73.05366,20.142208],[73.045599,20.148874],[73.041775,20.157736],[73.03392,20.192411],[73.03361,20.19807],[73.03392,20.202876],[73.035573,20.208198],[73.037434,20.212048],[73.040948,20.216389],[73.046839,20.221324],[73.112158,20.254914],[73.117636,20.260288],[73.12115,20.26698],[73.123217,20.278142],[73.121356,20.284163],[73.117015,20.28716],[73.109057,20.287341],[73.099342,20.285429],[73.090557,20.285015],[73.082496,20.286178],[73.074124,20.291733],[73.071333,20.296643],[73.07185,20.303903],[73.074331,20.313282],[73.076294,20.327958],[73.071333,20.335632],[73.065132,20.337338],[73.057277,20.334754],[73.049939,20.330258],[73.017797,20.304187],[72.997643,20.293594],[72.991958,20.293051],[72.985447,20.29424],[72.974492,20.298503],[72.968187,20.29809],[72.963536,20.295247],[72.958886,20.287961],[72.945346,20.255922],[72.942866,20.253544],[72.936355,20.252847],[72.927053,20.253932],[72.91062,20.257549],[72.902662,20.258273],[72.89553,20.255922],[72.89243,20.251839],[72.888709,20.244217],[72.887985,20.23861],[72.888709,20.233055],[72.891706,20.227396],[72.896667,20.221505],[72.903798,20.215924],[72.921472,20.204994],[72.929533,20.198457],[72.935424,20.191869],[72.939352,20.184298],[72.941522,20.177451],[72.944623,20.137996],[72.947207,20.127402],[72.897597,20.107145],[72.872586,20.101797],[72.856256,20.101667],[72.830831,20.104045],[72.822977,20.101822],[72.816569,20.098334],[72.810884,20.093037],[72.80582,20.092546],[72.782566,20.101745],[72.776881,20.101487],[72.770783,20.099652],[72.758071,20.091565],[72.75156,20.08619],[72.732026,20.0757],[72.708102,20.072644],[72.710297,20.082913],[72.728282,20.129462],[72.734548,20.173529],[72.737641,20.184272],[72.752289,20.203762],[72.755626,20.215155],[72.753591,20.218207],[72.749034,20.218329],[72.744395,20.219387],[72.741954,20.225043],[72.741954,20.245551],[72.743012,20.247748],[72.74822,20.280341],[72.756602,20.295966],[72.767833,20.311957],[72.777517,20.330064],[72.781586,20.352281],[72.786794,20.35224],[72.798188,20.35932],[72.810313,20.368842],[72.817068,20.375922],[72.818112,20.37877],[72.818159,20.378765],[72.838973,20.376316],[72.866038,20.380827],[72.881826,20.392104],[72.884081,20.419169],[72.87957,20.439467],[72.863783,20.462021],[72.847044,20.468298],[72.847004,20.468313],[72.879161,20.512437],[72.886485,20.531562],[72.890391,20.55268],[72.891449,20.575141],[72.890636,20.587063],[72.886241,20.608466],[72.885265,20.619208],[72.888438,20.628485],[72.902599,20.641913],[72.905772,20.653306],[72.909434,20.698676],[72.90797,20.718329],[72.898936,20.732164],[72.940278,20.759426],[72.946788,20.759467],[72.944998,20.770006],[72.936371,20.776272],[72.926443,20.780992],[72.919444,20.787421],[72.919119,20.7956],[72.922862,20.80268],[72.924978,20.810614],[72.919444,20.821519],[72.900238,20.79914],[72.885753,20.807115],[72.880138,20.829901],[72.888438,20.851955],[72.900401,20.868109],[72.893809,20.870063],[72.881196,20.865668],[72.875336,20.862494],[72.836925,20.835842],[72.845876,20.851793],[72.854259,20.887152],[72.864919,20.897284],[72.836681,20.929918],[72.856456,20.947984],[72.886485,20.962104],[72.888438,20.982611],[72.875987,20.98135],[72.85377,20.974921],[72.832693,20.972357],[72.82309,20.982611],[72.8213,20.991604],[72.816091,20.99901],[72.80836,21.003974],[72.799327,21.005845],[72.787608,21.006903],[72.781993,21.010159],[72.771983,21.023871],[72.766856,21.03856],[72.783946,21.040432],[72.82309,21.03384],[72.844981,21.038316],[72.849864,21.048],[72.815929,21.121487],[72.809581,21.130032],[72.799571,21.128811],[72.755626,21.109565],[72.752778,21.113715],[72.746349,21.118354],[72.741954,21.123236],[72.737641,21.117377],[72.735606,21.110745],[72.734548,21.092475],[72.730154,21.087836],[72.700369,21.074774],[72.705821,21.10635],[72.720551,21.129706],[72.728689,21.148098],[72.714041,21.16413],[72.706554,21.157701],[72.686697,21.158149],[72.676443,21.153632],[72.672699,21.145738],[72.671886,21.134426],[72.673025,21.112616],[72.671235,21.099799],[72.666352,21.097398],[72.658702,21.097602],[72.637869,21.085395],[72.629649,21.087958],[72.615001,21.105862],[72.615489,21.119818],[72.630382,21.135972],[72.693533,21.178453],[72.711762,21.194037],[72.721039,21.198798],[72.734548,21.19892],[72.723643,21.209133],[72.687673,21.220445],[72.679861,21.22899],[72.673188,21.239081],[72.659353,21.244696],[72.646983,21.253607],[72.645763,21.273383],[72.625173,21.259345],[72.618419,21.252916],[72.60613,21.266588],[72.602061,21.277655],[72.597911,21.307563],[72.588634,21.331977],[72.586762,21.341213],[72.590505,21.348538],[72.603201,21.352729],[72.63852,21.357164],[72.645763,21.362779],[72.638682,21.371243],[72.623383,21.370266],[72.594086,21.362779],[72.578868,21.367011],[72.567638,21.37641],[72.564626,21.38581],[72.573741,21.390082],[72.635102,21.407457],[72.672862,21.428127],[72.676443,21.431627],[72.728282,21.465806],[72.747081,21.452867],[72.752615,21.463568],[72.748546,21.479641],[72.738292,21.482856],[72.683279,21.465806],[72.66505,21.457221],[72.612478,21.421861],[72.583669,21.417426],[72.589854,21.432766],[72.61964,21.487372],[72.635102,21.499335],[72.651052,21.507025],[72.690115,21.540676],[72.703949,21.548407],[72.726817,21.553168],[72.75115,21.565131],[72.773204,21.580512],[72.789073,21.595526],[72.810395,21.635077],[72.82309,21.643948],[72.833995,21.644477],[72.858735,21.6376],[72.871593,21.636542],[72.889659,21.64053],[72.935557,21.658352],[72.965343,21.678778],[73.022472,21.698554],[73.084972,21.729682],[73.108165,21.733344],[73.116954,21.73725],[73.126964,21.746772],[73.132009,21.757799],[73.12615,21.766832],[73.118826,21.764716],[73.083995,21.746405],[73.046641,21.733344],[73.041026,21.73017],[73.022472,21.71601],[73.012462,21.712836],[72.991466,21.708441],[72.950206,21.689154],[72.926931,21.684963],[72.882823,21.69302],[72.858165,21.694973],[72.840343,21.688381],[72.819184,21.675035],[72.798106,21.673529],[72.755626,21.684963],[72.733246,21.687486],[72.676443,21.678127],[72.653005,21.680569],[72.634939,21.684638],[72.616059,21.685452],[72.570486,21.670478],[72.550304,21.666693],[72.534679,21.672919],[72.528494,21.695136],[72.532074,21.713853],[72.550141,21.751939],[72.556326,21.774319],[72.562755,21.839423],[72.566905,21.849351],[72.58546,21.858873],[72.598806,21.881008],[72.618419,21.925116],[72.634044,21.937486],[72.65211,21.941067],[72.690115,21.938788],[72.702322,21.947577],[72.706798,21.966132],[72.714041,21.982978],[72.734548,21.986558],[72.734548,21.994045],[72.72641,21.995754],[72.7199,21.996324],[72.713715,21.995795],[72.707774,21.994045],[72.700938,21.988918],[72.69752,21.982123],[72.695649,21.975898],[72.693533,21.972317],[72.623057,21.96662],[72.611583,21.955512],[72.602712,21.94359],[72.581798,21.928168],[72.558604,21.915269],[72.542735,21.910834],[72.533376,21.920315],[72.507091,21.962307],[72.50172,21.97602],[72.504568,21.994208],[72.517751,22.032131],[72.522227,22.054267],[72.521495,22.066148],[72.519542,22.077541],[72.519542,22.088446],[72.53004,22.107489],[72.533376,22.118557],[72.535899,22.14053],[72.542166,22.156724],[72.557384,22.176663],[72.57545,22.194525],[72.590505,22.205024],[72.614106,22.211737],[72.634451,22.210395],[72.652354,22.202338],[72.669607,22.18891],[72.681895,22.181586],[72.691661,22.181952],[72.699718,22.184963],[72.707774,22.185777],[72.719412,22.182196],[72.729259,22.177436],[72.74822,22.164049],[72.790212,22.217231],[72.812266,22.234117],[72.847423,22.240424],[72.865082,22.233466],[72.881114,22.220404],[72.897227,22.213039],[72.916026,22.22309],[72.92213,22.236518],[72.922699,22.254584],[72.917491,22.27143],[72.905772,22.281399],[72.899669,22.269192],[72.886078,22.262397],[72.869477,22.262397],[72.854259,22.270819],[72.838634,22.276557],[72.818207,22.273424],[72.798676,22.26557],[72.785411,22.256903],[72.756602,22.24372],[72.726573,22.248928],[72.659434,22.273912],[72.646495,22.273912],[72.635265,22.271633],[72.625011,22.271389],[72.606619,22.28384],[72.596365,22.286933],[72.573741,22.288235],[72.553071,22.282457],[72.521169,22.253119],[72.50172,22.240424],[72.479015,22.233385],[72.466156,22.232571],[72.457042,22.236721],[72.454845,22.245307],[72.46697,22.255845],[72.463878,22.263983],[72.448741,22.266832],[72.432302,22.255845],[72.413748,22.246324],[72.391856,22.253485],[72.386241,22.266506],[72.381033,22.289944],[72.380382,22.312405],[72.388194,22.322333],[72.404959,22.332953],[72.408051,22.353461],[72.397227,22.366767],[72.371349,22.355902],[72.361013,22.343451],[72.34962,22.324368],[72.340505,22.303209],[72.336599,22.284817],[72.328298,22.260728],[72.309093,22.257229],[72.288341,22.261298],[72.275157,22.260321],[72.263194,22.276353],[72.265961,22.28734],[72.264659,22.295233],[72.240408,22.301907],[72.223399,22.303168],[72.208507,22.300442],[72.200938,22.291449],[72.206309,22.273912],[72.161794,22.280951],[72.148774,22.277899],[72.166026,22.260321],[72.190684,22.251288],[72.209239,22.259426],[72.240408,22.288235],[72.246104,22.27558],[72.243175,22.265937],[72.237315,22.256293],[72.234141,22.243557],[72.239106,22.238918],[72.268321,22.226752],[72.306488,22.22956],[72.317231,22.184882],[72.307628,22.079006],[72.298025,22.061672],[72.295665,22.051174],[72.291759,22.053412],[72.283458,22.043606],[72.276134,22.031643],[72.275157,22.027533],[72.25766,22.012152],[72.24936,22.008287],[72.237315,22.007025],[72.220958,22.010972],[72.216482,22.007799],[72.214366,21.994045],[72.206309,21.994045],[72.19988,22.006985],[72.19516,22.003648],[72.191173,21.993638],[72.186371,21.986558],[72.182465,21.982733],[72.173106,21.975653],[72.163422,21.973212],[72.15919,21.98314],[72.151703,21.993883],[72.134288,22.004584],[72.11378,22.010565],[72.097016,22.007025],[72.119314,21.993638],[72.128103,21.983547],[72.124848,21.972317],[72.114919,21.969387],[72.076508,21.979722],[72.08253,21.973375],[72.104503,21.959215],[72.104828,21.951483],[72.102061,21.945054],[72.096202,21.94302],[72.087413,21.948432],[72.073253,21.954495],[72.055186,21.953518],[72.038422,21.947577],[72.028656,21.938788],[72.087576,21.919664],[72.104503,21.91767],[72.1421,21.924994],[72.156505,21.925849],[72.145356,21.91767],[72.145356,21.910834],[72.15919,21.904608],[72.152354,21.897854],[72.16977,21.890448],[72.167328,21.879136],[72.160004,21.865912],[72.162608,21.852851],[72.169444,21.841376],[72.161876,21.839179],[72.13087,21.846259],[72.123302,21.853746],[72.111339,21.869859],[72.098481,21.88052],[72.077647,21.894436],[72.057953,21.898749],[72.049327,21.880439],[72.052908,21.876532],[72.061534,21.873114],[72.071788,21.870795],[72.080333,21.869859],[72.086436,21.865627],[72.104503,21.835761],[72.086762,21.830268],[72.062836,21.834377],[72.004161,21.857733],[71.997325,21.854926],[71.99464,21.839504],[71.994151,21.812201],[71.996104,21.799506],[72.001475,21.787909],[72.005382,21.792955],[72.009613,21.7956],[72.021821,21.800971],[72.021495,21.79442],[72.022309,21.780911],[72.021821,21.774319],[72.054942,21.78559],[72.073904,21.788723],[72.087413,21.784491],[72.103201,21.775214],[72.117442,21.776597],[72.166026,21.793931],[72.171072,21.790961],[72.172699,21.777737],[72.177013,21.766669],[72.195811,21.757799],[72.200043,21.750067],[72.202403,21.748114],[72.214366,21.712836],[72.219005,21.706],[72.223806,21.700588],[72.230235,21.69599],[72.240408,21.691718],[72.251801,21.690904],[72.263031,21.692328],[72.271739,21.690904],[72.278331,21.671942],[72.285411,21.665025],[72.292491,21.659491],[72.295665,21.653876],[72.296641,21.642157],[72.298513,21.633979],[72.298839,21.626288],[72.295665,21.616034],[72.292003,21.611762],[72.279145,21.600531],[72.275157,21.595526],[72.242198,21.48078],[72.2199,21.444729],[72.16684,21.392076],[72.15919,21.373277],[72.151622,21.360175],[72.116059,21.32274],[72.104503,21.315009],[72.110037,21.304836],[72.111501,21.296088],[72.107758,21.289984],[72.097016,21.287665],[72.10255,21.2744],[72.099376,21.26496],[72.093598,21.258205],[72.090831,21.252916],[72.093516,21.243557],[72.104503,21.222154],[72.104747,21.205064],[72.090831,21.191474],[72.084809,21.188707],[72.07545,21.185696],[72.066661,21.181342],[72.062836,21.174709],[72.055024,21.168362],[71.990733,21.136379],[71.972423,21.13227],[71.92628,21.130032],[71.806163,21.062079],[71.788585,21.047512],[71.76295,21.032294],[71.743663,21.027574],[71.730235,21.030707],[71.717621,21.03205],[71.699743,21.021306],[71.68336,21.011461],[71.639985,20.996812],[71.583507,20.958238],[71.549571,20.951239],[71.557302,20.96601],[71.562348,20.972968],[71.569347,20.979193],[71.551117,20.973578],[71.536794,20.964301],[71.493419,20.929145],[71.484386,20.917141],[71.480724,20.900377],[71.46225,20.885321],[71.378103,20.859442],[71.318614,20.849311],[71.140636,20.765692],[71.116954,20.766913],[71.110118,20.759467],[71.09547,20.763739],[71.083263,20.756537],[71.072602,20.745673],[71.062348,20.738959],[71.044444,20.740546],[71.024181,20.744534],[71.00766,20.741604],[71.005951,20.736558],[70.999153,20.738825],[70.99095,20.739571],[70.982002,20.73808],[70.976036,20.73286],[70.971562,20.724657],[70.971562,20.715709],[70.972992,20.709621],[70.902531,20.70552],[70.84018,20.70189],[70.819672,20.702948],[70.801606,20.709052],[70.785167,20.722154],[70.774587,20.727362],[70.763194,20.724555],[70.751638,20.719631],[70.740245,20.718492],[70.730805,20.723212],[70.698578,20.746405],[70.562174,20.799767],[70.541515,20.807847],[70.484141,20.84394],[70.463064,20.848863],[70.451427,20.855902],[70.417003,20.890448],[70.398774,20.90351],[70.336681,20.927069],[70.299978,20.958564],[70.26352,20.980414],[70.152192,21.078518],[70.054445,21.153155],[69.968019,21.258055],[69.966156,21.263414],[69.958263,21.273342],[69.911632,21.315009],[69.844981,21.389594],[69.814708,21.433661],[69.808604,21.465806],[69.788748,21.469306],[69.771495,21.47842],[69.756358,21.490424],[69.629731,21.616034],[69.568207,21.650133],[69.552745,21.665188],[69.519786,21.704779],[69.49936,21.720201],[69.478526,21.752631],[69.4463,21.766303],[69.427419,21.781236],[69.397716,21.815253],[69.391775,21.83218],[69.395193,21.861314],[69.39088,21.876695],[69.367849,21.856106],[69.355479,21.853176],[69.336192,21.862454],[69.243907,21.94595],[69.21225,21.967475],[69.198416,21.979722],[69.150645,22.041205],[69.119314,22.062079],[69.103038,22.076361],[69.092052,22.099595],[69.048188,22.157904],[69.012543,22.185614],[68.994151,22.203925],[68.980479,22.235541],[68.953298,22.276028],[68.944591,22.295071],[68.944021,22.318264],[68.951427,22.334866],[68.960623,22.349514],[68.965017,22.366767],[68.967621,22.387193],[68.974376,22.404731],[68.983246,22.419379],[68.992931,22.431586],[69.007498,22.443183],[69.047537,22.464016],[69.073578,22.481879],[69.081391,22.480536],[69.085216,22.472886],[69.082286,22.45954],[69.074474,22.449449],[69.056,22.44184],[69.048188,22.431586],[69.062266,22.407701],[69.071788,22.399482],[69.088552,22.396877],[69.097423,22.398871],[69.11378,22.407864],[69.122732,22.411078],[69.132009,22.410468],[69.139822,22.407131],[69.146983,22.404853],[69.154633,22.407701],[69.168793,22.42064],[69.178559,22.427639],[69.188243,22.426418],[69.202159,22.414862],[69.20574,22.398668],[69.18214,22.366441],[69.185313,22.349677],[69.169688,22.327948],[69.173839,22.308295],[69.19044,22.292304],[69.212087,22.281399],[69.212087,22.273912],[69.286469,22.284613],[69.335704,22.306138],[69.346446,22.324897],[69.359874,22.329169],[69.435395,22.33039],[69.468923,22.337836],[69.479666,22.342231],[69.485362,22.347561],[69.500011,22.366767],[69.502696,22.37226],[69.508556,22.374254],[69.515147,22.37519],[69.519867,22.377631],[69.525645,22.392076],[69.522797,22.403876],[69.516938,22.416083],[69.513682,22.431586],[69.515961,22.448147],[69.521983,22.44892],[69.530772,22.446112],[69.541026,22.452094],[69.547862,22.452094],[69.559825,22.411526],[69.561697,22.391588],[69.554698,22.377631],[69.569021,22.370551],[69.601085,22.363837],[69.616059,22.355902],[69.617442,22.365058],[69.619884,22.371039],[69.629731,22.383775],[69.640391,22.375963],[69.647227,22.380439],[69.652354,22.389879],[69.657725,22.396877],[69.661306,22.400214],[69.665212,22.404975],[69.669444,22.409247],[69.674653,22.411078],[69.680837,22.409613],[69.694509,22.403957],[69.699392,22.404283],[69.708995,22.418891],[69.725352,22.464545],[69.733409,22.480048],[69.742198,22.472968],[69.788748,22.423163],[69.794932,22.418606],[69.806977,22.420966],[69.812999,22.429511],[69.816905,22.440985],[69.822276,22.452094],[69.833263,22.463813],[69.841807,22.466376],[69.851085,22.465237],[69.86378,22.465766],[69.884776,22.473578],[69.905284,22.486396],[69.962087,22.535346],[69.972992,22.541449],[69.973888,22.539984],[69.996267,22.541449],[70.002696,22.543158],[70.020844,22.555121],[70.059093,22.558417],[70.144705,22.547797],[70.178477,22.561957],[70.189708,22.577786],[70.207286,22.614976],[70.234874,22.648871],[70.267263,22.705959],[70.319102,22.778266],[70.323253,22.787665],[70.321544,22.811713],[70.32252,22.822659],[70.32545,22.826321],[70.342947,22.843166],[70.375255,22.902655],[70.387706,22.912014],[70.404633,22.919501],[70.43686,22.954901],[70.45338,22.96662],[70.462738,22.966539],[70.474294,22.964057],[70.486339,22.96369],[70.497569,22.970038],[70.504731,22.97956],[70.51238,22.995347],[70.517914,23.003892],[70.527192,23.023586],[70.528494,23.047065],[70.523692,23.07038],[70.514903,23.089545],[70.50294,23.104397],[70.484223,23.122138],[70.467133,23.129706],[70.459646,23.114],[70.450938,23.105658],[70.410655,23.086005],[70.398774,23.069037],[70.398936,23.059068],[70.401052,23.045396],[70.40447,23.033352],[70.410981,23.023179],[70.401866,22.999254],[70.402029,22.99022],[70.403819,22.981879],[70.403494,22.967841],[70.401622,22.953843],[70.398774,22.945502],[70.392426,22.940863],[70.384532,22.93887],[70.363536,22.938707],[70.357677,22.936713],[70.352387,22.933051],[70.34669,22.931301],[70.339529,22.935289],[70.334483,22.940131],[70.330414,22.943305],[70.325694,22.945014],[70.319102,22.945502],[70.314626,22.943508],[70.308767,22.939765],[70.303477,22.938137],[70.300059,22.944281],[70.29363,22.951402],[70.291759,22.95303],[70.269298,22.958564],[70.258311,22.971869],[70.249685,22.987454],[70.233084,23.000149],[70.231944,22.974921],[70.222016,22.959174],[70.204112,22.952216],[70.178477,22.95303],[70.171723,22.951972],[70.167735,22.949123],[70.163097,22.948961],[70.154307,22.956041],[70.150727,22.961005],[70.149669,22.964301],[70.147472,22.966051],[70.140636,22.96662],[70.12908,22.969306],[70.125011,22.975979],[70.126231,22.984809],[70.130626,22.993964],[70.109548,22.959174],[70.120453,22.952582],[70.132335,22.941067],[70.135427,22.929999],[70.120128,22.925035],[70.061778,22.918199],[69.996918,22.893785],[69.940684,22.886135],[69.884288,22.867825],[69.852875,22.863593],[69.833181,22.858466],[69.806814,22.845282],[69.780121,22.82746],[69.760102,22.808336],[69.728852,22.754828],[69.715831,22.746894],[69.694347,22.749701],[69.653819,22.760484],[69.585704,22.761176],[69.575694,22.76435],[69.556977,22.77851],[69.544444,22.781684],[69.510753,22.780504],[69.500011,22.781684],[69.489431,22.784735],[69.482595,22.788479],[69.477306,22.79206],[69.472179,22.794664],[69.424653,22.804267],[69.405935,22.813666],[69.372569,22.818996],[69.338145,22.833075],[69.23878,22.841946],[69.201915,22.85224],[69.13559,22.888373],[69.039887,22.950507],[68.866222,23.019965],[68.691254,23.13052],[68.660655,23.154242],[68.654063,23.157782],[68.650645,23.162055],[68.651134,23.171454],[68.649669,23.180854],[68.622569,23.191555],[68.609141,23.206773],[68.599946,23.225043],[68.595714,23.240383],[68.598318,23.236965],[68.609386,23.226711],[68.620128,23.245429],[68.62322,23.256171],[68.623057,23.267646],[68.605317,23.259589],[68.57781,23.255276],[68.552257,23.259711],[68.541026,23.278225],[68.561046,23.316107],[68.568533,23.318427],[68.599132,23.322252],[68.606944,23.325588],[68.603038,23.332831],[68.592052,23.340074],[68.57838,23.343411],[68.571056,23.346381],[68.566661,23.352973],[68.563731,23.359931],[68.561046,23.363918],[68.555186,23.363959],[68.548513,23.361518],[68.543142,23.358588],[68.541026,23.357001],[68.52947,23.363105],[68.520681,23.369208],[68.515147,23.377021],[68.513194,23.388088],[68.515147,23.399319],[68.520763,23.407538],[68.529552,23.411933],[68.541026,23.411689],[68.536388,23.421332],[68.530121,23.425686],[68.522146,23.42475],[68.513194,23.418524],[68.501475,23.423285],[68.49643,23.417873],[68.490489,23.409329],[68.475352,23.404853],[68.462576,23.409125],[68.458832,23.419827],[68.461111,23.433173],[68.465505,23.445787],[68.451915,23.43773],[68.44044,23.434272],[68.430919,23.436591],[68.423676,23.445787],[68.432953,23.465888],[68.447439,23.487454],[68.465587,23.505276],[68.48585,23.514106],[68.481293,23.525133],[68.475597,23.524115],[68.468028,23.519843],[68.458669,23.52147],[68.454112,23.526272],[68.444021,23.541205],[68.437348,23.548814],[68.441417,23.53205],[68.447439,23.516343],[68.446951,23.502997],[68.431163,23.493598],[68.411632,23.494696],[68.406098,23.508734],[68.410818,23.548814],[68.404959,23.597602],[68.408865,23.621324],[68.427501,23.631415],[68.471528,23.618638],[68.491466,23.618842],[68.492686,23.6376],[68.486176,23.641425],[68.476899,23.63935],[68.468761,23.640815],[68.465505,23.65526],[68.469412,23.659247],[68.488943,23.664781],[68.504731,23.674221],[68.523936,23.67593],[68.533539,23.679185],[68.538829,23.684027],[68.554698,23.706488],[68.583507,23.735297],[68.601736,23.748684],[68.637869,23.761542],[68.654552,23.799058],[68.670746,23.815741],[68.680186,23.817776],[68.715587,23.815741],[68.725597,23.818915],[68.745128,23.833075],[68.756521,23.836249],[68.768809,23.841132],[68.821625,23.878404],[68.805675,23.884426],[68.78004,23.874091],[68.766938,23.878404],[68.740245,23.853461],[68.717784,23.84101],[68.691905,23.836656],[68.654063,23.836249],[68.633474,23.833075],[68.623057,23.824408],[68.609386,23.795233],[68.598888,23.781887],[68.587738,23.775702],[68.554698,23.768541],[68.538341,23.761298],[68.52475,23.752021],[68.51002,23.744086],[68.47283,23.737494],[68.449718,23.723334],[68.427745,23.714301],[68.410818,23.700507],[68.34197,23.623969],[68.351573,23.617825],[68.353038,23.610663],[68.348888,23.60342],[68.34197,23.596625],[68.327322,23.5869],[68.317638,23.586127],[68.308116,23.589057],[68.294119,23.590399],[68.230805,23.58808],[68.181407,23.594062],[68.1574,23.600816],[68.143403,23.612698],[68.150076,23.631415],[68.154145,23.63231],[68.174327,23.631415],[68.178233,23.634345],[68.181895,23.647854],[68.184255,23.651923],[68.19809,23.659084],[68.209321,23.662746],[68.220063,23.659247],[68.232677,23.645006],[68.245128,23.659125],[68.261892,23.661444],[68.27589,23.665839],[68.280447,23.685981],[68.258962,23.674709],[68.240977,23.674018],[68.224864,23.681871],[68.208751,23.696234],[68.19752,23.714545],[68.195811,23.733466],[68.197927,23.753404],[68.197765,23.774807],[68.178233,23.754299],[68.168142,23.747463],[68.163748,23.757717],[68.166026,23.773179],[68.175629,23.798245],[68.179698,23.82746],[68.182465,23.835761],[68.183035,23.842108],[68.183517,23.8433],[68.207288,23.877019],[68.21504,23.881748],[68.23292,23.889111],[68.239948,23.893116],[68.243049,23.893426],[68.252867,23.891695],[68.256794,23.891928],[68.26036,23.895545],[68.257931,23.899473],[68.253746,23.90278],[68.251937,23.904821],[68.253074,23.911229],[68.25266,23.920091],[68.254934,23.929109],[68.263926,23.93593],[68.274003,23.937687],[68.277672,23.933501],[68.280049,23.925724],[68.286198,23.916371],[68.300409,23.910505],[68.314052,23.915906],[68.325989,23.927791],[68.335033,23.940995],[68.333689,23.948048],[68.329865,23.958151],[68.330433,23.966574],[68.342629,23.968564],[68.348882,23.964611],[68.352396,23.956549],[68.353843,23.94717],[68.353636,23.939289],[68.385469,23.960425],[68.431564,23.967143],[68.547836,23.966316],[68.646435,23.965696],[68.724466,23.965179],[68.725086,24.10406],[68.725551,24.208911],[68.725913,24.289216],[68.747307,24.331177],[68.79919,24.329085],[68.813815,24.30844],[68.819654,24.250304],[68.838774,24.236455],[68.848903,24.244025],[68.880116,24.297355],[68.883268,24.305365],[68.885077,24.313556],[68.890296,24.319473],[68.904197,24.320584],[68.913189,24.317251],[68.921974,24.310507],[68.929415,24.302368],[68.94869,24.270277],[68.962643,24.257228],[68.980781,24.255394],[69.007808,24.264567],[69.048477,24.285237],[69.067701,24.288441],[69.091886,24.281904],[69.148213,24.25666],[69.166713,24.253172],[69.206246,24.258572],[69.280815,24.283739],[69.563071,24.276762],[69.59232,24.264618],[69.670558,24.188706],[69.714587,24.168578],[69.769054,24.162557],[69.972039,24.165219],[70.015964,24.174055],[70.052137,24.202064],[70.062989,24.220306],[70.087174,24.28255],[70.097871,24.298828],[70.109705,24.3049],[70.144586,24.307897],[70.202205,24.325571],[70.222773,24.326707],[70.242565,24.330609],[70.2791,24.355078],[70.29853,24.363424],[70.353204,24.366266],[70.370774,24.372364],[70.416353,24.401948],[70.520946,24.424919],[70.562907,24.424092],[70.575206,24.400036],[70.569211,24.389882],[70.551952,24.379366],[70.546474,24.373139],[70.545647,24.362183],[70.555362,24.327018],[70.56022,24.287253],[70.567661,24.272809],[70.584714,24.2579],[70.621508,24.241157],[70.755453,24.231442],[70.776021,24.236687],[70.813589,24.254464],[70.834105,24.261285],[70.851468,24.264877],[70.857566,24.271672],[70.844543,24.288286],[70.840926,24.30583],[70.856532,24.323814],[70.917717,24.361718],[70.936321,24.367196],[70.955338,24.365904],[70.977145,24.357248],[70.996679,24.356602]]]}}]}
