{"type":"FeatureCollection","features":[{"type":"Feature","properties":{"id":"CH-TI","country":"CH","name_en":"Ticino"},"geometry":{"type":"Polygon","coordinates":[[[8.728974,46.108236],[8.723891,46.109538],[8.71769,46.107523],[8.702187,46.097963],[8.695055,46.095172],[8.677485,46.095792],[8.630873,46.114706],[8.611546,46.119357],[8.601831,46.122819],[8.538682,46.187621],[8.51026,46.207878],[8.482665,46.217542],[8.456517,46.224828],[8.43812,46.23537],[8.427165,46.251442],[8.423237,46.275833],[8.426648,46.301568],[8.442874,46.353373],[8.446285,46.382183],[8.445768,46.412362],[8.441634,46.434945],[8.427888,46.44869],[8.399156,46.452179],[8.385907,46.450206],[8.385876,46.450602],[8.385566,46.454581],[8.384636,46.462074],[8.387116,46.468533],[8.391302,46.475665],[8.396418,46.482383],[8.397038,46.484553],[8.396728,46.486517],[8.395488,46.488481],[8.395953,46.490858],[8.399209,46.493157],[8.408045,46.495043],[8.43099,46.496955],[8.447629,46.504552],[8.47693,46.531837],[8.509848,46.550854],[8.512173,46.556047],[8.516049,46.562585],[8.5238,46.578501],[8.526281,46.580904],[8.529692,46.583074],[8.537133,46.584547],[8.548657,46.584986],[8.6363,46.571163],[8.6779,46.583591],[8.711231,46.573023],[8.788384,46.56814],[8.847347,46.575245],[8.898093,46.58925],[8.907705,46.594159],[8.909875,46.597466],[8.909255,46.600722],[8.907085,46.603822],[8.905999,46.608318],[8.90755,46.613331],[8.914836,46.620359],[8.921812,46.623046],[8.929564,46.625113],[8.939227,46.626612],[8.947444,46.632089],[8.953025,46.632348],[8.95597,46.630642],[8.957056,46.625371],[8.959846,46.62041],[8.964807,46.614829],[8.99881,46.612504],[9.003771,46.611083],[9.010748,46.608137],[9.022065,46.604882],[9.035242,46.596174],[9.037723,46.593849],[9.038498,46.590722],[9.036482,46.586872],[9.029041,46.577183],[9.02563,46.571266],[9.02284,46.564031],[9.021134,46.557779],[9.019119,46.545893],[9.017569,46.540519],[9.016019,46.53654],[9.015243,46.533465],[9.021445,46.514215],[9.02408,46.508893],[9.027026,46.504294],[9.037723,46.49184],[9.048575,46.480884],[9.055603,46.478714],[9.057773,46.479592],[9.062269,46.480832],[9.077307,46.482331],[9.088779,46.467397],[9.089089,46.461428],[9.088624,46.453341],[9.086609,46.442385],[9.088314,46.434014],[9.092035,46.427011],[9.096995,46.420216],[9.097771,46.416134],[9.095445,46.411767],[9.09219,46.402078],[9.088004,46.393913],[9.089089,46.363682],[9.085523,46.356757],[9.070175,46.33681],[9.06847,46.330066],[9.069245,46.323426],[9.070951,46.317173],[9.069245,46.312316],[9.065214,46.305804],[9.056998,46.298983],[9.056533,46.294926],[9.058083,46.289966],[9.066145,46.275961],[9.076532,46.261621],[9.077152,46.2579],[9.077462,46.252914],[9.074516,46.240072],[9.076377,46.234801],[9.079632,46.229556],[9.087539,46.22059],[9.094205,46.216456],[9.11069,46.208498],[9.131619,46.190798],[9.1403,46.184881],[9.163141,46.173151],[9.163348,46.173099],[9.163788,46.172989],[9.163244,46.172273],[9.090587,46.138167],[9.072087,46.118892],[9.068159,46.105972],[9.07033,46.083441],[9.067126,46.071142],[9.059168,46.061789],[9.049659,46.057913],[9.027748,46.053107],[9.002117,46.03931],[8.997776,46.027941],[9.015553,45.993111],[8.982686,45.971975],[8.980516,45.969495],[8.979793,45.966911],[8.980516,45.964379],[8.982686,45.961847],[8.993435,45.95425],[9.001703,45.93606],[9.010798,45.926655],[9.020514,45.922779],[9.042321,45.919731],[9.051726,45.915545],[9.063095,45.898957],[9.059271,45.881955],[9.034363,45.848107],[9.002427,45.820718],[8.972351,45.824646],[8.939588,45.834826],[8.908885,45.828293],[8.900004,45.826403],[8.903725,45.841802],[8.909719,45.853688],[8.91375,45.86609],[8.912096,45.883402],[8.906515,45.896476],[8.898144,45.90955],[8.88078,45.931099],[8.870962,45.947067],[8.864451,45.953424],[8.857733,45.957093],[8.800372,45.978538],[8.785076,45.982311],[8.767919,45.983086],[8.769573,45.985773],[8.773397,45.990579],[8.790967,46.018691],[8.819596,46.042927],[8.834375,46.066388],[8.80895,46.089746],[8.793861,46.093415],[8.763165,46.092898],[8.747145,46.094449],[8.739497,46.098066],[8.732159,46.107419],[8.728974,46.108236]]]}},{"type":"Feature","properties":{"id":"CH-GR","country":"CH","name_en":"Grisons"},"geometry":{"type":"Polygon","coordinates":[[[9.224831,46.231188],[9.215747,46.221056],[9.204172,46.213563],[9.192183,46.209635],[9.181331,46.204054],[9.17575,46.194132],[9.171099,46.182609],[9.163788,46.172989],[9.163348,46.173099],[9.163141,46.173151],[9.1403,46.184881],[9.131619,46.190798],[9.11069,46.208498],[9.094205,46.216456],[9.087539,46.22059],[9.079632,46.229556],[9.076377,46.234801],[9.074516,46.240072],[9.077462,46.252914],[9.077152,46.2579],[9.076532,46.261621],[9.066145,46.275961],[9.058083,46.289966],[9.056533,46.294926],[9.056998,46.298983],[9.065214,46.305804],[9.069245,46.312316],[9.070951,46.317173],[9.069245,46.323426],[9.06847,46.330066],[9.070175,46.33681],[9.085523,46.356757],[9.089089,46.363682],[9.088004,46.393913],[9.09219,46.402078],[9.095445,46.411767],[9.097771,46.416134],[9.096995,46.420216],[9.092035,46.427011],[9.088314,46.434014],[9.086609,46.442385],[9.088624,46.453341],[9.089089,46.461428],[9.088779,46.467397],[9.077307,46.482331],[9.062269,46.480832],[9.057773,46.479592],[9.055603,46.478714],[9.048575,46.480884],[9.037723,46.49184],[9.027026,46.504294],[9.02408,46.508893],[9.021445,46.514215],[9.015243,46.533465],[9.016019,46.53654],[9.017569,46.540519],[9.019119,46.545893],[9.021134,46.557779],[9.02284,46.564031],[9.02563,46.571266],[9.029041,46.577183],[9.036482,46.586872],[9.038498,46.590722],[9.037723,46.593849],[9.035242,46.596174],[9.022065,46.604882],[9.010748,46.608137],[9.003771,46.611083],[8.99881,46.612504],[8.964807,46.614829],[8.959846,46.62041],[8.957056,46.625371],[8.95597,46.630642],[8.953025,46.632348],[8.947444,46.632089],[8.939227,46.626612],[8.929564,46.625113],[8.921812,46.623046],[8.914836,46.620359],[8.90755,46.613331],[8.905999,46.608318],[8.907085,46.603822],[8.909255,46.600722],[8.909875,46.597466],[8.907705,46.594159],[8.898093,46.58925],[8.847347,46.575245],[8.788384,46.56814],[8.711231,46.573023],[8.6779,46.583591],[8.680845,46.597156],[8.678675,46.605347],[8.673404,46.617491],[8.670923,46.620669],[8.666893,46.622633],[8.662397,46.624157],[8.658986,46.625888],[8.655989,46.629015],[8.653973,46.633071],[8.652733,46.638756],[8.653508,46.644285],[8.660536,46.659969],[8.667823,46.671363],[8.669528,46.676531],[8.669993,46.680484],[8.669218,46.683094],[8.669063,46.68635],[8.672629,46.690535],[8.67945,46.694644],[8.695728,46.69963],[8.705805,46.701129],[8.715623,46.704953],[8.738878,46.725779],[8.7488,46.733013],[8.766318,46.737251],[8.781252,46.733556],[8.785283,46.733272],[8.800321,46.735597],[8.803732,46.737199],[8.807142,46.740558],[8.806212,46.749653],[8.806522,46.750997],[8.807607,46.753167],[8.815669,46.762676],[8.824816,46.770582],[8.826263,46.778954],[8.825591,46.790814],[8.828433,46.793268],[8.835874,46.794508],[8.842851,46.796369],[8.849517,46.80133],[8.860834,46.805619],[8.871686,46.815437],[8.892512,46.814766],[8.902899,46.812156],[8.907705,46.811562],[8.909565,46.8089],[8.91189,46.80226],[8.915766,46.800399],[8.925223,46.800555],[8.980465,46.812285],[9.003151,46.819623],[9.017414,46.828796],[9.0247,46.835384],[9.029661,46.842516],[9.032607,46.847477],[9.035397,46.851533],[9.038188,46.854608],[9.039428,46.858045],[9.039273,46.865718],[9.040048,46.869388],[9.042373,46.871765],[9.04904,46.873987],[9.058858,46.875434],[9.075446,46.8744],[9.085058,46.872075],[9.092345,46.868457],[9.09684,46.864117],[9.105057,46.862049],[9.115031,46.863961],[9.149137,46.880007],[9.163606,46.882152],[9.18252,46.882332],[9.190737,46.884813],[9.196008,46.887138],[9.213061,46.903287],[9.240863,46.92034],[9.256676,46.907576],[9.260241,46.906905],[9.265512,46.90693],[9.269853,46.90861],[9.403798,46.895226],[9.424262,46.888146],[9.435424,46.882332],[9.442556,46.88179],[9.445708,46.88272],[9.448654,46.890937],[9.461211,46.893779],[9.474388,46.909721],[9.477179,46.915121],[9.478264,46.920289],[9.477799,46.925043],[9.4809,46.936929],[9.486016,46.94468],[9.492837,46.953207],[9.497953,46.957496],[9.507306,46.962483],[9.510097,46.966643],[9.513818,46.97597],[9.518468,46.97951],[9.52436,46.981939],[9.531956,46.983334],[9.526375,46.991137],[9.495886,47.026561],[9.484775,47.043227],[9.477179,47.059996],[9.477023,47.063898],[9.499554,47.059351],[9.533134,47.05553],[9.560636,47.0524],[9.581203,47.05687],[9.59991,47.053486],[9.65231,47.05793],[9.669053,47.056199],[9.857982,47.015478],[9.856328,47.004083],[9.860566,47.001602],[9.866767,47.001938],[9.870591,46.998838],[9.870591,46.992947],[9.866457,46.983387],[9.863976,46.959925],[9.860772,46.949151],[9.862426,46.939772],[9.875138,46.927421],[9.899943,46.914398],[10.006913,46.890757],[10.045567,46.865564],[10.068098,46.856624],[10.1113,46.847116],[10.125188,46.846751],[10.13197,46.846573],[10.157808,46.851612],[10.201423,46.86683],[10.211655,46.877036],[10.214342,46.884685],[10.215169,46.893108],[10.219924,46.905769],[10.235116,46.923313],[10.251343,46.92538],[10.270773,46.921892],[10.295681,46.922693],[10.296198,46.941374],[10.313665,46.964318],[10.338883,46.98411],[10.367925,46.995505],[10.373403,46.996254],[10.378984,46.995505],[10.384255,46.993153],[10.384358,46.993153],[10.384358,46.992998],[10.394693,46.985402],[10.415571,46.962406],[10.449574,46.943906],[10.458462,46.936619],[10.463836,46.919747],[10.451434,46.88577],[10.453811,46.864427],[10.44854,46.832233],[10.444923,46.823241],[10.439032,46.816885],[10.417224,46.79885],[10.419085,46.783967],[10.426216,46.76942],[10.428696,46.755648],[10.416604,46.743014],[10.399654,46.735546],[10.395623,46.7264],[10.396554,46.715005],[10.394383,46.70082],[10.384771,46.689012],[10.373919,46.681906],[10.369165,46.672398],[10.377537,46.653277],[10.395623,46.638808],[10.438205,46.635656],[10.459082,46.623564],[10.466627,46.604288],[10.465903,46.578476],[10.457945,46.553697],[10.451829,46.546704],[10.443993,46.537729],[10.425906,46.535326],[10.354282,46.548323],[10.319452,46.546049],[10.306637,46.547496],[10.295371,46.551087],[10.289067,46.555687],[10.283796,46.560725],[10.275941,46.565531],[10.234703,46.575298],[10.230259,46.58615],[10.235737,46.606691],[10.233773,46.617982],[10.217856,46.626974],[10.192122,46.626819],[10.09745,46.608035],[10.087839,46.604392],[10.083498,46.597002],[10.071199,46.564394],[10.062931,46.556746],[10.04133,46.541863],[10.032752,46.532975],[10.031408,46.525792],[10.031201,46.503829],[10.02686,46.493184],[10.028101,46.483934],[10.030478,46.476673],[10.035335,46.471066],[10.044017,46.466984],[10.026344,46.446262],[10.042053,46.432722],[10.071405,46.424816],[10.116157,46.418822],[10.133417,46.414016],[10.140755,46.402905],[10.13321,46.381098],[10.125976,46.37438],[10.104995,46.361357],[10.09745,46.351642],[10.092386,46.338103],[10.091766,46.328956],[10.095797,46.320533],[10.104892,46.309371],[10.14613,46.280277],[10.158945,46.262449],[10.14582,46.243328],[10.117914,46.231133],[10.075746,46.220022],[10.042673,46.220487],[10.041847,46.24307],[10.031718,46.260072],[9.992237,46.284359],[9.977561,46.298105],[9.97105,46.320016],[9.970636,46.339808],[9.964022,46.356086],[9.93901,46.367455],[9.918443,46.37115],[9.899013,46.372158],[9.855398,46.366964],[9.788839,46.343296],[9.768065,46.33862],[9.755249,46.340532],[9.730858,46.350712],[9.720109,46.350893],[9.709257,46.342392],[9.707293,46.330972],[9.708844,46.319629],[9.70843,46.311748],[9.693134,46.297072],[9.674324,46.291801],[9.559705,46.292731],[9.536451,46.298622],[9.515264,46.308596],[9.502551,46.32074],[9.482604,46.35681],[9.473716,46.361874],[9.451598,46.370375],[9.444364,46.375284],[9.4424,46.380891],[9.443847,46.396136],[9.437852,46.492047],[9.434648,46.498326],[9.426794,46.497111],[9.410671,46.488895],[9.403849,46.482513],[9.400335,46.475407],[9.395478,46.469413],[9.384626,46.466416],[9.377081,46.468689],[9.351553,46.485484],[9.350829,46.497861],[9.330986,46.501504],[9.282306,46.49737],[9.263186,46.485122],[9.245823,46.461041],[9.237968,46.436547],[9.24758,46.423033],[9.260912,46.416651],[9.262876,46.406626],[9.260292,46.394017],[9.260396,46.379728],[9.273831,46.344252],[9.275175,46.331385],[9.268974,46.309371],[9.239725,46.266996],[9.224831,46.231188]]]}},{"type":"Feature","properties":{"id":"HR-18","country":"HR","name_en":"Istria"},"geometry":{"type":"Polygon","coordinates":[[[13.64282,45.459448],[13.64292,45.45943],[13.65997,45.459978],[13.759294,45.463169],[13.806526,45.442137],[13.819859,45.432628],[13.835568,45.429114],[13.889002,45.423637],[13.899647,45.429218],[13.908432,45.438881],[13.923005,45.448958],[13.969824,45.462963],[13.98264,45.475313],[13.961452,45.493142],[13.961452,45.50389],[13.964966,45.51097],[13.971891,45.514226],[13.987476,45.511909],[14.013956,45.507973],[14.028322,45.50265],[14.041551,45.493142],[14.066665,45.480274],[14.092917,45.473918],[14.116747,45.472998],[14.117321,45.472976],[14.116224,45.464202],[14.117309,45.459034],[14.120875,45.451024],[14.129867,45.440948],[14.138858,45.434281],[14.192395,45.412319],[14.201232,45.407565],[14.203557,45.403947],[14.201077,45.398108],[14.198131,45.393199],[14.197666,45.385705],[14.199526,45.375577],[14.208983,45.345605],[14.210844,45.335321],[14.210533,45.327776],[14.206503,45.317338],[14.197511,45.303902],[14.195186,45.298321],[14.1941,45.292068],[14.194565,45.275015],[14.202162,45.219566],[14.203092,45.196001],[14.201697,45.186751],[14.201542,45.177966],[14.202627,45.171558],[14.207019,45.165202],[14.211154,45.161533],[14.233995,45.15466],[14.234682,45.154574],[14.23406,45.153062],[14.232595,45.149359],[14.209239,45.12637],[14.179373,45.134508],[14.195323,45.120592],[14.193126,45.105618],[14.180431,45.091457],[14.164399,45.079901],[14.158214,45.087348],[14.154307,45.078925],[14.154063,45.071967],[14.158214,45.053209],[14.154307,45.054999],[14.147472,45.057278],[14.143891,45.059394],[14.143891,45.053209],[14.159434,45.040351],[14.166189,45.018948],[14.163748,44.995754],[14.151378,44.977484],[14.139903,44.97134],[14.131847,44.972073],[14.124197,44.975409],[14.113292,44.977484],[14.101329,44.97427],[14.089692,44.966498],[14.080414,44.957261],[14.075694,44.94953],[14.068858,44.94953],[14.071625,44.969062],[14.0796,44.977932],[14.083832,44.986396],[14.075694,45.004828],[14.054535,45.018459],[14.051524,45.026028],[14.053071,45.033149],[14.051931,45.038031],[14.040294,45.038967],[14.044119,45.027167],[14.039887,45.009426],[14.044281,45.00141],[14.054698,44.996527],[14.064138,44.995754],[14.071544,44.993354],[14.075694,44.98371],[14.064789,44.976142],[14.050792,44.956488],[14.044444,44.951402],[14.040294,44.956366],[14.034679,44.956366],[14.038748,44.949408],[14.040212,44.941067],[14.039073,44.93183],[14.034679,44.922309],[14.026622,44.924058],[14.022472,44.923489],[14.022634,44.9206],[14.027843,44.915432],[14.027843,44.908637],[14.022716,44.908271],[14.021495,44.907375],[14.021739,44.905097],[14.020518,44.901109],[14.01059,44.90526],[13.988455,44.900784],[13.972667,44.901109],[13.980724,44.896552],[13.98585,44.892076],[13.993012,44.881293],[13.986176,44.881293],[13.986176,44.875067],[13.993012,44.875067],[13.993012,44.867621],[13.98585,44.864163],[13.981293,44.859809],[13.972667,44.847154],[13.97462,44.839667],[13.976329,44.83747],[13.976248,44.834906],[13.972667,44.826646],[13.983246,44.827053],[13.989431,44.8251],[13.993988,44.820502],[14.000011,44.813056],[13.963878,44.811835],[13.9463,44.813788],[13.931651,44.820502],[13.929698,44.816352],[13.929535,44.815253],[13.924815,44.813056],[13.918712,44.829047],[13.909679,44.830959],[13.899587,44.829047],[13.890147,44.833482],[13.883149,44.826646],[13.893891,44.823391],[13.904307,44.817288],[13.909353,44.808987],[13.90447,44.798774],[13.913422,44.782416],[13.917979,44.778266],[13.903168,44.772406],[13.899425,44.781968],[13.89975,44.798285],[13.896983,44.813056],[13.889659,44.817084],[13.860037,44.82567],[13.849132,44.826646],[13.851248,44.830024],[13.853852,44.837063],[13.855968,44.840277],[13.852794,44.840766],[13.845551,44.840155],[13.842296,44.840277],[13.849132,44.847154],[13.842296,44.854641],[13.831391,44.852729],[13.815684,44.856594],[13.799327,44.864569],[13.78712,44.875067],[13.794607,44.881293],[13.804861,44.870592],[13.819591,44.867662],[13.833751,44.873358],[13.842296,44.888129],[13.815278,44.883531],[13.804861,44.885403],[13.794607,44.894965],[13.794607,44.901109],[13.798676,44.903957],[13.803477,44.910631],[13.808116,44.915432],[13.796723,44.924872],[13.774099,44.963813],[13.732758,44.99494],[13.681326,45.046373],[13.67335,45.051093],[13.660818,45.061225],[13.643809,45.070502],[13.62322,45.073065],[13.627696,45.079413],[13.633067,45.089423],[13.636892,45.093573],[13.612559,45.117865],[13.63852,45.130032],[13.726248,45.134508],[13.706716,45.141099],[13.683604,45.143378],[13.636892,45.142035],[13.61199,45.136786],[13.600597,45.137274],[13.595958,45.145413],[13.597911,45.155951],[13.600597,45.164618],[13.599376,45.171291],[13.589122,45.175482],[13.593761,45.182278],[13.594412,45.187323],[13.590587,45.191799],[13.582286,45.196601],[13.582286,45.202826],[13.590505,45.206488],[13.594493,45.212633],[13.594249,45.220771],[13.589122,45.230699],[13.595714,45.240546],[13.595225,45.2508],[13.588227,45.259589],[13.57545,45.264879],[13.578787,45.270982],[13.584239,45.276068],[13.592052,45.27912],[13.602712,45.27912],[13.602712,45.285346],[13.59254,45.288804],[13.584646,45.293199],[13.578949,45.299018],[13.57545,45.306464],[13.585704,45.307807],[13.594493,45.311103],[13.609548,45.320136],[13.597911,45.324368],[13.571056,45.325019],[13.561778,45.326361],[13.550629,45.334296],[13.54127,45.346137],[13.540538,45.356757],[13.554942,45.36107],[13.554942,45.367336],[13.543142,45.376166],[13.513357,45.436225],[13.515391,45.438137],[13.518565,45.440334],[13.520763,45.44302],[13.515961,45.447455],[13.515636,45.448147],[13.517833,45.449774],[13.520763,45.457261],[13.504568,45.483873],[13.501475,45.498603],[13.507091,45.511908],[13.513357,45.511908],[13.523123,45.506252],[13.568614,45.49079],[13.589529,45.488837],[13.624107,45.462745],[13.64282,45.459448]]]}},{"type":"Feature","properties":{"id":"SI-090","country":"SI","name_en":"Piran"},"geometry":{"type":"Polygon","coordinates":[[[13.64292,45.45943],[13.64282,45.459448],[13.624107,45.462745],[13.589529,45.488837],[13.591645,45.493109],[13.589122,45.501614],[13.595958,45.511908],[13.595958,45.518134],[13.586192,45.519477],[13.578624,45.523383],[13.572765,45.529975],[13.568614,45.539252],[13.58961,45.535793],[13.610929,45.538025],[13.611449,45.533552],[13.616565,45.525542],[13.61858,45.521614],[13.61889,45.51562],[13.622146,45.506758],[13.628657,45.502184],[13.633463,45.499652],[13.639664,45.493218],[13.639974,45.49097],[13.641679,45.489575],[13.64664,45.48818],[13.654237,45.49066],[13.657492,45.492159],[13.662763,45.50699],[13.68979,45.499445],[13.691495,45.497792],[13.693201,45.495389],[13.688705,45.490867],[13.677698,45.482909],[13.674752,45.477534],[13.672427,45.474201],[13.670876,45.47123],[13.667001,45.46906],[13.666071,45.468801],[13.66142,45.466476],[13.660024,45.460223],[13.65997,45.459978],[13.64292,45.45943]]]}},{"type":"Feature","properties":{"id":"SI-040","country":"SI","name_en":"Izola"},"geometry":{"type":"Polygon","coordinates":[[[13.610929,45.538025],[13.675141,45.544745],[13.674287,45.520684],[13.662763,45.50699],[13.657492,45.492159],[13.654237,45.49066],[13.64664,45.48818],[13.641679,45.489575],[13.639974,45.49097],[13.639664,45.493218],[13.633463,45.499652],[13.628657,45.502184],[13.622146,45.506758],[13.61889,45.51562],[13.61858,45.521614],[13.616565,45.525542],[13.611449,45.533552],[13.610929,45.538025]]]}},{"type":"Feature","properties":{"id":"SI-050","country":"SI","name_en":"Koper"},"geometry":{"type":"Polygon","coordinates":[[[13.800532,45.58125],[13.847764,45.584661],[13.867926,45.602169],[13.870554,45.597475],[13.880011,45.572464],[13.884817,45.56771],[13.894635,45.559778],[13.910448,45.552026],[13.952203,45.545954],[13.983829,45.519547],[13.987395,45.51208],[13.987476,45.511909],[13.971891,45.514226],[13.964966,45.51097],[13.961452,45.50389],[13.961452,45.493142],[13.98264,45.475313],[13.969824,45.462963],[13.923005,45.448958],[13.908432,45.438881],[13.899647,45.429218],[13.889002,45.423637],[13.835568,45.429114],[13.819859,45.432628],[13.806526,45.442137],[13.759294,45.463169],[13.65997,45.459978],[13.660024,45.460223],[13.66142,45.466476],[13.666071,45.468801],[13.667001,45.46906],[13.670876,45.47123],[13.672427,45.474201],[13.674752,45.477534],[13.677698,45.482909],[13.688705,45.490867],[13.693201,45.495389],[13.691495,45.497792],[13.68979,45.499445],[13.662763,45.50699],[13.674287,45.520684],[13.675141,45.544745],[13.75294,45.552883],[13.75294,45.559068],[13.742361,45.56977],[13.727387,45.581204],[13.711762,45.593207],[13.761051,45.596236],[13.800532,45.58125]]]}}]}
