{"type":"FeatureCollection","features":[{"type":"Feature","properties":{"id":"ID-JT","country":"ID","name_en":"Central Java"},"geometry":{"type":"MultiPolygon","coordinates":[[[[108.89512,-6.814155],[108.895193,-6.814223],[108.903575,-6.822198],[108.911876,-6.834893],[108.923025,-6.844659],[108.944835,-6.849379],[108.968923,-6.848321],[108.983409,-6.841729],[108.990733,-6.827895],[108.992686,-6.805352],[109.001313,-6.789158],[109.020844,-6.78867],[109.041515,-6.795587],[109.053477,-6.801528],[109.092052,-6.831476],[109.115489,-6.838556],[109.142833,-6.856215],[109.150401,-6.857029],[109.176931,-6.856215],[109.351899,-6.875665],[109.438243,-6.860121],[109.492931,-6.801528],[109.531993,-6.835138],[109.725597,-6.863051],[109.896332,-6.918227],[109.940684,-6.923435],[109.983897,-6.922621],[110.114268,-6.903904],[110.138845,-6.897149],[110.149587,-6.887302],[110.152843,-6.881768],[110.16977,-6.860935],[110.177501,-6.856215],[110.188324,-6.860284],[110.192068,-6.869806],[110.193533,-6.881117],[110.198009,-6.890883],[110.212576,-6.899998],[110.2588,-6.920994],[110.292979,-6.931248],[110.334646,-6.961358],[110.355724,-6.972914],[110.381033,-6.975681],[110.399099,-6.967869],[110.41505,-6.957452],[110.434581,-6.952407],[110.456065,-6.950942],[110.472423,-6.946384],[110.486176,-6.937921],[110.527029,-6.895196],[110.571544,-6.836196],[110.644705,-6.688165],[110.6574,-6.643976],[110.663259,-6.606052],[110.664806,-6.565362],[110.669688,-6.546319],[110.678477,-6.534601],[110.681895,-6.521905],[110.671072,-6.499933],[110.691661,-6.496026],[110.701996,-6.488702],[110.718761,-6.465753],[110.730479,-6.456964],[110.781098,-6.436456],[110.808116,-6.431736],[110.818126,-6.428155],[110.833751,-6.420668],[110.842296,-6.418064],[110.903168,-6.410821],[110.924815,-6.403741],[110.934093,-6.411065],[110.961762,-6.427911],[110.972504,-6.431736],[110.992198,-6.432306],[111.002452,-6.431248],[111.006847,-6.428318],[111.010753,-6.420994],[111.019298,-6.426365],[111.026703,-6.435317],[111.027843,-6.438409],[111.040863,-6.447361],[111.051768,-6.45672],[111.059255,-6.469903],[111.06544,-6.509373],[111.082367,-6.543878],[111.119314,-6.649672],[111.137055,-6.685479],[111.144379,-6.691827],[111.150564,-6.692966],[111.156912,-6.692071],[111.34254,-6.712823],[111.366384,-6.712009],[111.408051,-6.701755],[111.428722,-6.699151],[111.444102,-6.68906],[111.477794,-6.640313],[111.493419,-6.623468],[111.519867,-6.639907],[111.576996,-6.650974],[111.610118,-6.664972],[111.62143,-6.674574],[111.654633,-6.716241],[111.672699,-6.733657],[111.668512,-6.737573],[111.629342,-6.800101],[111.62159,-6.825991],[111.62097,-6.844388],[111.603503,-6.933995],[111.598491,-6.960763],[111.601953,-7.046805],[111.598129,-7.081428],[111.599421,-7.093262],[111.608981,-7.135585],[111.610221,-7.146489],[111.608309,-7.153982],[111.591618,-7.163903],[111.551207,-7.19925],[111.535962,-7.217595],[111.521648,-7.230359],[111.494156,-7.25072],[111.472762,-7.263484],[111.464804,-7.269323],[111.459843,-7.273768],[111.454572,-7.279865],[111.44651,-7.291699],[111.443823,-7.298521],[111.444288,-7.311233],[111.403826,-7.304257],[111.341814,-7.282191],[111.325898,-7.274284],[111.313185,-7.266068],[111.306054,-7.264156],[111.297579,-7.265706],[111.289311,-7.268858],[111.278149,-7.269168],[111.263886,-7.265293],[111.246006,-7.256301],[111.220271,-7.251392],[111.203321,-7.266791],[111.197378,-7.308598],[111.19805,-7.355365],[111.202391,-7.385492],[111.201978,-7.404974],[111.184976,-7.529101],[111.197637,-7.582638],[111.20606,-7.600569],[111.217481,-7.613333],[111.212158,-7.624289],[111.186888,-7.643512],[111.182392,-7.651677],[111.182134,-7.657879],[111.185648,-7.66439],[111.187508,-7.672555],[111.188025,-7.690486],[111.190609,-7.707436],[111.207869,-7.715549],[111.242492,-7.718857],[111.253964,-7.723146],[111.264609,-7.731724],[111.291068,-7.760301],[111.301093,-7.773324],[111.307811,-7.784331],[111.31024,-7.798542],[111.307914,-7.837816],[111.301403,-7.860915],[111.28466,-7.904375],[111.280267,-7.939205],[111.273291,-7.945199],[111.263369,-7.951246],[111.253034,-7.950626],[111.244094,-7.946336],[111.235309,-7.941014],[111.228022,-7.93812],[111.216964,-7.93998],[111.192469,-7.958067],[111.176553,-7.966904],[111.149164,-7.978066],[111.099245,-8.008503],[111.036406,-8.060386],[110.999716,-8.084002],[110.980337,-8.100177],[110.965196,-8.116869],[110.961269,-8.126325],[110.959615,-8.134284],[110.961269,-8.156608],[110.960907,-8.164514],[110.960235,-8.16994],[110.945662,-8.218826],[110.944422,-8.226113],[110.94435,-8.226372],[110.931,-8.220473],[110.847911,-8.201104],[110.84356,-8.200843],[110.84355,-8.200739],[110.837039,-8.13325],[110.831354,-8.132372],[110.824843,-8.132888],[110.818022,-8.137694],[110.810839,-8.138934],[110.802415,-8.132268],[110.798746,-8.121674],[110.792804,-7.94706],[110.787533,-7.920188],[110.786602,-7.873628],[110.784742,-7.862879],[110.781331,-7.854042],[110.773063,-7.843449],[110.753323,-7.832597],[110.705212,-7.82531],[110.689244,-7.819781],[110.653691,-7.822985],[110.633123,-7.820969],[110.578656,-7.820969],[110.536902,-7.809859],[110.50662,-7.783091],[110.49029,-7.757097],[110.474477,-7.720252],[110.4413,-7.568943],[110.437683,-7.560055],[110.411225,-7.589924],[110.301309,-7.669144],[110.287098,-7.681598],[110.267151,-7.706764],[110.258779,-7.715291],[110.255679,-7.71219],[110.253198,-7.703664],[110.250408,-7.677257],[110.245964,-7.672451],[110.240434,-7.671935],[110.234595,-7.674467],[110.22829,-7.675552],[110.219609,-7.675397],[110.159044,-7.667594],[110.136513,-7.676792],[110.130002,-7.686301],[110.126591,-7.698083],[110.128348,-7.724283],[110.125247,-7.744075],[110.116669,-7.761593],[110.064941,-7.837247],[110.04918,-7.855438],[110.046182,-7.864739],[110.042772,-7.888872],[110.04274,-7.889101],[110.03419,-7.884698],[109.931895,-7.854913],[109.906016,-7.83766],[109.883067,-7.844822],[109.847423,-7.836684],[109.811778,-7.823419],[109.752452,-7.811944],[109.656749,-7.781671],[109.486095,-7.761814],[109.446788,-7.772068],[109.42628,-7.774184],[109.417247,-7.764907],[109.414724,-7.757908],[109.408539,-7.754978],[109.401703,-7.752618],[109.396658,-7.747491],[109.397227,-7.741876],[109.404552,-7.731052],[109.403494,-7.726332],[109.397634,-7.722833],[109.368826,-7.713474],[109.197234,-7.696217],[109.098146,-7.686861],[109.046555,-7.701853],[109.03297,-7.720147],[109.021251,-7.732029],[109.014415,-7.732599],[108.983897,-7.707208],[108.973643,-7.702244],[108.961599,-7.700372],[108.938975,-7.699477],[108.918305,-7.696384],[108.901541,-7.68963],[108.889659,-7.678643],[108.881602,-7.632501],[108.87322,-7.61061],[108.858653,-7.614028],[108.852061,-7.618829],[108.827485,-7.630792],[108.820486,-7.637872],[108.806977,-7.658136],[108.799001,-7.664727],[108.741559,-7.617623],[108.736908,-7.612248],[108.733601,-7.6046],[108.733808,-7.590751],[108.736082,-7.580622],[108.741559,-7.563931],[108.742283,-7.551838],[108.741559,-7.536542],[108.721405,-7.463989],[108.716393,-7.421407],[108.712827,-7.406266],[108.709727,-7.398049],[108.704662,-7.39097],[108.692983,-7.386164],[108.6827,-7.383063],[108.675413,-7.379601],[108.670763,-7.35769],[108.668179,-7.344203],[108.661771,-7.340379],[108.650299,-7.340534],[108.626424,-7.348337],[108.615934,-7.345908],[108.610715,-7.338622],[108.60255,-7.322964],[108.578882,-7.317021],[108.553044,-7.309993],[108.546894,-7.27878],[108.570717,-7.201214],[108.572577,-7.178735],[108.575678,-7.16318],[108.583533,-7.151139],[108.595418,-7.142096],[108.613712,-7.13667],[108.631644,-7.135792],[108.669522,-7.141166],[108.695464,-7.139822],[108.707143,-7.13543],[108.717168,-7.13021],[108.74373,-7.111349],[108.757011,-7.098171],[108.769465,-7.083443],[108.781143,-7.072643],[108.788998,-7.061326],[108.793184,-7.047683],[108.790549,-7.029596],[108.789463,-7.000038],[108.79613,-6.950583],[108.800677,-6.93477],[108.823156,-6.895599],[108.892971,-6.815708],[108.89512,-6.814155]]],[[[109.019298,-7.758071],[109.023692,-7.762384],[109.042735,-7.761489],[109.046641,-7.767999],[109.043142,-7.778904],[109.035818,-7.780369],[109.026215,-7.77752],[108.999278,-7.772882],[108.944835,-7.754327],[108.886078,-7.74391],[108.872813,-7.737237],[108.857432,-7.732029],[108.815278,-7.737726],[108.800141,-7.733819],[108.794119,-7.719415],[108.797048,-7.701593],[108.806895,-7.686212],[108.821544,-7.678643],[108.873871,-7.70322],[108.925059,-7.710382],[108.957774,-7.720147],[109.010997,-7.750258],[109.019298,-7.758071]]],[[[110.431326,-5.837335],[110.459239,-5.831638],[110.465587,-5.839532],[110.463634,-5.85711],[110.44988,-5.874444],[110.437999,-5.881036],[110.430349,-5.873712],[110.426606,-5.861505],[110.421641,-5.851332],[110.420665,-5.843683],[110.431326,-5.837335]]]]}},{"type":"Feature","properties":{"id":"ID-JI","country":"ID","name_en":"East Java"},"geometry":{"type":"MultiPolygon","coordinates":[[[[113.395193,-8.447035],[113.406098,-8.45322],[113.41212,-8.466892],[113.413097,-8.480564],[113.40919,-8.486749],[113.396658,-8.488377],[113.371918,-8.494724],[113.292491,-8.494806],[113.281993,-8.488214],[113.278005,-8.473321],[113.281993,-8.457208],[113.295909,-8.447035],[113.291759,-8.439711],[113.289073,-8.432794],[113.339854,-8.444024],[113.395193,-8.447035]]],[[[111.672699,-6.733657],[111.694998,-6.755141],[111.716807,-6.770685],[111.740408,-6.781671],[111.807302,-6.799493],[111.849457,-6.803888],[111.866222,-6.807794],[111.882335,-6.808689],[111.904307,-6.801528],[111.936534,-6.784926],[111.958507,-6.779392],[111.976248,-6.784845],[112.009939,-6.818617],[112.067882,-6.89365],[112.083995,-6.90602],[112.106944,-6.910821],[112.150645,-6.910089],[112.192882,-6.904555],[112.226573,-6.892673],[112.237071,-6.890883],[112.278168,-6.890883],[112.298676,-6.887465],[112.339692,-6.873142],[112.363536,-6.870538],[112.400076,-6.876723],[112.41505,-6.882501],[112.422374,-6.878839],[112.42921,-6.873224],[112.435232,-6.870538],[112.454845,-6.875421],[112.471202,-6.88714],[112.486013,-6.900567],[112.500743,-6.910821],[112.522716,-6.917657],[112.542817,-6.917576],[112.55714,-6.907892],[112.562836,-6.887302],[112.562185,-6.8742],[112.562511,-6.866795],[112.568126,-6.865411],[112.582774,-6.870538],[112.589854,-6.876072],[112.596202,-6.885186],[112.601085,-6.895603],[112.60377,-6.904555],[112.60255,-6.925958],[112.586681,-6.96559],[112.582774,-6.989923],[112.587169,-6.999607],[112.609548,-7.03338],[112.618012,-7.041192],[112.628673,-7.045343],[112.643321,-7.039483],[112.6574,-7.037856],[112.665782,-7.054864],[112.6338,-7.063735],[112.617686,-7.070571],[112.610606,-7.07936],[112.614106,-7.091241],[112.622569,-7.108494],[112.632823,-7.123793],[112.641612,-7.130548],[112.658376,-7.137628],[112.674653,-7.154474],[112.683849,-7.1749],[112.678966,-7.192641],[112.664317,-7.198826],[112.60377,-7.192641],[112.620128,-7.214939],[112.645518,-7.230157],[112.700694,-7.254653],[112.716319,-7.23919],[112.729503,-7.220473],[112.745128,-7.205173],[112.76824,-7.199395],[112.784434,-7.205499],[112.797862,-7.218927],[112.808604,-7.234552],[112.823253,-7.262628],[112.826671,-7.277927],[112.826345,-7.293227],[112.818126,-7.329522],[112.816173,-7.346938],[112.816091,-7.38714],[112.807465,-7.407322],[112.77003,-7.432712],[112.761485,-7.448907],[112.761485,-7.531183],[112.8449,-7.592869],[112.972016,-7.647638],[112.990489,-7.651951],[113.016287,-7.652276],[113.03712,-7.655043],[113.056,-7.663018],[113.076182,-7.678643],[113.111501,-7.713149],[113.13266,-7.727797],[113.165375,-7.735935],[113.187266,-7.74505],[113.199555,-7.747491],[113.208263,-7.74627],[113.229747,-7.740818],[113.241222,-7.740655],[113.260997,-7.750177],[113.28533,-7.781671],[113.299327,-7.788507],[113.32309,-7.785577],[113.34254,-7.777765],[113.377778,-7.754327],[113.413748,-7.736261],[113.435802,-7.729181],[113.456879,-7.726332],[113.47283,-7.722101],[113.504568,-7.70379],[113.528575,-7.700372],[113.658946,-7.720147],[113.671072,-7.71795],[113.690929,-7.70908],[113.699962,-7.706638],[113.722992,-7.708266],[113.763031,-7.722833],[113.785899,-7.726332],[113.803884,-7.721775],[113.81658,-7.710626],[113.837169,-7.68613],[113.854747,-7.677016],[113.86964,-7.677992],[113.886078,-7.683038],[113.909434,-7.68613],[113.930512,-7.683852],[113.945079,-7.677992],[114.016124,-7.618097],[114.045584,-7.611993],[114.077322,-7.630792],[114.116954,-7.680597],[114.140391,-7.70086],[114.172211,-7.713474],[114.195974,-7.714125],[114.236827,-7.703302],[114.258556,-7.700372],[114.273611,-7.705499],[114.310069,-7.740655],[114.325206,-7.750258],[114.334483,-7.753188],[114.347504,-7.754327],[114.36964,-7.753188],[114.381114,-7.754164],[114.388927,-7.758071],[114.406749,-7.773207],[114.445974,-7.794692],[114.460216,-7.809666],[114.467296,-7.830987],[114.466482,-7.852716],[114.460216,-7.894952],[114.457367,-7.90252],[114.444591,-7.920668],[114.44044,-7.93255],[114.440278,-7.94378],[114.442556,-7.952407],[114.445486,-7.959649],[114.447276,-7.966567],[114.446788,-8.014255],[114.404796,-8.15838],[114.365977,-8.357192],[114.363536,-8.386163],[114.358653,-8.409112],[114.357921,-8.419122],[114.360118,-8.430597],[114.371593,-8.45322],[114.373383,-8.498468],[114.37672,-8.519464],[114.388927,-8.528253],[114.401134,-8.517185],[114.405121,-8.491795],[114.40561,-8.447035],[114.423188,-8.46502],[114.427419,-8.49684],[114.426117,-8.562433],[114.432872,-8.582615],[114.445323,-8.602797],[114.461192,-8.618341],[114.478038,-8.624607],[114.498057,-8.625258],[114.510753,-8.628351],[114.535981,-8.645115],[114.589122,-8.664239],[114.597423,-8.675714],[114.603363,-8.688165],[114.615571,-8.700128],[114.625662,-8.716078],[114.624766,-8.740655],[114.597179,-8.775567],[114.555349,-8.777927],[114.467621,-8.748142],[114.445323,-8.744073],[114.388927,-8.748142],[114.366954,-8.741469],[114.369802,-8.726332],[114.391938,-8.700291],[114.385265,-8.664727],[114.34962,-8.632501],[114.302582,-8.611912],[114.261729,-8.610935],[114.220876,-8.636489],[114.197032,-8.645603],[114.186534,-8.634861],[114.174815,-8.619806],[114.148204,-8.622328],[114.104015,-8.638116],[114.0949,-8.637872],[114.059337,-8.631443],[114.050792,-8.62713],[114.041515,-8.608331],[114.031993,-8.604099],[114.01238,-8.60947],[113.994884,-8.618341],[113.979991,-8.620212],[113.968028,-8.604099],[113.969249,-8.59352],[113.973155,-8.579685],[113.973888,-8.56756],[113.964366,-8.562433],[113.954275,-8.564711],[113.933767,-8.574477],[113.922862,-8.576755],[113.90561,-8.573907],[113.879649,-8.566176],[113.85377,-8.555108],[113.837169,-8.542087],[113.832042,-8.546808],[113.828461,-8.548923],[113.825938,-8.551039],[113.823497,-8.556329],[113.818858,-8.541762],[113.813813,-8.507745],[113.806163,-8.501072],[113.790782,-8.503025],[113.773692,-8.508071],[113.760102,-8.515802],[113.754568,-8.524998],[113.750743,-8.52809],[113.74171,-8.528985],[113.723888,-8.528253],[113.719737,-8.524672],[113.721853,-8.50742],[113.72047,-8.501072],[113.707286,-8.492364],[113.698741,-8.493585],[113.688975,-8.49684],[113.672618,-8.494806],[113.658458,-8.484959],[113.640473,-8.458591],[113.62794,-8.45322],[113.596934,-8.447035],[113.590587,-8.442071],[113.579112,-8.428806],[113.573009,-8.425958],[113.540863,-8.430597],[113.527192,-8.429295],[113.490489,-8.40838],[113.483897,-8.402032],[113.478852,-8.394708],[113.472423,-8.382094],[113.466563,-8.377537],[113.446056,-8.375584],[113.429454,-8.384047],[113.413585,-8.390232],[113.395193,-8.38128],[113.345958,-8.324151],[113.32309,-8.309259],[113.281993,-8.292087],[113.240733,-8.280938],[113.197927,-8.277276],[113.070079,-8.292413],[113.026703,-8.302992],[112.987315,-8.3235],[112.936778,-8.38128],[112.90268,-8.403985],[112.870616,-8.391778],[112.857432,-8.392673],[112.833832,-8.375746],[112.829763,-8.38128],[112.826345,-8.390069],[112.817882,-8.39658],[112.807872,-8.398858],[112.799083,-8.395196],[112.789806,-8.387872],[112.78419,-8.386814],[112.769216,-8.395196],[112.755138,-8.407973],[112.747813,-8.412856],[112.733165,-8.417657],[112.716807,-8.419122],[112.701915,-8.422296],[112.69044,-8.429864],[112.672699,-8.447035],[112.656261,-8.436456],[112.612153,-8.416436],[112.573416,-8.410089],[112.520681,-8.391778],[112.442393,-8.391778],[112.426524,-8.387628],[112.413585,-8.379083],[112.398692,-8.371759],[112.376638,-8.37127],[112.381358,-8.361423],[112.384044,-8.357599],[112.366222,-8.341974],[112.341563,-8.332696],[112.315929,-8.329034],[112.295258,-8.329767],[112.284516,-8.332696],[112.257823,-8.343357],[112.244395,-8.341974],[112.237559,-8.338474],[112.233084,-8.333917],[112.227061,-8.329767],[112.208995,-8.323663],[112.02475,-8.304946],[112.002696,-8.297784],[111.970714,-8.277765],[111.961192,-8.278253],[111.936209,-8.294854],[111.931651,-8.299574],[111.927257,-8.302504],[111.91863,-8.302992],[111.898692,-8.296482],[111.874766,-8.273858],[111.859874,-8.268813],[111.833751,-8.270685],[111.822439,-8.268813],[111.81129,-8.264418],[111.801524,-8.258884],[111.792003,-8.256524],[111.781423,-8.261407],[111.771007,-8.281508],[111.772227,-8.30169],[111.770356,-8.317315],[111.750662,-8.3235],[111.746593,-8.318048],[111.741873,-8.306085],[111.735362,-8.294041],[111.726085,-8.288751],[111.717296,-8.292739],[111.711925,-8.302179],[111.70574,-8.3235],[111.702485,-8.327407],[111.696788,-8.336847],[111.694835,-8.346368],[111.709239,-8.354099],[111.711274,-8.361017],[111.70753,-8.368097],[111.695811,-8.37127],[111.67335,-8.367852],[111.654063,-8.358087],[111.639171,-8.343032],[111.630544,-8.3235],[111.623709,-8.3235],[111.612559,-8.337009],[111.595876,-8.334405],[111.561697,-8.316664],[111.548025,-8.315606],[111.532888,-8.326593],[111.517833,-8.329767],[111.448741,-8.312921],[111.441661,-8.296808],[111.443533,-8.284845],[111.442068,-8.276056],[111.425059,-8.268813],[111.417491,-8.269138],[111.399913,-8.274347],[111.390391,-8.275079],[111.384125,-8.272882],[111.372406,-8.264418],[111.363048,-8.261407],[111.311534,-8.261407],[111.300629,-8.262953],[111.294932,-8.260431],[111.28419,-8.251235],[111.276134,-8.248305],[111.265798,-8.249282],[111.257009,-8.253025],[111.253184,-8.257989],[111.171235,-8.282647],[111.161957,-8.281915],[111.158214,-8.272068],[111.155447,-8.261],[111.148285,-8.253513],[111.138438,-8.2492],[111.127208,-8.247735],[111.114757,-8.241957],[111.111176,-8.229181],[111.109711,-8.215427],[111.103038,-8.206801],[111.095551,-8.208185],[111.090831,-8.215509],[111.087169,-8.225274],[111.082367,-8.233494],[111.072765,-8.247003],[111.066661,-8.252537],[111.058279,-8.254653],[111.017345,-8.254653],[110.99822,-8.250177],[110.94435,-8.226372],[110.944422,-8.226113],[110.945662,-8.218826],[110.960235,-8.16994],[110.960907,-8.164514],[110.961269,-8.156608],[110.959615,-8.134284],[110.961269,-8.126325],[110.965196,-8.116869],[110.980337,-8.100177],[110.999716,-8.084002],[111.036406,-8.060386],[111.099245,-8.008503],[111.149164,-7.978066],[111.176553,-7.966904],[111.192469,-7.958067],[111.216964,-7.93998],[111.228022,-7.93812],[111.235309,-7.941014],[111.244094,-7.946336],[111.253034,-7.950626],[111.263369,-7.951246],[111.273291,-7.945199],[111.280267,-7.939205],[111.28466,-7.904375],[111.301403,-7.860915],[111.307914,-7.837816],[111.31024,-7.798542],[111.307811,-7.784331],[111.301093,-7.773324],[111.291068,-7.760301],[111.264609,-7.731724],[111.253964,-7.723146],[111.242492,-7.718857],[111.207869,-7.715549],[111.190609,-7.707436],[111.188025,-7.690486],[111.187508,-7.672555],[111.185648,-7.66439],[111.182134,-7.657879],[111.182392,-7.651677],[111.186888,-7.643512],[111.212158,-7.624289],[111.217481,-7.613333],[111.20606,-7.600569],[111.197637,-7.582638],[111.184976,-7.529101],[111.201978,-7.404974],[111.202391,-7.385492],[111.19805,-7.355365],[111.197378,-7.308598],[111.203321,-7.266791],[111.220271,-7.251392],[111.246006,-7.256301],[111.263886,-7.265293],[111.278149,-7.269168],[111.289311,-7.268858],[111.297579,-7.265706],[111.306054,-7.264156],[111.313185,-7.266068],[111.325898,-7.274284],[111.341814,-7.282191],[111.403826,-7.304257],[111.444288,-7.311233],[111.443823,-7.298521],[111.44651,-7.291699],[111.454572,-7.279865],[111.459843,-7.273768],[111.464804,-7.269323],[111.472762,-7.263484],[111.494156,-7.25072],[111.521648,-7.230359],[111.535962,-7.217595],[111.551207,-7.19925],[111.591618,-7.163903],[111.608309,-7.153982],[111.610221,-7.146489],[111.608981,-7.135585],[111.599421,-7.093262],[111.598129,-7.081428],[111.601953,-7.046805],[111.598491,-6.960763],[111.603503,-6.933995],[111.62097,-6.844388],[111.62159,-6.825991],[111.629342,-6.800101],[111.668512,-6.737573],[111.672699,-6.733657]]],[[[115.570649,-6.904555],[115.572276,-6.930597],[115.55714,-6.940037],[115.512706,-6.938735],[115.503184,-6.936619],[115.483165,-6.927341],[115.467052,-6.923923],[115.454845,-6.917576],[115.451182,-6.914646],[115.444102,-6.910089],[115.438975,-6.911798],[115.434093,-6.918227],[115.425792,-6.920099],[115.419119,-6.925063],[115.413097,-6.925063],[115.405121,-6.921645],[115.400401,-6.916925],[115.394298,-6.912693],[115.382335,-6.910821],[115.350434,-6.927504],[115.344737,-6.928155],[115.348155,-6.940606],[115.356619,-6.945408],[115.367849,-6.947686],[115.378917,-6.952407],[115.390961,-6.961196],[115.396007,-6.966078],[115.400645,-6.972914],[115.378266,-6.9874],[115.355317,-6.982029],[115.317393,-6.952407],[115.303233,-6.966078],[115.301036,-6.972263],[115.300548,-6.97796],[115.301524,-6.981215],[115.303233,-6.980401],[115.303559,-6.985935],[115.311371,-6.995538],[115.310557,-7.000746],[115.306,-7.004164],[115.29949,-7.007013],[115.293305,-7.007582],[115.290782,-7.004002],[115.28712,-7.003025],[115.265636,-6.983494],[115.26531,-6.976007],[115.27589,-6.938735],[115.238048,-6.942315],[115.221446,-6.939711],[115.214366,-6.928155],[115.218516,-6.904392],[115.22877,-6.891534],[115.242035,-6.880955],[115.255382,-6.863051],[115.244314,-6.846449],[115.255056,-6.838149],[115.275727,-6.835382],[115.294932,-6.835626],[115.379242,-6.834731],[115.460785,-6.842543],[115.483572,-6.851658],[115.553477,-6.889418],[115.570649,-6.904555]]],[[[112.700694,-5.726007],[112.714692,-5.736098],[112.727061,-5.747328],[112.736176,-5.763116],[112.740408,-5.787367],[112.738536,-5.809991],[112.731456,-5.828383],[112.718761,-5.841567],[112.700694,-5.84881],[112.691091,-5.849542],[112.66391,-5.848321],[112.658376,-5.845392],[112.654796,-5.837172],[112.646251,-5.839288],[112.630544,-5.84881],[112.604259,-5.847426],[112.596202,-5.836033],[112.593435,-5.817315],[112.582774,-5.794203],[112.590099,-5.785577],[112.618012,-5.763442],[112.621104,-5.757908],[112.645356,-5.73211],[112.657074,-5.736749],[112.670177,-5.733494],[112.684581,-5.72796],[112.700694,-5.726007]]],[[[114.045665,-6.914646],[114.065684,-6.922621],[114.093536,-6.932657],[114.10979,-6.946898],[114.124801,-6.98161],[114.096686,-6.982879],[114.051104,-7.011431],[113.98113,-7.020685],[113.955568,-7.044949],[113.935583,-7.049914],[113.909979,-7.048063],[113.891875,-7.059225],[113.870655,-7.095177],[113.886256,-7.099515],[113.894999,-7.109432],[113.895356,-7.120538],[113.872813,-7.128839],[113.832533,-7.13202],[113.776716,-7.125256],[113.706248,-7.113613],[113.686668,-7.112642],[113.665212,-7.11004],[113.645327,-7.131134],[113.610052,-7.129187],[113.593379,-7.138901],[113.582767,-7.153486],[113.577284,-7.168368],[113.570446,-7.181896],[113.565882,-7.193623],[113.559489,-7.212117],[113.548984,-7.233778],[113.533941,-7.240102],[113.513425,-7.247782],[113.507058,-7.24011],[113.495213,-7.230637],[113.472471,-7.22205],[113.422699,-7.226739],[113.269054,-7.217462],[113.251231,-7.209649],[113.234386,-7.207615],[113.186534,-7.223321],[113.165538,-7.219903],[113.158702,-7.185235],[113.153168,-7.177423],[113.146332,-7.171563],[113.145763,-7.165785],[113.158702,-7.158461],[113.158702,-7.151056],[113.146007,-7.149591],[113.122325,-7.139418],[113.114268,-7.141209],[113.10963,-7.151462],[113.109711,-7.171482],[113.103363,-7.178888],[113.116384,-7.190688],[113.135265,-7.202732],[113.148692,-7.214776],[113.14503,-7.226739],[113.12794,-7.231052],[112.818126,-7.161391],[112.778087,-7.158461],[112.742524,-7.161391],[112.72641,-7.158787],[112.7199,-7.147882],[112.717052,-7.117608],[112.718761,-7.103285],[112.727306,-7.089532],[112.7199,-7.082778],[112.709972,-7.097345],[112.701345,-7.092055],[112.694998,-7.076104],[112.692638,-7.058526],[112.694509,-7.038995],[112.700938,-7.033298],[112.713634,-7.032403],[112.734141,-7.02809],[112.76352,-7.011],[112.792654,-6.984063],[112.844005,-6.925063],[112.84197,-6.908868],[112.87322,-6.897719],[112.915294,-6.891697],[112.944021,-6.890964],[112.9817,-6.89129],[113.067393,-6.881036],[113.14602,-6.894371],[113.273357,-6.892996],[113.445582,-6.882378],[113.526228,-6.896293],[113.672052,-6.879399],[113.793113,-6.882479],[113.923676,-6.864841],[113.968028,-6.870538],[113.989919,-6.877862],[114.009613,-6.886977],[114.028005,-6.899021],[114.045665,-6.914646]]],[[[114.593761,-7.130548],[114.604747,-7.130629],[114.614594,-7.132094],[114.621837,-7.137302],[114.624522,-7.147882],[114.623057,-7.163263],[114.618826,-7.16725],[114.532725,-7.158461],[114.511241,-7.159275],[114.500173,-7.158298],[114.495372,-7.154718],[114.496349,-7.143813],[114.499197,-7.137872],[114.504649,-7.134373],[114.541026,-7.118585],[114.550059,-7.116876],[114.559093,-7.119073],[114.581309,-7.128351],[114.593761,-7.130548]]],[[[114.369255,-7.089583],[114.383068,-7.113357],[114.396855,-7.131462],[114.394658,-7.157565],[114.391856,-7.178888],[114.378266,-7.178155],[114.35727,-7.167413],[114.331798,-7.159356],[114.325206,-7.147638],[114.306558,-7.148779],[114.292822,-7.143151],[114.284761,-7.126165],[114.273248,-7.101247],[114.269762,-7.080835],[114.294826,-7.054666],[114.322255,-7.050031],[114.342947,-7.055759],[114.357751,-7.069202],[114.369255,-7.089583]]],[[[115.89088,-7.10711],[115.894298,-7.111586],[115.896007,-7.124933],[115.894298,-7.164483],[115.875743,-7.185724],[115.837738,-7.197198],[115.795909,-7.190037],[115.757335,-7.169692],[115.743012,-7.150323],[115.75294,-7.140313],[115.762218,-7.139093],[115.765961,-7.143976],[115.769867,-7.142185],[115.778168,-7.115492],[115.785981,-7.115981],[115.79127,-7.125665],[115.79477,-7.137872],[115.801036,-7.146417],[115.807953,-7.149835],[115.822765,-7.149509],[115.842784,-7.157647],[115.870128,-7.159845],[115.880219,-7.158461],[115.8838,-7.153253],[115.881358,-7.152927],[115.875173,-7.153578],[115.869395,-7.147149],[115.86671,-7.137302],[115.86964,-7.128676],[115.877452,-7.123468],[115.883556,-7.123956],[115.885997,-7.129571],[115.886974,-7.12656],[115.889008,-7.113702],[115.89088,-7.10711]]]]}},{"type":"Feature","properties":{"id":"ID-YO","country":"ID","name_en":"Yogyakarta"},"geometry":{"type":"Polygon","coordinates":[[[110.84356,-8.200843],[110.715343,-8.193129],[110.705577,-8.190037],[110.691254,-8.175877],[110.681488,-8.172621],[110.660655,-8.169854],[110.639415,-8.162774],[110.602712,-8.144789],[110.602712,-8.151544],[110.549083,-8.127618],[110.521169,-8.120212],[110.496267,-8.117446],[110.476736,-8.111912],[110.410899,-8.07586],[110.400564,-8.07464],[110.389415,-8.074884],[110.380382,-8.073175],[110.37672,-8.066176],[110.352306,-8.041681],[110.347423,-8.038832],[110.32838,-8.021173],[110.319102,-8.018731],[110.287364,-8.015069],[110.04274,-7.889101],[110.042772,-7.888872],[110.046182,-7.864739],[110.04918,-7.855438],[110.064941,-7.837247],[110.116669,-7.761593],[110.125247,-7.744075],[110.128348,-7.724283],[110.126591,-7.698083],[110.130002,-7.686301],[110.136513,-7.676792],[110.159044,-7.667594],[110.219609,-7.675397],[110.22829,-7.675552],[110.234595,-7.674467],[110.240434,-7.671935],[110.245964,-7.672451],[110.250408,-7.677257],[110.253198,-7.703664],[110.255679,-7.71219],[110.258779,-7.715291],[110.267151,-7.706764],[110.287098,-7.681598],[110.301309,-7.669144],[110.411225,-7.589924],[110.437683,-7.560055],[110.4413,-7.568943],[110.474477,-7.720252],[110.49029,-7.757097],[110.50662,-7.783091],[110.536902,-7.809859],[110.578656,-7.820969],[110.633123,-7.820969],[110.653691,-7.822985],[110.689244,-7.819781],[110.705212,-7.82531],[110.753323,-7.832597],[110.773063,-7.843449],[110.781331,-7.854042],[110.784742,-7.862879],[110.786602,-7.873628],[110.787533,-7.920188],[110.792804,-7.94706],[110.798746,-8.121674],[110.802415,-8.132268],[110.810839,-8.138934],[110.818022,-8.137694],[110.824843,-8.132888],[110.831354,-8.132372],[110.837039,-8.13325],[110.84355,-8.200739],[110.84356,-8.200843]]]}},{"type":"Feature","properties":{"id":"ID-JK","country":"ID","name_en":"Jakarta"},"geometry":{"type":"Polygon","coordinates":[[[106.731049,-6.058852],[106.732432,-6.066583],[106.737804,-6.083917],[106.751964,-6.09588],[106.793224,-6.104099],[106.837738,-6.102716],[106.988292,-6.07936],[106.989315,-6.082316],[106.987661,-6.145671],[106.984664,-6.200913],[106.984974,-6.235433],[106.983269,-6.249696],[106.979703,-6.262356],[106.971021,-6.277859],[106.952728,-6.345917],[106.940894,-6.373771],[106.923892,-6.381522],[106.88467,-6.35124],[106.853716,-6.335789],[106.833665,-6.348449],[106.824519,-6.35124],[106.814442,-6.349793],[106.802866,-6.339768],[106.791187,-6.332636],[106.784469,-6.325815],[106.779819,-6.317289],[106.776718,-6.30995],[106.76292,-6.301424],[106.753464,-6.299202],[106.741991,-6.284474],[106.730623,-6.243081],[106.701994,-6.210112],[106.684114,-6.101901],[106.694552,-6.086295],[106.726799,-6.061025],[106.731049,-6.058852]]]}}]}
