{"type":"FeatureCollection","features":[{"type":"Feature","properties":{"id":"TR-21","country":"TR","name_en":"Diyarbakır"},"geometry":{"type":"Polygon","coordinates":[[[41.259632,38.739186],[41.311205,38.687742],[41.378384,38.648752],[41.38965,38.609117],[41.378074,38.568861],[41.390063,38.541575],[41.420552,38.534599],[41.42634,38.500906],[41.388409,38.484008],[41.356783,38.481269],[41.324331,38.473001],[41.271621,38.453002],[41.249193,38.428146],[41.240305,38.392566],[41.220771,38.337583],[41.209196,38.280093],[41.221908,38.170487],[41.21457,38.11509],[41.198654,38.091965],[41.18036,38.070338],[41.133025,37.949105],[41.093337,37.912622],[41.045071,37.885879],[41.035459,37.862082],[41.045485,37.833402],[41.053753,37.7956],[41.07525,37.76493],[41.011792,37.741418],[40.662046,37.748394],[40.551561,37.729868],[40.539159,37.707311],[40.49203,37.656978],[40.412242,37.652431],[40.300931,37.584218],[40.251838,37.569335],[40.142594,37.508693],[40.097842,37.475801],[39.999967,37.375703],[39.953665,37.417432],[39.920179,37.46947],[39.884315,37.550111],[39.881525,37.564994],[39.872223,37.593623],[39.85672,37.669355],[39.863231,37.777694],[39.848555,37.801879],[39.830468,37.806323],[39.812795,37.813558],[39.787474,37.832833],[39.759155,37.842445],[39.749336,37.829164],[39.738484,37.817227],[39.691252,37.833918],[39.652701,37.862108],[39.620249,37.870996],[39.588829,37.882985],[39.523304,37.926109],[39.462636,37.9767],[39.407859,37.996958],[39.348637,37.998947],[39.267505,38.009101],[39.188957,38.043053],[39.224924,38.063723],[39.234639,38.076074],[39.224717,38.090285],[39.248592,38.130386],[39.256343,38.153098],[39.252623,38.17966],[39.221927,38.205033],[39.141311,38.178574],[39.114853,38.192708],[39.148546,38.284175],[39.145032,38.307843],[39.132423,38.32965],[39.114853,38.343525],[39.252106,38.362207],[39.334995,38.345282],[39.420261,38.340192],[39.461912,38.354558],[39.538807,38.362982],[39.567435,38.37634],[39.642986,38.380991],[39.719984,38.377709],[39.753781,38.386779],[39.78427,38.402669],[39.809591,38.432797],[39.832019,38.465094],[39.847418,38.497444],[39.892997,38.504007],[39.915218,38.495351],[39.949944,38.474008],[39.966171,38.469435],[40.301241,38.477988],[40.417616,38.480959],[40.458544,38.495273],[40.484072,38.52832],[40.485312,38.55837],[40.4911,38.586327],[40.547531,38.608522],[40.644889,38.619297],[40.679719,38.616868],[40.729742,38.605964],[40.900274,38.600797],[40.965283,38.61555],[41.088893,38.675262],[41.210539,38.712444],[41.259632,38.739186]]]}},{"type":"Feature","properties":{"id":"TR-72","country":"TR","name_en":"Batman"},"geometry":{"type":"Polygon","coordinates":[[[41.420552,38.534599],[41.475329,38.548009],[41.531243,38.554391],[41.616096,38.52876],[41.650719,38.393729],[41.673973,38.338849],[41.678831,38.302804],[41.679141,38.266243],[41.67387,38.243687],[41.677281,38.221362],[41.632219,38.179737],[41.611548,38.126019],[41.561939,38.08057],[41.446184,38.055765],[41.413111,38.01029],[41.421379,37.94417],[41.528866,37.865648],[41.710664,37.807796],[41.81691,37.713822],[41.632219,37.609436],[41.520598,37.543316],[41.367739,37.518511],[41.260252,37.572229],[41.189972,37.687958],[41.119692,37.758212],[41.100675,37.765731],[41.07525,37.76493],[41.053753,37.7956],[41.045485,37.833402],[41.035459,37.862082],[41.045071,37.885879],[41.093337,37.912622],[41.133025,37.949105],[41.18036,38.070338],[41.198654,38.091965],[41.21457,38.11509],[41.221908,38.170487],[41.209196,38.280093],[41.220771,38.337583],[41.240305,38.392566],[41.249193,38.428146],[41.271621,38.453002],[41.324331,38.473001],[41.356783,38.481269],[41.388409,38.484008],[41.42634,38.500906],[41.420552,38.534599]]]}},{"type":"Feature","properties":{"id":"TR-56","country":"TR","name_en":"Siirt"},"geometry":{"type":"Polygon","coordinates":[[[42.060203,38.22715],[42.127589,38.202449],[42.186087,38.155449],[42.250889,38.116692],[42.322926,38.093412],[42.392793,38.078813],[42.437751,38.064318],[42.499349,38.027782],[42.600429,37.98254],[42.668538,37.944196],[42.706572,37.946056],[42.737061,37.982385],[42.740885,38.028506],[42.735821,38.059073],[42.735717,38.090182],[42.746156,38.103411],[42.758558,38.114625],[42.786877,38.181132],[42.865012,38.185266],[42.945524,38.173329],[43.01632,38.15178],[43.025829,38.080906],[43.022728,38.040366],[43.029343,37.999386],[43.024795,37.957167],[43.011463,37.916678],[43.008052,37.858206],[42.993583,37.834383],[42.983454,37.806401],[43.023348,37.731651],[43.011876,37.675375],[42.950485,37.625972],[42.781089,37.638375],[42.569733,37.662999],[42.367574,37.704417],[42.235386,37.708551],[42.157045,37.646643],[41.958711,37.659019],[41.81691,37.713822],[41.710664,37.807796],[41.528866,37.865648],[41.421379,37.94417],[41.413111,38.01029],[41.446184,38.055765],[41.561939,38.08057],[41.611548,38.126019],[41.632219,38.179737],[41.677281,38.221362],[41.77991,38.190331],[41.888224,38.183251],[41.97442,38.201234],[42.060203,38.22715]]]}},{"type":"Feature","properties":{"id":"TR-73","country":"TR","name_en":"Şırnak"},"geometry":{"type":"Polygon","coordinates":[[[42.937048,37.320152],[42.89674,37.324906],[42.814058,37.346817],[42.80548,37.351856],[42.801139,37.36909],[42.792457,37.374335],[42.780468,37.375498],[42.77158,37.374903],[42.722177,37.358909],[42.715666,37.355292],[42.709465,37.347179],[42.707398,37.340151],[42.706158,37.333226],[42.702334,37.325346],[42.576967,37.17923],[42.564668,37.152049],[42.561257,37.146623],[42.545237,37.140887],[42.459144,37.129311],[42.401887,37.114144],[42.357238,37.109984],[42.356515,37.138277],[42.354551,37.15241],[42.346696,37.158431],[42.335328,37.171169],[42.353208,37.227031],[42.346696,37.239769],[42.339875,37.242637],[42.305769,37.264548],[42.301428,37.269923],[42.296364,37.279689],[42.292023,37.285064],[42.285822,37.286562],[42.279207,37.282273],[42.272902,37.276744],[42.267218,37.274522],[42.236832,37.286304],[42.22319,37.288139],[42.222156,37.292402],[42.22381,37.302375],[42.22257,37.313951],[42.211201,37.324906],[42.193011,37.313227],[42.178541,37.306303],[42.128312,37.253283],[42.052968,37.196645],[42.009249,37.175613],[41.896365,37.154283],[41.896285,37.154528],[41.876028,37.216824],[41.814017,37.25814],[41.698261,37.287078],[41.681828,37.32842],[41.723066,37.365601],[41.818151,37.406916],[41.892565,37.435855],[41.904967,37.501975],[41.876028,37.588765],[41.81691,37.713822],[41.958711,37.659019],[42.157045,37.646643],[42.235386,37.708551],[42.367574,37.704417],[42.569733,37.662999],[42.781089,37.638375],[42.950485,37.625972],[43.011876,37.675375],[43.023348,37.731651],[43.10293,37.766093],[43.188816,37.756972],[43.264264,37.73178],[43.290206,37.727258],[43.338575,37.72824],[43.38684,37.73364],[43.380329,37.642483],[43.359659,37.584631],[43.376195,37.530914],[43.409268,37.464794],[43.401,37.378003],[43.375988,37.32475],[43.362505,37.303908],[43.336145,37.32023],[43.324156,37.322219],[43.305656,37.319971],[43.296871,37.316741],[43.287518,37.309145],[43.278629,37.30775],[43.270309,37.30868],[43.263385,37.310695],[43.131971,37.367255],[43.114815,37.371131],[43.083706,37.368831],[43.043501,37.360253],[43.005158,37.347256],[42.979629,37.331831],[42.937048,37.320152]]]}},{"type":"Feature","properties":{"id":"TR-30","country":"TR","name_en":"Hakkâri"},"geometry":{"type":"Polygon","coordinates":[[[43.479599,37.243361],[43.463269,37.248684],[43.41676,37.279173],[43.376039,37.295528],[43.362505,37.303908],[43.375988,37.32475],[43.401,37.378003],[43.409268,37.464794],[43.376195,37.530914],[43.359659,37.584631],[43.380329,37.642483],[43.38684,37.73364],[43.521199,37.734674],[43.654834,37.751675],[43.682533,37.763948],[43.711368,37.772992],[43.75333,37.767876],[43.794361,37.754698],[43.858853,37.754027],[43.923035,37.764439],[43.977812,37.791285],[44.00365,37.845184],[44.044268,37.901201],[44.116925,37.912983],[44.204465,37.904818],[44.205006,37.904768],[44.202087,37.897171],[44.219605,37.875312],[44.254435,37.870842],[44.319238,37.876862],[44.331226,37.873968],[44.367142,37.860222],[44.377942,37.854125],[44.383833,37.844978],[44.387554,37.833402],[44.393238,37.821078],[44.4044,37.809735],[44.4121,37.807719],[44.418973,37.809683],[44.425484,37.810768],[44.433029,37.806117],[44.433752,37.801105],[44.429773,37.785137],[44.429102,37.779142],[44.43644,37.767799],[44.450496,37.766636],[44.466515,37.771132],[44.479228,37.776868],[44.506461,37.779349],[44.534418,37.769194],[44.559378,37.752012],[44.59612,37.716381],[44.598394,37.707028],[44.588162,37.693979],[44.553538,37.67181],[44.54527,37.663025],[44.540878,37.632717],[44.56098,37.614656],[44.583511,37.601091],[44.587438,37.584012],[44.578343,37.56391],[44.571832,37.539208],[44.56992,37.514404],[44.575243,37.493992],[44.575243,37.493837],[44.579273,37.476964],[44.565941,37.447173],[44.572142,37.430791],[44.585578,37.424668],[44.622785,37.421903],[44.638184,37.412601],[44.65224,37.384024],[44.661646,37.375653],[44.698026,37.380045],[44.707121,37.37095],[44.713012,37.356791],[44.721384,37.343277],[44.778951,37.313796],[44.801585,37.292686],[44.798485,37.260311],[44.786754,37.248115],[44.772957,37.241681],[44.760503,37.233232],[44.753526,37.215326],[44.75673,37.195198],[44.766135,37.178145],[44.772336,37.161247],[44.766135,37.14192],[44.753836,37.159154],[44.733786,37.167242],[44.628934,37.179024],[44.610279,37.178352],[44.57824,37.166415],[44.539379,37.143677],[44.503412,37.116624],[44.479228,37.092001],[44.454423,37.076343],[44.428068,37.064767],[44.343112,37.042443],[44.335154,37.031152],[44.33164,37.015468],[44.316137,36.994125],[44.316137,36.994022],[44.315982,36.99397],[44.315879,36.99397],[44.306628,36.977227],[44.297223,36.969941],[44.284821,36.969166],[44.243273,36.97777],[44.234281,36.983661],[44.22777,36.994125],[44.187463,37.066938],[44.180021,37.087608],[44.180641,37.108925],[44.18922,37.129208],[44.205963,37.146623],[44.218779,37.152617],[44.230199,37.154322],[44.240121,37.157966],[44.248337,37.16967],[44.249629,37.179437],[44.248544,37.191917],[44.243532,37.213828],[44.235005,37.236772],[44.223171,37.254058],[44.206893,37.26752],[44.184465,37.279173],[44.088037,37.31116],[44.069025,37.313727],[44.035586,37.31824],[43.990369,37.312504],[43.953782,37.287467],[43.924171,37.253076],[43.89363,37.224912],[43.83999,37.217109],[43.822007,37.202381],[43.809398,37.199694],[43.80206,37.20357],[43.780562,37.220365],[43.770641,37.225843],[43.746921,37.230648],[43.720824,37.232612],[43.618298,37.226979],[43.594217,37.22946],[43.568896,37.237702],[43.550602,37.248735],[43.542437,37.252301],[43.529518,37.253903],[43.517116,37.252301],[43.492415,37.244756],[43.479599,37.243361]]]}},{"type":"Feature","properties":{"id":"TR-65","country":"TR","name_en":"Van"},"geometry":{"type":"Polygon","coordinates":[[[44.047395,39.337514],[44.05176,39.32804],[44.057651,39.306801],[44.069434,39.287009],[44.069227,39.279567],[44.066746,39.272953],[44.06716,39.264013],[44.070571,39.255486],[44.082663,39.235668],[44.08349,39.226832],[44.076565,39.208693],[44.077702,39.200063],[44.10354,39.184638],[44.148085,39.166448],[44.186636,39.145131],[44.194801,39.120533],[44.174957,39.090225],[44.169893,39.07436],[44.179143,39.034931],[44.169531,39.023046],[44.153356,39.012555],[44.139197,38.993952],[44.139197,38.993771],[44.144675,38.98682],[44.147775,38.980051],[44.151961,38.964625],[44.158007,38.957468],[44.167102,38.95199],[44.174647,38.945763],[44.17537,38.936694],[44.174854,38.928374],[44.178161,38.9207],[44.182502,38.91313],[44.192113,38.890754],[44.205756,38.875664],[44.221982,38.863443],[44.275002,38.843573],[44.279808,38.814221],[44.252678,38.741822],[44.248648,38.721824],[44.250508,38.709215],[44.255469,38.697277],[44.260481,38.679242],[44.256089,38.671956],[44.247407,38.665083],[44.244307,38.658959],[44.256812,38.653921],[44.274899,38.649373],[44.282547,38.645394],[44.289885,38.638883],[44.297017,38.622321],[44.29681,38.601624],[44.292159,38.56204],[44.301357,38.51119],[44.300169,38.494034],[44.287508,38.453726],[44.287405,38.441944],[44.290505,38.416597],[44.289885,38.407373],[44.286578,38.390991],[44.289524,38.382258],[44.29867,38.377194],[44.313398,38.371819],[44.363369,38.36461],[44.396339,38.379674],[44.409051,38.381793],[44.424657,38.377038],[44.438817,38.367556],[44.451116,38.354042],[44.458764,38.338333],[44.459177,38.322416],[44.43675,38.29694],[44.400576,38.274667],[44.372413,38.249501],[44.376702,38.201545],[44.373239,38.182115],[44.36709,38.162478],[44.360579,38.147853],[44.353137,38.139999],[44.335361,38.134056],[44.327092,38.128397],[44.325697,38.11969],[44.33381,38.10088],[44.328281,38.094627],[44.309006,38.087237],[44.29588,38.07902],[44.286578,38.066308],[44.27831,38.045327],[44.269525,38.030005],[44.245392,38.008379],[44.236142,37.993987],[44.236038,37.993832],[44.227564,37.98099],[44.221466,37.96882],[44.219657,37.956082],[44.22467,37.942],[44.225496,37.929314],[44.216711,37.918591],[44.206376,37.908333],[44.205006,37.904768],[44.204465,37.904818],[44.116925,37.912983],[44.044268,37.901201],[44.00365,37.845184],[43.977812,37.791285],[43.923035,37.764439],[43.858853,37.754027],[43.794361,37.754698],[43.75333,37.767876],[43.711368,37.772992],[43.682533,37.763948],[43.654834,37.751675],[43.521199,37.734674],[43.38684,37.73364],[43.338575,37.72824],[43.290206,37.727258],[43.264264,37.73178],[43.188816,37.756972],[43.10293,37.766093],[43.023348,37.731651],[42.983454,37.806401],[42.993583,37.834383],[43.008052,37.858206],[43.011463,37.916678],[43.024795,37.957167],[43.029343,37.999386],[43.022728,38.040366],[43.025829,38.080906],[43.01632,38.15178],[42.945524,38.173329],[42.865012,38.185266],[42.786877,38.181132],[42.733547,38.195912],[42.71577,38.24596],[42.725279,38.281178],[42.723625,38.307197],[42.719181,38.319987],[42.684248,38.383135],[42.678047,38.404891],[42.687658,38.447163],[42.704298,38.461839],[42.811578,38.508968],[42.875347,38.544211],[42.896328,38.57178],[42.913588,38.602734],[43.004952,38.710299],[43.060452,38.755257],[43.131972,38.799441],[43.161221,38.872279],[43.1205,38.922276],[43.003608,38.977259],[42.973222,39.028083],[42.971982,39.104073],[43.088461,39.140867],[43.112852,39.161899],[43.115436,39.19629],[43.12174,39.231146],[43.114609,39.261583],[43.075232,39.274399],[43.037508,39.291504],[43.045259,39.321218],[43.069651,39.328633],[43.129492,39.337548],[43.162668,39.346849],[43.200289,39.384263],[43.243697,39.409869],[43.320798,39.406406],[43.389838,39.382118],[43.447199,39.33548],[43.49226,39.31326],[43.578663,39.300082],[43.613597,39.299669],[43.639125,39.319745],[43.667547,39.336695],[43.705581,39.340364],[43.743511,39.335635],[43.79219,39.323181],[43.851308,39.319047],[43.868051,39.313957],[43.905982,39.30835],[44.047059,39.337444],[44.047395,39.337514]]]}},{"type":"Feature","properties":{"id":"TR-13","country":"TR","name_en":"Bitlis"},"geometry":{"type":"Polygon","coordinates":[[[42.473408,38.931577],[42.555677,38.956434],[42.62761,39.002426],[42.671122,39.023045],[42.718147,39.03493],[42.753908,39.051363],[42.787394,39.071853],[42.971982,39.104073],[42.973222,39.028083],[43.003608,38.977259],[43.1205,38.922276],[43.161221,38.872279],[43.131972,38.799441],[43.060452,38.755257],[43.004952,38.710299],[42.913588,38.602734],[42.896328,38.57178],[42.875347,38.544211],[42.811578,38.508968],[42.704298,38.461839],[42.687658,38.447163],[42.678047,38.404891],[42.684248,38.383135],[42.719181,38.319987],[42.723625,38.307197],[42.725279,38.281178],[42.71577,38.24596],[42.733547,38.195912],[42.786877,38.181132],[42.758558,38.114625],[42.746156,38.103411],[42.735717,38.090182],[42.735821,38.059073],[42.740885,38.028506],[42.737061,37.982385],[42.706572,37.946056],[42.668538,37.944196],[42.600429,37.98254],[42.499349,38.027782],[42.437751,38.064318],[42.392793,38.078813],[42.322926,38.093412],[42.250889,38.116692],[42.186087,38.155449],[42.127589,38.202449],[42.060203,38.22715],[41.97442,38.201234],[41.888224,38.183251],[41.77991,38.190331],[41.677281,38.221362],[41.67387,38.243687],[41.679141,38.266243],[41.678831,38.302804],[41.673973,38.338849],[41.650719,38.393729],[41.616096,38.52876],[41.531243,38.554391],[41.541785,38.567569],[41.695884,38.612734],[41.866623,38.602786],[41.9368,38.633766],[41.995814,38.685391],[42.037672,38.713425],[42.031368,38.755903],[41.999432,38.795307],[42.018035,38.831584],[42.106298,38.829982],[42.127589,38.844141],[42.139578,38.890676],[42.159629,38.902096],[42.202313,38.90561],[42.243138,38.918245],[42.274764,38.936513],[42.310007,38.945685],[42.473408,38.931577]]]}},{"type":"Feature","properties":{"id":"TR-49","country":"TR","name_en":"Muş"},"geometry":{"type":"Polygon","coordinates":[[[41.83448,39.168798],[41.873238,39.192233],[41.914682,39.210837],[42.037259,39.227063],[42.067541,39.248638],[42.086661,39.26595],[42.155701,39.299074],[42.183916,39.336411],[42.178129,39.38155],[42.198696,39.426147],[42.335742,39.479348],[42.373569,39.480898],[42.411086,39.485859],[42.431343,39.491388],[42.459145,39.428679],[42.501003,39.37323],[42.532732,39.35057],[42.563221,39.323233],[42.580275,39.29556],[42.605803,39.276518],[42.641253,39.235435],[42.636085,39.170994],[42.641666,39.157455],[42.642493,39.142056],[42.632158,39.103143],[42.623683,39.053689],[42.62761,39.002426],[42.555677,38.956434],[42.473408,38.931577],[42.310007,38.945685],[42.274764,38.936513],[42.243138,38.918245],[42.202313,38.90561],[42.159629,38.902096],[42.139578,38.890676],[42.127589,38.844141],[42.106298,38.829982],[42.018035,38.831584],[41.999432,38.795307],[42.031368,38.755903],[42.037672,38.713425],[41.995814,38.685391],[41.9368,38.633766],[41.866623,38.602786],[41.695884,38.612734],[41.541785,38.567569],[41.531243,38.554391],[41.475329,38.548009],[41.420552,38.534599],[41.390063,38.541575],[41.378074,38.568861],[41.38965,38.609117],[41.378384,38.648752],[41.311205,38.687742],[41.259632,38.739186],[41.253017,38.765489],[41.240201,38.789286],[41.218911,38.803265],[41.207232,38.807606],[41.186148,38.830524],[41.16434,38.887911],[41.195036,38.965581],[41.264903,39.032191],[41.276892,39.072602],[41.270277,39.116295],[41.242682,39.15513],[41.223562,39.170348],[41.201031,39.201845],[41.202994,39.23267],[41.202374,39.247863],[41.193589,39.266518],[41.187698,39.275174],[41.172402,39.30481],[41.17726,39.327341],[41.205061,39.365659],[41.365155,39.386563],[41.445564,39.371835],[41.482771,39.353025],[41.580956,39.278249],[41.63904,39.214041],[41.662605,39.198796],[41.747664,39.171459],[41.83448,39.168798]]]}},{"type":"Feature","properties":{"id":"TR-12","country":"TR","name_en":"Bingöl"},"geometry":{"type":"Polygon","coordinates":[[[40.465262,39.494385],[40.515491,39.512731],[40.554765,39.548956],[40.618844,39.532445],[40.707934,39.522291],[40.797334,39.552082],[40.826687,39.568903],[40.855005,39.580995],[40.886218,39.566552],[40.98306,39.496633],[41.057784,39.468831],[41.118348,39.463741],[41.162894,39.422994],[41.205061,39.365659],[41.17726,39.327341],[41.172402,39.30481],[41.187698,39.275174],[41.193589,39.266518],[41.202374,39.247863],[41.202994,39.23267],[41.201031,39.201845],[41.223562,39.170348],[41.242682,39.15513],[41.270277,39.116295],[41.276892,39.072602],[41.264903,39.032191],[41.195036,38.965581],[41.16434,38.887911],[41.186148,38.830524],[41.207232,38.807606],[41.218911,38.803265],[41.240201,38.789286],[41.253017,38.765489],[41.259632,38.739186],[41.210539,38.712444],[41.088893,38.675262],[40.965283,38.61555],[40.900274,38.600797],[40.729742,38.605964],[40.679719,38.616868],[40.644889,38.619297],[40.547531,38.608522],[40.4911,38.586327],[40.485312,38.55837],[40.484072,38.52832],[40.458544,38.495273],[40.417616,38.480959],[40.301241,38.477988],[40.2969,38.524186],[40.286771,38.567879],[40.233234,38.630356],[40.28026,38.736602],[40.311059,38.732055],[40.344132,38.722495],[40.362426,38.749625],[40.375345,38.788279],[40.382166,38.82515],[40.363873,38.858274],[40.303824,38.915584],[40.279537,38.992917],[40.299484,39.063249],[40.34961,39.117561],[40.391571,39.181743],[40.361185,39.22944],[40.27902,39.200631],[40.244397,39.192673],[40.015057,39.097355],[40.031903,39.128077],[40.039965,39.161589],[40.018881,39.236959],[40.024772,39.263288],[40.035831,39.28861],[40.041618,39.338013],[40.056294,39.357882],[40.105284,39.370104],[40.175667,39.367081],[40.18962,39.371783],[40.199128,39.388397],[40.207706,39.407982],[40.252768,39.42178],[40.301654,39.421057],[40.34837,39.447024],[40.376378,39.491879],[40.392295,39.502189],[40.43932,39.495574],[40.465262,39.494385]]]}},{"type":"Feature","properties":{"id":"TR-47","country":"TR","name_en":"Mardin"},"geometry":{"type":"Polygon","coordinates":[[[41.896365,37.154283],[41.479773,37.075568],[41.20134,37.064974],[41.179739,37.069625],[41.135091,37.084249],[40.896449,37.122696],[40.708967,37.100476],[40.659461,37.085257],[40.525722,37.025881],[40.479834,37.015158],[40.456993,37.014124],[40.435185,37.01061],[40.413894,37.004022],[40.393741,36.994022],[40.261409,36.922785],[40.260933,36.922992],[40.217938,36.941725],[40.127505,37.068952],[40.13722,37.148637],[40.124921,37.16967],[40.074071,37.211192],[40.042238,37.232663],[40.013816,37.257519],[39.999967,37.375703],[40.097842,37.475801],[40.142594,37.508693],[40.251838,37.569335],[40.300931,37.584218],[40.412242,37.652431],[40.49203,37.656978],[40.539159,37.707311],[40.551561,37.729868],[40.662046,37.748394],[41.011792,37.741418],[41.07525,37.76493],[41.100675,37.765731],[41.119692,37.758212],[41.189972,37.687958],[41.260252,37.572229],[41.367739,37.518511],[41.520598,37.543316],[41.632219,37.609436],[41.81691,37.713822],[41.876028,37.588765],[41.904967,37.501975],[41.892565,37.435855],[41.818151,37.406916],[41.723066,37.365601],[41.681828,37.32842],[41.698261,37.287078],[41.814017,37.25814],[41.876028,37.216824],[41.896285,37.154528],[41.896365,37.154283]]]}},{"type":"Feature","properties":{"id":"TR-63","country":"TR","name_en":"Şanlıurfa"},"geometry":{"type":"Polygon","coordinates":[[[39.441708,36.692373],[39.239599,36.661278],[39.185856,36.659521],[39.03217,36.701172],[38.979977,36.698175],[38.957963,36.692904],[38.795389,36.686651],[38.725005,36.693937],[38.66413,36.719517],[38.635192,36.744039],[38.529358,36.833722],[38.479956,36.855736],[38.28989,36.901702],[38.224261,36.908394],[38.190051,36.905526],[38.122975,36.884623],[38.026005,36.835006],[38.025824,36.835349],[38.021173,36.84416],[38.019003,36.858009],[38.021173,36.871057],[38.029338,36.876845],[38.040603,36.880437],[38.036056,36.888705],[38.018693,36.904156],[38.015179,36.913458],[38.013112,36.923664],[38.011871,36.949166],[38.007944,36.957073],[37.981176,36.976761],[37.966913,36.990404],[37.963916,36.998776],[37.964122,37.01402],[37.976628,37.038411],[37.978798,37.050039],[37.967533,37.054974],[37.954304,37.052777],[37.930843,37.04345],[37.922574,37.041925],[37.912859,37.047093],[37.903764,37.055284],[37.893842,37.060115],[37.881543,37.054974],[37.869348,37.065128],[37.868211,37.077582],[37.874722,37.106805],[37.876169,37.130809],[37.874309,37.140007],[37.867901,37.151789],[37.850744,37.173339],[37.84351,37.186619],[37.840616,37.203001],[37.844233,37.219227],[37.852501,37.226488],[37.8617,37.22455],[37.867901,37.213259],[37.874722,37.213259],[37.874205,37.234317],[37.866867,37.249303],[37.854878,37.259948],[37.840616,37.267855],[37.852191,37.303796],[37.857669,37.312865],[37.865007,37.317671],[37.872758,37.320901],[37.87896,37.325112],[37.885574,37.350589],[37.896323,37.363818],[37.930016,37.390767],[37.974354,37.435441],[37.989651,37.444743],[38.00598,37.445234],[38.02293,37.443451],[38.03988,37.445983],[38.054039,37.436423],[38.065512,37.436837],[38.09445,37.453476],[38.108403,37.440893],[38.12556,37.433736],[38.170208,37.42552],[38.175066,37.422574],[38.176616,37.413737],[38.18013,37.411877],[38.185711,37.412859],[38.188295,37.414978],[38.190052,37.417096],[38.193152,37.418078],[38.197183,37.423607],[38.19677,37.435751],[38.19801,37.447947],[38.206795,37.453476],[38.249893,37.448516],[38.265706,37.454407],[38.272011,37.476421],[38.282553,37.476938],[38.340844,37.49443],[38.372263,37.483914],[38.494839,37.500631],[38.515407,37.51107],[38.575351,37.56148],[38.58796,37.579464],[38.597365,37.583443],[38.645631,37.624164],[38.86846,37.651449],[38.81854,37.680853],[38.800454,37.696976],[38.820711,37.706691],[38.822778,37.704469],[38.836007,37.694702],[38.841175,37.692428],[38.84934,37.693281],[38.856058,37.695632],[38.861122,37.698113],[38.864739,37.69925],[38.869287,37.703074],[38.874971,37.710386],[38.882413,37.714856],[38.899672,37.706174],[38.908147,37.7062],[38.916416,37.709016],[38.923134,37.713512],[38.897915,37.735604],[38.888924,37.740849],[38.901843,37.752709],[38.922203,37.756042],[38.944838,37.75692],[38.964681,37.761313],[38.952486,37.775214],[38.953933,37.801362],[38.943597,37.809114],[38.930575,37.807486],[38.903497,37.79175],[38.888924,37.78865],[38.897812,37.804618],[38.908457,37.816762],[38.921377,37.825082],[38.936776,37.829578],[38.945458,37.828802],[38.965302,37.823118],[38.970883,37.822756],[38.977911,37.830198],[38.979151,37.83844],[38.976154,37.845856],[38.970883,37.850713],[38.982665,37.865441],[38.989176,37.877998],[38.988453,37.890737],[38.978324,37.905955],[39.02721,37.91797],[39.040439,37.925179],[39.050464,37.9397],[39.055632,37.973135],[39.060283,37.987862],[39.072272,37.999515],[39.089635,38.006957],[39.14989,38.020729],[39.188957,38.043053],[39.267505,38.009101],[39.348637,37.998947],[39.407859,37.996958],[39.462636,37.9767],[39.523304,37.926109],[39.588829,37.882985],[39.620249,37.870996],[39.652701,37.862108],[39.691252,37.833918],[39.738484,37.817227],[39.749336,37.829164],[39.759155,37.842445],[39.787474,37.832833],[39.812795,37.813558],[39.830468,37.806323],[39.848555,37.801879],[39.863231,37.777694],[39.85672,37.669355],[39.872223,37.593623],[39.881525,37.564994],[39.884315,37.550111],[39.920179,37.46947],[39.953665,37.417432],[39.999967,37.375703],[40.013816,37.257519],[40.042238,37.232663],[40.074071,37.211192],[40.124921,37.16967],[40.13722,37.148637],[40.127505,37.068952],[40.217938,36.941725],[40.260933,36.922992],[40.261409,36.922785],[40.190136,36.884416],[40.152722,36.87036],[40.115205,36.864728],[40.079238,36.854857],[39.979812,36.806953],[39.765252,36.742151],[39.441708,36.692373]]]}},{"type":"Feature","properties":{"id":"TR-02","country":"TR","name_en":"Adıyaman"},"geometry":{"type":"Polygon","coordinates":[[[37.625125,37.518821],[37.516604,37.572177],[37.457073,37.589644],[37.421727,37.635067],[37.422243,37.694134],[37.461931,37.733769],[37.517018,37.772475],[37.565284,37.820482],[37.707601,37.842032],[37.795967,37.871177],[37.887951,37.88097],[37.930533,37.870454],[37.973527,37.865699],[38.009494,37.875027],[38.044428,37.888747],[38.127627,37.904973],[38.189225,37.948511],[38.190879,38.000807],[38.217337,38.040469],[38.294955,38.073826],[38.357897,38.149015],[38.430864,38.214128],[38.500937,38.214619],[38.560882,38.228442],[38.618656,38.219063],[38.62279,38.186584],[38.584446,38.157645],[38.563879,38.146716],[38.571424,38.125942],[38.587547,38.119534],[38.603463,38.110439],[38.663098,38.098166],[38.733378,38.098424],[38.803244,38.090337],[38.876625,38.102429],[38.90515,38.102843],[38.932022,38.107287],[38.972743,38.123126],[39.015634,38.130799],[39.069481,38.151496],[39.114853,38.192708],[39.141311,38.178574],[39.221927,38.205033],[39.252623,38.17966],[39.256343,38.153098],[39.248592,38.130386],[39.224717,38.090285],[39.234639,38.076074],[39.224924,38.063723],[39.188957,38.043053],[39.14989,38.020729],[39.089635,38.006957],[39.072272,37.999515],[39.060283,37.987862],[39.055632,37.973135],[39.050464,37.9397],[39.040439,37.925179],[39.02721,37.91797],[38.978324,37.905955],[38.988453,37.890737],[38.989176,37.877998],[38.982665,37.865441],[38.970883,37.850713],[38.976154,37.845856],[38.979151,37.83844],[38.977911,37.830198],[38.970883,37.822756],[38.965302,37.823118],[38.945458,37.828802],[38.936776,37.829578],[38.921377,37.825082],[38.908457,37.816762],[38.897812,37.804618],[38.888924,37.78865],[38.903497,37.79175],[38.930575,37.807486],[38.943597,37.809114],[38.953933,37.801362],[38.952486,37.775214],[38.964681,37.761313],[38.944838,37.75692],[38.922203,37.756042],[38.901843,37.752709],[38.888924,37.740849],[38.897915,37.735604],[38.923134,37.713512],[38.916416,37.709016],[38.908147,37.7062],[38.899672,37.706174],[38.882413,37.714856],[38.874971,37.710386],[38.869287,37.703074],[38.864739,37.69925],[38.861122,37.698113],[38.856058,37.695632],[38.84934,37.693281],[38.841175,37.692428],[38.836007,37.694702],[38.822778,37.704469],[38.820711,37.706691],[38.800454,37.696976],[38.81854,37.680853],[38.86846,37.651449],[38.645631,37.624164],[38.597365,37.583443],[38.58796,37.579464],[38.575351,37.56148],[38.515407,37.51107],[38.494839,37.500631],[38.372263,37.483914],[38.340844,37.49443],[38.282553,37.476938],[38.272011,37.476421],[38.265706,37.454407],[38.249893,37.448516],[38.206795,37.453476],[38.19801,37.447947],[38.19677,37.435751],[38.197183,37.423607],[38.193152,37.418078],[38.190052,37.417096],[38.188295,37.414978],[38.185711,37.412859],[38.18013,37.411877],[38.176616,37.413737],[38.175066,37.422574],[38.170208,37.42552],[38.12556,37.433736],[38.108403,37.440893],[38.09445,37.453476],[38.065512,37.436837],[38.054039,37.436423],[38.03988,37.445983],[37.961435,37.500528],[37.843613,37.535564],[37.735402,37.536701],[37.625125,37.518821]]]}},{"type":"Feature","properties":{"id":"TR-62","country":"TR","name_en":"Tunceli"},"geometry":{"type":"Polygon","coordinates":[[[40.17546,39.584354],[40.185899,39.582959],[40.223519,39.57314],[40.242743,39.56482],[40.391881,39.561048],[40.47291,39.550868],[40.554765,39.548956],[40.515491,39.512731],[40.465262,39.494385],[40.43932,39.495574],[40.392295,39.502189],[40.376378,39.491879],[40.34837,39.447024],[40.301654,39.421057],[40.252768,39.42178],[40.207706,39.407982],[40.199128,39.388397],[40.18962,39.371783],[40.175667,39.367081],[40.105284,39.370104],[40.056294,39.357882],[40.041618,39.338013],[40.035831,39.28861],[40.024772,39.263288],[40.018881,39.236959],[40.039965,39.161589],[40.031903,39.128077],[40.015057,39.097355],[39.961416,39.094617],[39.911084,39.085909],[39.892273,39.074876],[39.879148,39.05927],[39.889896,39.020719],[39.894444,38.985424],[39.880181,38.938605],[39.853619,38.895766],[39.792848,38.843262],[39.69952,38.814324],[39.602369,38.809337],[39.566815,38.811352],[39.531779,38.806055],[39.506354,38.779959],[39.475555,38.763267],[39.450853,38.769468],[39.426669,38.778899],[39.409202,38.775153],[39.40052,38.774119],[39.378093,38.795772],[39.358663,38.807063],[39.314324,38.817528],[39.271329,38.841015],[39.225441,38.857964],[39.184306,38.861142],[39.143689,38.870548],[39.112166,38.872356],[39.08085,38.887162],[39.070825,38.888066],[39.051188,38.883958],[39.041369,38.883002],[38.998788,38.897471],[38.919826,38.892872],[38.841381,38.876542],[38.813063,38.877162],[38.769758,38.909615],[38.770585,38.937417],[38.785261,38.964185],[38.784331,38.993072],[38.745677,39.037773],[38.737202,39.099629],[38.72914,39.106399],[38.720769,39.11105],[38.716738,39.134407],[38.720355,39.157869],[38.728107,39.16345],[38.733481,39.164018],[38.755599,39.172596],[38.769965,39.229647],[38.793736,39.240654],[38.820297,39.244892],[38.847686,39.257759],[38.833837,39.276543],[38.821021,39.307213],[38.836834,39.338736],[38.896158,39.355841],[38.908044,39.360776],[38.919413,39.377933],[38.934192,39.393565],[38.962718,39.392428],[38.987832,39.402401],[39.006023,39.429325],[39.033308,39.446197],[39.132113,39.474826],[39.184616,39.483508],[39.23712,39.475885],[39.279184,39.484024],[39.318872,39.500793],[39.395766,39.496866],[39.472351,39.48219],[39.551312,39.482784],[39.703758,39.500897],[39.774141,39.518544],[39.8191,39.562573],[39.85641,39.571538],[39.91036,39.547793],[39.988702,39.532394],[40.081306,39.556966],[40.10177,39.560066],[40.139907,39.573735],[40.17205,39.58115],[40.17546,39.584354]]]}},{"type":"Feature","properties":{"id":"TR-04","country":"TR","name_en":"Ağrı"},"geometry":{"type":"Polygon","coordinates":[[[44.45825,39.64252],[44.457627,39.638719],[44.451684,39.625851],[44.41856,39.57433],[44.414012,39.560894],[44.412048,39.544461],[44.414012,39.530353],[44.417423,39.517486],[44.416803,39.505548],[44.406829,39.493714],[44.406674,39.493714],[44.401713,39.471339],[44.405227,39.452477],[44.404814,39.43439],[44.387967,39.414495],[44.368744,39.403591],[44.316964,39.385297],[44.29495,39.381215],[44.269525,39.382869],[44.200433,39.409482],[44.176507,39.411549],[44.122247,39.400439],[44.099199,39.398475],[44.076978,39.400594],[44.061372,39.400284],[44.046386,39.396046],[44.026025,39.386176],[44.014863,39.374084],[44.020961,39.361991],[44.047213,39.33791],[44.047395,39.337514],[44.047059,39.337444],[43.905982,39.30835],[43.868051,39.313957],[43.851308,39.319047],[43.79219,39.323181],[43.743511,39.335635],[43.705581,39.340364],[43.667547,39.336695],[43.639125,39.319745],[43.613597,39.299669],[43.578663,39.300082],[43.49226,39.31326],[43.447199,39.33548],[43.389838,39.382118],[43.320798,39.406406],[43.243697,39.409869],[43.200289,39.384263],[43.162668,39.346849],[43.129492,39.337548],[43.069651,39.328633],[43.045259,39.321218],[43.037508,39.291504],[43.075232,39.274399],[43.114609,39.261583],[43.12174,39.231146],[43.115436,39.19629],[43.112852,39.161899],[43.088461,39.140867],[42.971982,39.104073],[42.787394,39.071853],[42.753908,39.051363],[42.718147,39.03493],[42.671122,39.023045],[42.62761,39.002426],[42.623683,39.053689],[42.632158,39.103143],[42.642493,39.142056],[42.641666,39.157455],[42.636085,39.170994],[42.641253,39.235435],[42.605803,39.276518],[42.580275,39.29556],[42.563221,39.323233],[42.532732,39.35057],[42.501003,39.37323],[42.459145,39.428679],[42.431343,39.491388],[42.463176,39.531541],[42.472891,39.578618],[42.471031,39.71414],[42.481469,39.740624],[42.494905,39.748143],[42.352898,39.792093],[42.27156,39.86935],[42.3067,39.880667],[42.38163,39.870642],[42.417907,39.88015],[42.440025,39.903585],[42.463383,39.911673],[42.476508,39.913223],[42.502967,39.912784],[42.53604,39.927382],[42.563738,39.951851],[42.757318,39.922137],[43.064483,39.989342],[43.17352,39.988516],[43.219616,39.979317],[43.265297,39.986578],[43.318421,39.969318],[43.340952,39.912603],[43.335681,39.865216],[43.335371,39.841496],[43.350047,39.803824],[43.365756,39.79323],[43.40038,39.783102],[43.464045,39.817467],[43.531638,39.838499],[43.563367,39.833176],[43.577113,39.825011],[43.610599,39.813462],[43.63065,39.81341],[43.663516,39.795556],[43.685634,39.758194],[43.715503,39.728247],[43.805006,39.695588],[43.868155,39.684064],[43.875389,39.66993],[43.880867,39.654892],[43.973265,39.643162],[44.072587,39.653239],[44.147414,39.635023],[44.224515,39.627969],[44.402799,39.659492],[44.442177,39.652154],[44.457783,39.6428],[44.45825,39.64252]]]}},{"type":"Feature","properties":{"id":"TR-76","country":"TR","name_en":"Iğdır"},"geometry":{"type":"Polygon","coordinates":[[[44.806993,39.639902],[44.725724,39.685331],[44.706294,39.698043],[44.646504,39.719541],[44.63281,39.731633],[44.605835,39.763155],[44.590435,39.771527],[44.565734,39.765894],[44.459487,39.698457],[44.455043,39.687139],[44.460211,39.65448],[44.45825,39.64252],[44.457783,39.6428],[44.442177,39.652154],[44.402799,39.659492],[44.224515,39.627969],[44.147414,39.635023],[44.072587,39.653239],[43.973265,39.643162],[43.880867,39.654892],[43.875389,39.66993],[43.868155,39.684064],[43.805006,39.695588],[43.715503,39.728247],[43.685634,39.758194],[43.663516,39.795556],[43.63065,39.81341],[43.610599,39.813462],[43.577113,39.825011],[43.563367,39.833176],[43.531638,39.838499],[43.464045,39.817467],[43.40038,39.783102],[43.365756,39.79323],[43.350047,39.803824],[43.335371,39.841496],[43.335681,39.865216],[43.340952,39.912603],[43.318421,39.969318],[43.35629,40.002589],[43.35629,40.04091],[43.408981,40.06007],[43.533522,40.07444],[43.665427,40.110163],[43.711213,40.090732],[43.802783,40.070734],[43.912131,40.024328],[44.032433,40.008618],[44.04835,40.012856],[44.083128,40.031614],[44.10447,40.035955],[44.114289,40.03394],[44.127001,40.024483],[44.135476,40.022313],[44.145915,40.023398],[44.166379,40.028049],[44.195007,40.030788],[44.255262,40.043397],[44.289058,40.043397],[44.325645,40.034663],[44.380926,40.009804],[44.464345,39.97229],[44.522171,39.933533],[44.547854,39.911467],[44.55912,39.896894],[44.56377,39.881701],[44.567491,39.87302],[44.575966,39.866353],[44.591056,39.857827],[44.594156,39.84806],[44.594466,39.836794],[44.598187,39.831007],[44.611519,39.837311],[44.647693,39.805117],[44.666193,39.796383],[44.671257,39.795867],[44.682419,39.79721],[44.687174,39.796383],[44.692031,39.793024],[44.697767,39.785273],[44.759107,39.723106],[44.774559,39.702797],[44.784325,39.69024],[44.795746,39.652361],[44.806993,39.639902]]]}},{"type":"Feature","properties":{"id":"TR-36","country":"TR","name_en":"Kars"},"geometry":{"type":"Polygon","coordinates":[[[43.440428,41.106588],[43.436294,41.08323],[43.444562,41.051449],[43.460479,41.022872],[43.479599,41.009126],[43.522387,41.004475],[43.565433,40.988145],[43.604863,40.963341],[43.636178,40.933523],[43.647651,40.913886],[43.65194,40.894766],[43.654162,40.874715],[43.659536,40.851978],[43.669768,40.832134],[43.711316,40.781646],[43.720618,40.762888],[43.724132,40.746351],[43.729351,40.677105],[43.726405,40.668992],[43.705632,40.640776],[43.699534,40.634575],[43.707182,40.611941],[43.664807,40.574062],[43.651475,40.553391],[43.652508,40.529414],[43.646462,40.533031],[43.642018,40.534374],[43.637574,40.53515],[43.631476,40.536855],[43.634628,40.532773],[43.636282,40.529775],[43.638969,40.522592],[43.615301,40.520422],[43.5937,40.509001],[43.559491,40.477892],[43.563625,40.464715],[43.584864,40.446576],[43.625326,40.42017],[43.625326,40.413348],[43.624463,40.411137],[43.609565,40.372989],[43.601038,40.361827],[43.594217,40.345445],[43.604449,40.329787],[43.631476,40.310305],[43.675969,40.265967],[43.690348,40.240443],[43.691369,40.23863],[43.673075,40.227727],[43.683721,40.210105],[43.714933,40.180649],[43.721393,40.169384],[43.711626,40.156465],[43.666357,40.14892],[43.652508,40.138998],[43.665427,40.110163],[43.533522,40.07444],[43.408981,40.06007],[43.35629,40.04091],[43.35629,40.002589],[43.318421,39.969318],[43.265297,39.986578],[43.219616,39.979317],[43.17352,39.988516],[43.064483,39.989342],[42.757318,39.922137],[42.563738,39.951851],[42.534696,39.988102],[42.509995,40.028281],[42.48457,40.058847],[42.445709,40.071792],[42.425245,40.076262],[42.408502,40.086778],[42.39517,40.107526],[42.378737,40.124967],[42.349074,40.14109],[42.316518,40.149565],[42.230942,40.160495],[42.206447,40.181217],[42.18557,40.208425],[42.15043,40.240541],[42.181229,40.29444],[42.326853,40.33188],[42.390622,40.359552],[42.422868,40.379861],[42.456768,40.397199],[42.498833,40.411332],[42.53821,40.430711],[42.514129,40.530524],[42.530562,40.56432],[42.53697,40.599176],[42.652152,40.615716],[42.771903,40.625296],[42.791064,40.697147],[42.805434,40.816899],[42.829384,40.893539],[42.949135,40.94144],[43.111997,40.994131],[43.274859,41.046821],[43.37545,41.089932],[43.440428,41.106588]]]}},{"type":"Feature","properties":{"id":"TR-23","country":"TR","name_en":"Elazığ"},"geometry":{"type":"Polygon","coordinates":[[[39.602369,38.809337],[39.69952,38.814324],[39.792848,38.843262],[39.853619,38.895766],[39.880181,38.938605],[39.894444,38.985424],[39.889896,39.020719],[39.879148,39.05927],[39.892273,39.074876],[39.911084,39.085909],[39.961416,39.094617],[40.015057,39.097355],[40.244397,39.192673],[40.27902,39.200631],[40.361185,39.22944],[40.391571,39.181743],[40.34961,39.117561],[40.299484,39.063249],[40.279537,38.992917],[40.303824,38.915584],[40.363873,38.858274],[40.382166,38.82515],[40.375345,38.788279],[40.362426,38.749625],[40.344132,38.722495],[40.311059,38.732055],[40.28026,38.736602],[40.233234,38.630356],[40.286771,38.567879],[40.2969,38.524186],[40.301241,38.477988],[39.966171,38.469435],[39.949944,38.474008],[39.915218,38.495351],[39.892997,38.504007],[39.847418,38.497444],[39.832019,38.465094],[39.809591,38.432797],[39.78427,38.402669],[39.753781,38.386779],[39.719984,38.377709],[39.642986,38.380991],[39.567435,38.37634],[39.538807,38.362982],[39.461912,38.354558],[39.420261,38.340192],[39.334995,38.345282],[39.252106,38.362207],[39.114853,38.343525],[39.073409,38.347944],[38.992173,38.326033],[38.95724,38.330477],[38.927888,38.352336],[38.911145,38.360656],[38.885513,38.364015],[38.883859,38.368976],[38.861019,38.398768],[38.852854,38.404659],[38.826912,38.418637],[38.834353,38.426079],[38.810479,38.44029],[38.778956,38.436931],[38.717668,38.418637],[38.688936,38.42073],[38.607804,38.45339],[38.600569,38.45308],[38.594575,38.450211],[38.58765,38.44985],[38.571424,38.462278],[38.56667,38.464603],[38.539798,38.470417],[38.481713,38.475946],[38.468691,38.479202],[38.456599,38.484938],[38.443266,38.494343],[38.425593,38.51243],[38.414224,38.516771],[38.402959,38.508012],[38.386629,38.518683],[38.373503,38.536511],[38.364615,38.556407],[38.361411,38.573176],[38.35769,38.582555],[38.351282,38.588627],[38.348905,38.595629],[38.363788,38.6163],[38.370402,38.634515],[38.375673,38.645187],[38.387042,38.660328],[38.402442,38.673428],[38.422079,38.682652],[38.446677,38.686166],[38.460423,38.692419],[38.472618,38.707457],[38.478096,38.72544],[38.471275,38.740762],[38.483574,38.753035],[38.508895,38.756808],[38.618656,38.748229],[38.631679,38.75226],[38.633022,38.762415],[38.631575,38.775721],[38.635709,38.781716],[38.623927,38.812618],[38.62434,38.834477],[38.61938,38.895947],[38.60677,38.924782],[38.589924,38.950775],[38.589304,38.992194],[38.616796,39.020306],[38.687902,39.022967],[38.714051,39.033432],[38.745677,39.037773],[38.784331,38.993072],[38.785261,38.964185],[38.770585,38.937417],[38.769758,38.909615],[38.813063,38.877162],[38.841381,38.876542],[38.919826,38.892872],[38.998788,38.897471],[39.041369,38.883002],[39.051188,38.883958],[39.070825,38.888066],[39.08085,38.887162],[39.112166,38.872356],[39.143689,38.870548],[39.184306,38.861142],[39.225441,38.857964],[39.271329,38.841015],[39.314324,38.817528],[39.358663,38.807063],[39.378093,38.795772],[39.40052,38.774119],[39.409202,38.775153],[39.426669,38.778899],[39.450853,38.769468],[39.475555,38.763267],[39.506354,38.779959],[39.531779,38.806055],[39.566815,38.811352],[39.602369,38.809337]]]}},{"type":"Feature","properties":{"id":"TR-25","country":"TR","name_en":"Erzurum"},"geometry":{"type":"Polygon","coordinates":[[[42.431343,39.491388],[42.411086,39.485859],[42.373569,39.480898],[42.335742,39.479348],[42.198696,39.426147],[42.178129,39.38155],[42.183916,39.336411],[42.155701,39.299074],[42.086661,39.26595],[42.067541,39.248638],[42.037259,39.227063],[41.914682,39.210837],[41.873238,39.192233],[41.83448,39.168798],[41.747664,39.171459],[41.662605,39.198796],[41.63904,39.214041],[41.580956,39.278249],[41.482771,39.353025],[41.445564,39.371835],[41.365155,39.386563],[41.205061,39.365659],[41.162894,39.422994],[41.118348,39.463741],[41.057784,39.468831],[40.98306,39.496633],[40.886218,39.566552],[40.855005,39.580995],[40.826687,39.568903],[40.797334,39.552082],[40.707934,39.522291],[40.618844,39.532445],[40.622255,39.594379],[40.657085,39.646133],[40.680029,39.687655],[40.647783,39.716801],[40.605615,39.730314],[40.567168,39.751889],[40.549288,39.769588],[40.535025,39.790207],[40.531201,39.817699],[40.532958,39.84532],[40.466915,39.913456],[40.29535,39.915833],[40.242226,39.936581],[40.250391,39.993916],[40.281397,40.047168],[40.444694,40.032156],[40.480971,40.0366],[40.525,40.063214],[40.567064,40.09453],[40.623081,40.115355],[40.747828,40.149178],[40.77625,40.176101],[40.799815,40.211706],[40.797334,40.232247],[40.731085,40.237053],[40.702456,40.24651],[40.636621,40.257905],[40.574712,40.283821],[40.549701,40.345729],[40.521486,40.481535],[40.489446,40.542125],[40.6514,40.604111],[40.691398,40.61225],[40.732119,40.615842],[40.791753,40.629148],[40.821932,40.686587],[40.857486,40.697981],[40.901617,40.698265],[40.944406,40.708963],[41.050859,40.778364],[41.127443,40.81291],[41.205475,40.779191],[41.329292,40.764541],[41.365258,40.754696],[41.3727,40.722088],[41.346965,40.686406],[41.333426,40.601036],[41.401329,40.555561],[41.493519,40.581813],[41.578785,40.624291],[41.65661,40.641241],[41.734745,40.623593],[41.820838,40.587626],[41.866416,40.639716],[41.867967,40.6847],[41.887397,40.724388],[41.927188,40.755084],[41.952613,40.795624],[41.945998,40.838541],[41.958917,40.877479],[41.989613,40.898305],[42.024443,40.911896],[42.092346,40.916676],[42.161179,40.910888],[42.220813,40.920758],[42.279208,40.924918],[42.299155,40.84805],[42.351555,40.789061],[42.387625,40.76976],[42.416254,40.742294],[42.437234,40.703433],[42.46669,40.670644],[42.506791,40.639845],[42.53697,40.599176],[42.530562,40.56432],[42.514129,40.530524],[42.53821,40.430711],[42.498833,40.411332],[42.456768,40.397199],[42.422868,40.379861],[42.390622,40.359552],[42.326853,40.33188],[42.181229,40.29444],[42.15043,40.240541],[42.18557,40.208425],[42.206447,40.181217],[42.230942,40.160495],[42.316518,40.149565],[42.349074,40.14109],[42.378737,40.124967],[42.39517,40.107526],[42.408502,40.086778],[42.425245,40.076262],[42.445709,40.071792],[42.48457,40.058847],[42.509995,40.028281],[42.534696,39.988102],[42.563738,39.951851],[42.53604,39.927382],[42.502967,39.912784],[42.476508,39.913223],[42.463383,39.911673],[42.440025,39.903585],[42.417907,39.88015],[42.38163,39.870642],[42.3067,39.880667],[42.27156,39.86935],[42.352898,39.792093],[42.494905,39.748143],[42.481469,39.740624],[42.471031,39.71414],[42.472891,39.578618],[42.463176,39.531541],[42.431343,39.491388]]]}},{"type":"Feature","properties":{"id":"IQ-DA","country":"IQ","name_en":"Duhok"},"geometry":{"type":"Polygon","coordinates":[[[42.780468,37.375498],[42.792457,37.374335],[42.801139,37.36909],[42.80548,37.351856],[42.814058,37.346817],[42.89674,37.324906],[42.937048,37.320152],[42.979629,37.331831],[43.005158,37.347256],[43.043501,37.360253],[43.083706,37.368831],[43.114815,37.371131],[43.131971,37.367255],[43.263385,37.310695],[43.270309,37.30868],[43.278629,37.30775],[43.287518,37.309145],[43.296871,37.316741],[43.305656,37.319971],[43.324156,37.322219],[43.336145,37.32023],[43.362505,37.303908],[43.376039,37.295528],[43.41676,37.279173],[43.463269,37.248684],[43.479599,37.243361],[43.492415,37.244756],[43.517116,37.252301],[43.529518,37.253903],[43.542437,37.252301],[43.550602,37.248735],[43.568896,37.237702],[43.594217,37.22946],[43.618298,37.226979],[43.720824,37.232612],[43.746921,37.230648],[43.770641,37.225843],[43.780562,37.220365],[43.80206,37.20357],[43.809398,37.199694],[43.822007,37.202381],[43.83999,37.217109],[43.89363,37.224912],[43.924171,37.253076],[43.953782,37.287467],[43.990369,37.312504],[44.035586,37.31824],[44.069025,37.313727],[44.064318,37.299403],[44.067729,37.294546],[44.070933,37.293331],[44.07331,37.291703],[44.075481,37.287414],[44.076204,37.285812],[44.077754,37.28452],[44.079821,37.283539],[44.082095,37.28266],[44.083956,37.281316],[44.086953,37.280025],[44.088296,37.277441],[44.088296,37.274133],[44.079305,37.259586],[44.076514,37.253024],[44.075894,37.249019],[44.076204,37.245298],[44.077961,37.239562],[44.078891,37.233593],[44.080752,37.230725],[44.083335,37.228968],[44.087056,37.227935],[44.093257,37.22778],[44.095118,37.22716],[44.096668,37.225713],[44.099355,37.214266],[44.099458,37.210391],[44.098528,37.207678],[44.087573,37.203879],[44.076721,37.196877],[44.068969,37.19065],[44.05698,37.177809],[44.05388,37.172227],[44.05326,37.1683],[44.057807,37.161401],[44.05574,37.158559],[44.050469,37.155381],[44.03755,37.151247],[44.016776,37.142359],[44.011195,37.138354],[43.996209,37.121404],[43.992488,37.1159],[43.9867,37.111559],[43.978639,37.10758],[43.960656,37.100759],[43.952077,37.098356],[43.947736,37.095953],[43.949493,37.092852],[43.951664,37.090682],[43.951354,37.088667],[43.946806,37.086238],[43.909393,37.074146],[43.891926,37.066084],[43.886138,37.062053],[43.882727,37.056111],[43.878387,37.045284],[43.874459,37.040323],[43.869808,37.03668],[43.861644,37.035027],[43.848001,37.029601],[43.828157,37.01185],[43.796635,37.017896],[43.768729,37.026758],[43.698656,37.036758],[43.687184,37.039393],[43.669511,37.047222],[43.664756,37.048385],[43.660519,37.048617],[43.657315,37.047765],[43.653698,37.045749],[43.649357,37.042029],[43.646359,37.038541],[43.641605,37.030324],[43.640675,37.027533],[43.640778,37.023994],[43.639435,37.0157],[43.635817,37.007741],[43.633337,37.0003],[43.632717,36.996476],[43.632924,36.992988],[43.633337,36.989991],[43.636128,36.985262],[43.636644,36.982497],[43.637885,36.979629],[43.640468,36.976425],[43.6507,36.970483],[43.655765,36.968364],[43.661759,36.967072],[43.675712,36.966607],[43.683463,36.965367],[43.691835,36.961749],[43.708785,36.957383],[43.714986,36.956375],[43.720463,36.954411],[43.723667,36.951337],[43.726148,36.946763],[43.727388,36.941751],[43.728215,36.93679],[43.727905,36.93219],[43.726148,36.927333],[43.717776,36.913509],[43.713022,36.909298],[43.708475,36.906869],[43.702997,36.905112],[43.702273,36.902838],[43.704237,36.896895],[43.704754,36.893433],[43.704754,36.890281],[43.704857,36.887826],[43.705477,36.885372],[43.705787,36.880359],[43.706718,36.877543],[43.707544,36.873899],[43.707234,36.868706],[43.706097,36.862453],[43.701653,36.851239],[43.698346,36.848423],[43.694625,36.848268],[43.691111,36.850128],[43.674058,36.854676],[43.66486,36.853487],[43.657625,36.850335],[43.654318,36.846692],[43.652561,36.841628],[43.652561,36.835917],[43.65163,36.83106],[43.64884,36.826512],[43.642225,36.826228],[43.627963,36.828476],[43.482959,36.859792],[43.451023,36.872272],[43.433246,36.885501],[43.403067,36.902916],[43.389631,36.914414],[43.374025,36.924491],[43.358728,36.931002],[43.320695,36.934568],[43.304675,36.930227],[43.290619,36.921493],[43.283281,36.911468],[43.252585,36.881599],[43.223233,36.842713],[43.214448,36.82013],[43.205353,36.80225],[43.200909,36.786463],[43.185819,36.777988],[43.15254,36.764113],[43.112335,36.761322],[42.981491,36.746879],[42.899532,36.710111],[42.887439,36.712359],[42.872763,36.712281],[42.861188,36.710421],[42.851679,36.704659],[42.843411,36.692515],[42.834833,36.708096],[42.829769,36.714581],[42.822327,36.7198],[42.807961,36.725821],[42.799693,36.726312],[42.764449,36.712152],[42.754011,36.711506],[42.74719,36.7198],[42.74967,36.727423],[42.758868,36.733365],[42.781296,36.74029],[42.772511,36.747628],[42.764656,36.749566],[42.756595,36.750238],[42.74719,36.753958],[42.72962,36.766748],[42.699234,36.794292],[42.690345,36.799589],[42.678253,36.801759],[42.669365,36.799744],[42.663887,36.795222],[42.659546,36.790726],[42.654689,36.788711],[42.612521,36.789331],[42.596501,36.796023],[42.582859,36.826538],[42.566012,36.836589],[42.534903,36.849534],[42.514852,36.843359],[42.504,36.851317],[42.508651,36.861807],[42.534903,36.863202],[42.523947,36.879842],[42.515472,36.887284],[42.513199,36.896534],[42.52064,36.918445],[42.504,36.921726],[42.503277,36.937823],[42.507928,36.957874],[42.507618,36.973067],[42.488084,36.955135],[42.470617,36.954825],[42.452634,36.965496],[42.4146,36.995546],[42.397547,37.017043],[42.383801,37.040711],[42.376806,37.062001],[42.377186,37.062235],[42.376875,37.076756],[42.371191,37.087944],[42.363646,37.09815],[42.357238,37.109984],[42.401887,37.114144],[42.459144,37.129311],[42.545237,37.140887],[42.561257,37.146623],[42.564668,37.152049],[42.576967,37.17923],[42.702334,37.325346],[42.706158,37.333226],[42.707398,37.340151],[42.709465,37.347179],[42.715666,37.355292],[42.722177,37.358909],[42.77158,37.374903],[42.780468,37.375498]]]}},{"type":"Feature","properties":{"id":"IR-02","country":"IR","name_en":"West Azerbaijan"},"geometry":{"type":"Polygon","coordinates":[[[44.590435,39.771527],[44.605835,39.763155],[44.63281,39.731633],[44.646504,39.719541],[44.706294,39.698043],[44.725724,39.685331],[44.806993,39.639902],[44.809647,39.636962],[44.823953,39.63054],[44.827837,39.628797],[44.849231,39.625593],[44.872279,39.625076],[44.869281,39.620528],[44.865354,39.617583],[44.886438,39.605956],[44.898427,39.584355],[44.928399,39.488237],[44.940698,39.468083],[44.961627,39.453769],[44.953307,39.441625],[44.957028,39.434493],[44.982505,39.420179],[44.987724,39.419352],[44.998576,39.41961],[45.006379,39.417957],[45.009945,39.414029],[45.012115,39.409482],[45.015629,39.405968],[45.051237,39.387093],[45.051699,39.386848],[45.057177,39.381732],[45.060484,39.3746],[45.068649,39.364213],[45.078726,39.354757],[45.087976,39.350726],[45.096038,39.341114],[45.11435,39.30935],[45.120377,39.298894],[45.128904,39.289283],[45.135828,39.278482],[45.146267,39.228666],[45.152727,39.213525],[45.178927,39.219829],[45.283106,39.193061],[45.28569,39.194921],[45.292615,39.198616],[45.30171,39.201381],[45.311115,39.200528],[45.313905,39.19425],[45.311322,39.184844],[45.311115,39.176292],[45.320933,39.172597],[45.334886,39.170427],[45.348219,39.163916],[45.353903,39.153193],[45.345273,39.138439],[45.351939,39.12831],[45.360621,39.12322],[45.369923,39.118957],[45.379328,39.111154],[45.383462,39.103247],[45.391317,39.08175],[45.396381,39.073327],[45.405838,39.067875],[45.429712,39.059477],[45.434518,39.052785],[45.432296,39.042476],[45.428214,39.034104],[45.425268,39.025629],[45.427077,39.014881],[45.438601,39.004235],[45.45984,38.993125],[45.482577,38.984392],[45.494529,38.981917],[45.488211,38.976898],[45.37783,38.885172],[45.355816,38.843417],[45.326774,38.737377],[45.34052,38.680223],[45.366048,38.627436],[45.365634,38.577801],[45.328221,38.524755],[45.156552,38.385358],[45.100328,38.310478],[45.089372,38.267019],[45.102601,38.233687],[45.165957,38.165991],[45.172778,38.165991],[45.172881,38.152194],[45.178669,38.144855],[45.186731,38.139429],[45.193242,38.131265],[45.199443,38.11341],[45.200993,38.102532],[45.196963,38.097727],[45.193862,38.092507],[45.193242,38.059253],[45.228485,37.78958],[45.248536,37.768134],[45.25298,37.760073],[45.25422,37.756042],[45.262178,37.695839],[45.257941,37.690516],[45.248536,37.68633],[45.23913,37.680129],[45.234893,37.668838],[45.242438,37.653154],[45.256184,37.633207],[45.262695,37.614965],[45.329771,37.551042],[45.354472,37.505308],[45.343103,37.381104],[45.356849,37.327179],[45.394677,37.281859],[45.686545,37.129155],[45.816666,37.110629],[45.923533,37.109208],[46.062129,37.008413],[46.078976,36.981619],[46.203309,36.925447],[46.246408,36.893356],[46.292916,36.877749],[46.322269,36.893872],[46.338702,36.914724],[46.341802,36.923638],[46.356685,36.951724],[46.389551,36.984409],[46.449496,37.015674],[46.498899,37.023994],[46.523186,37.021978],[46.550678,37.042778],[46.592743,37.064973],[46.638838,37.058927],[46.670671,37.033244],[46.710359,37.013503],[46.761311,37.004408],[46.792834,36.982652],[46.797278,36.961543],[46.784152,36.946582],[46.82384,36.853978],[46.82291,36.787471],[46.858877,36.745406],[46.956442,36.734761],[47.193843,36.756826],[47.332336,36.507694],[47.307945,36.501493],[47.278386,36.487024],[47.274148,36.467309],[47.28128,36.450721],[47.276009,36.435089],[47.258749,36.407649],[47.216477,36.368194],[47.14103,36.341245],[47.027652,36.34928],[46.923782,36.372457],[46.885542,36.393877],[46.868488,36.409096],[46.848335,36.422583],[46.834279,36.437776],[46.826941,36.449868],[46.815158,36.457775],[46.297877,36.419121],[46.04642,36.448111],[45.958776,36.420206],[45.936659,36.397159],[45.935212,36.348944],[45.88705,36.289878],[45.724476,36.247607],[45.6944,36.221045],[45.682721,36.204974],[45.66081,36.186732],[45.646961,36.138001],[45.591564,36.086945],[45.575027,36.054363],[45.535857,36.022556],[45.501957,36.005968],[45.501424,36.005435],[45.47927,36.012015],[45.453122,36.011653],[45.419946,35.998269],[45.402169,35.994238],[45.401962,35.994083],[45.401859,35.994031],[45.4016,35.994031],[45.401549,35.99398],[45.381808,35.982973],[45.359587,35.976875],[45.33809,35.979304],[45.32052,35.99398],[45.320313,35.994031],[45.32021,35.994083],[45.32021,35.99429],[45.313699,36.010413],[45.31959,36.031032],[45.331889,36.051599],[45.344188,36.067464],[45.348322,36.087514],[45.33561,36.10772],[45.304604,36.140379],[45.299539,36.161411],[45.30202,36.207558],[45.297369,36.22673],[45.282796,36.238409],[45.264193,36.250192],[45.258508,36.262232],[45.282693,36.274893],[45.263934,36.294272],[45.25701,36.311687],[45.254478,36.354785],[45.24962,36.377936],[45.238871,36.402999],[45.221301,36.42093],[45.19598,36.422429],[45.139963,36.404394],[45.110817,36.402534],[45.083739,36.412817],[45.072266,36.423411],[45.068546,36.432506],[45.066892,36.442376],[45.062086,36.455347],[45.054076,36.464959],[45.045498,36.471625],[45.03909,36.479842],[45.03816,36.494001],[45.025344,36.505215],[45.009525,36.516196],[45.005914,36.518702],[44.991393,36.53374],[44.993408,36.549656],[44.997852,36.552085],[45.010255,36.556013],[45.013252,36.557925],[45.014182,36.579009],[45.024879,36.613167],[45.04431,36.64934],[45.045911,36.668047],[45.035266,36.689596],[45.010978,36.725563],[44.996199,36.741686],[44.979456,36.749024],[44.966433,36.749334],[44.954754,36.752331],[44.944419,36.758274],[44.935221,36.767111],[44.922715,36.775896],[44.908245,36.77786],[44.87724,36.776464],[44.851195,36.781219],[44.831248,36.791916],[44.823393,36.809331],[44.834141,36.834032],[44.869643,36.868965],[44.883441,36.886845],[44.888815,36.910926],[44.884061,36.933354],[44.874863,36.949658],[44.869178,36.967357],[44.874759,36.994022],[44.885715,37.005081],[44.887368,37.015933],[44.880754,37.024925],[44.858946,37.034123],[44.847577,37.044045],[44.840601,37.047197],[44.830938,37.046835],[44.811197,37.041926],[44.801895,37.043528],[44.797296,37.048489],[44.792232,37.063734],[44.788356,37.070245],[44.781121,37.074482],[44.773628,37.076343],[44.766549,37.078952],[44.760658,37.085644],[44.752699,37.103318],[44.752544,37.113136],[44.766135,37.14192],[44.772336,37.161247],[44.766135,37.178145],[44.75673,37.195198],[44.753526,37.215326],[44.760503,37.233232],[44.772957,37.241681],[44.786754,37.248115],[44.798485,37.260311],[44.801585,37.292686],[44.778951,37.313796],[44.721384,37.343277],[44.713012,37.356791],[44.707121,37.37095],[44.698026,37.380045],[44.661646,37.375653],[44.65224,37.384024],[44.638184,37.412601],[44.622785,37.421903],[44.585578,37.424668],[44.572142,37.430791],[44.565941,37.447173],[44.579273,37.476964],[44.575243,37.493837],[44.575243,37.493992],[44.56992,37.514404],[44.571832,37.539208],[44.578343,37.56391],[44.587438,37.584012],[44.583511,37.601091],[44.56098,37.614656],[44.540878,37.632717],[44.54527,37.663025],[44.553538,37.67181],[44.588162,37.693979],[44.598394,37.707028],[44.59612,37.716381],[44.559378,37.752012],[44.534418,37.769194],[44.506461,37.779349],[44.479228,37.776868],[44.466515,37.771132],[44.450496,37.766636],[44.43644,37.767799],[44.429102,37.779142],[44.429773,37.785137],[44.433752,37.801105],[44.433029,37.806117],[44.425484,37.810768],[44.418973,37.809683],[44.4121,37.807719],[44.4044,37.809735],[44.393238,37.821078],[44.387554,37.833402],[44.383833,37.844978],[44.377942,37.854125],[44.367142,37.860222],[44.331226,37.873968],[44.319238,37.876862],[44.254435,37.870842],[44.219605,37.875312],[44.202087,37.897171],[44.205006,37.904768],[44.206376,37.908333],[44.216711,37.918591],[44.225496,37.929314],[44.22467,37.942],[44.219657,37.956082],[44.221466,37.96882],[44.227564,37.98099],[44.236038,37.993832],[44.236142,37.993987],[44.245392,38.008379],[44.269525,38.030005],[44.27831,38.045327],[44.286578,38.066308],[44.29588,38.07902],[44.309006,38.087237],[44.328281,38.094627],[44.33381,38.10088],[44.325697,38.11969],[44.327092,38.128397],[44.335361,38.134056],[44.353137,38.139999],[44.360579,38.147853],[44.36709,38.162478],[44.373239,38.182115],[44.376702,38.201545],[44.372413,38.249501],[44.400576,38.274667],[44.43675,38.29694],[44.459177,38.322416],[44.458764,38.338333],[44.451116,38.354042],[44.438817,38.367556],[44.424657,38.377038],[44.409051,38.381793],[44.396339,38.379674],[44.363369,38.36461],[44.313398,38.371819],[44.29867,38.377194],[44.289524,38.382258],[44.286578,38.390991],[44.289885,38.407373],[44.290505,38.416597],[44.287405,38.441944],[44.287508,38.453726],[44.300169,38.494034],[44.301357,38.51119],[44.292159,38.56204],[44.29681,38.601624],[44.297017,38.622321],[44.289885,38.638883],[44.282547,38.645394],[44.274899,38.649373],[44.256812,38.653921],[44.244307,38.658959],[44.247407,38.665083],[44.256089,38.671956],[44.260481,38.679242],[44.255469,38.697277],[44.250508,38.709215],[44.248648,38.721824],[44.252678,38.741822],[44.279808,38.814221],[44.275002,38.843573],[44.221982,38.863443],[44.205756,38.875664],[44.192113,38.890754],[44.182502,38.91313],[44.178161,38.9207],[44.174854,38.928374],[44.17537,38.936694],[44.174647,38.945763],[44.167102,38.95199],[44.158007,38.957468],[44.151961,38.964625],[44.147775,38.980051],[44.144675,38.98682],[44.139197,38.993771],[44.139197,38.993952],[44.153356,39.012555],[44.169531,39.023046],[44.179143,39.034931],[44.169893,39.07436],[44.174957,39.090225],[44.194801,39.120533],[44.186636,39.145131],[44.148085,39.166448],[44.10354,39.184638],[44.077702,39.200063],[44.076565,39.208693],[44.08349,39.226832],[44.082663,39.235668],[44.070571,39.255486],[44.06716,39.264013],[44.066746,39.272953],[44.069227,39.279567],[44.069434,39.287009],[44.057651,39.306801],[44.05176,39.32804],[44.047395,39.337514],[44.047213,39.33791],[44.020961,39.361991],[44.014863,39.374084],[44.026025,39.386176],[44.046386,39.396046],[44.061372,39.400284],[44.076978,39.400594],[44.099199,39.398475],[44.122247,39.400439],[44.176507,39.411549],[44.200433,39.409482],[44.269525,39.382869],[44.29495,39.381215],[44.316964,39.385297],[44.368744,39.403591],[44.387967,39.414495],[44.404814,39.43439],[44.405227,39.452477],[44.401713,39.471339],[44.406674,39.493714],[44.406829,39.493714],[44.416803,39.505548],[44.417423,39.517486],[44.414012,39.530353],[44.412048,39.544461],[44.414012,39.560894],[44.41856,39.57433],[44.451684,39.625851],[44.457627,39.638719],[44.45825,39.64252],[44.460211,39.65448],[44.455043,39.687139],[44.459487,39.698457],[44.565734,39.765894],[44.590435,39.771527]]]}},{"type":"Feature","properties":{"id":"SY-HA","country":"SY","name_en":"Al-Hasakah"},"geometry":{"type":"Polygon","coordinates":[[[42.211201,37.324906],[42.22257,37.313951],[42.22381,37.302375],[42.222156,37.292402],[42.22319,37.288139],[42.236832,37.286304],[42.267218,37.274522],[42.272902,37.276744],[42.279207,37.282273],[42.285822,37.286562],[42.292023,37.285064],[42.296364,37.279689],[42.301428,37.269923],[42.305769,37.264548],[42.339875,37.242637],[42.346696,37.239769],[42.353208,37.227031],[42.335328,37.171169],[42.346696,37.158431],[42.354551,37.15241],[42.356515,37.138277],[42.357238,37.109984],[42.363646,37.09815],[42.371191,37.087944],[42.376875,37.076756],[42.377186,37.062235],[42.376806,37.062001],[42.34587,37.042908],[42.281894,36.994125],[42.281894,36.99397],[42.281584,36.99397],[42.178438,36.90532],[41.978554,36.733625],[41.843781,36.617869],[41.817323,36.599731],[41.789935,36.589292],[41.479773,36.536117],[41.414867,36.527384],[41.385411,36.516377],[41.365361,36.494156],[41.365361,36.494053],[41.365258,36.494001],[41.365258,36.493898],[41.276994,36.354785],[41.268829,36.327965],[41.236583,36.077024],[41.236687,36.060332],[41.240614,36.043021],[41.266246,35.99429],[41.266349,35.994342],[41.266349,35.994238],[41.343657,35.857657],[41.354509,35.825566],[41.359263,35.792752],[41.363501,35.655241],[41.358023,35.623925],[41.34221,35.593694],[41.308458,35.552248],[41.308001,35.552301],[41.195966,35.565271],[40.999493,35.56925],[40.923012,35.582144],[40.887148,35.593047],[40.825395,35.60408],[40.806946,35.61085],[40.774959,35.626301],[40.025805,36.221174],[39.900748,36.324295],[39.826076,36.424392],[39.804527,36.463666],[39.802666,36.476559],[39.801426,36.480461],[39.799876,36.483562],[39.793365,36.49183],[39.782513,36.500821],[39.720243,36.529088],[39.628258,36.559939],[39.623453,36.56074],[39.618492,36.560973],[39.614151,36.560508],[39.609913,36.559629],[39.594255,36.554668],[39.585884,36.552911],[39.56759,36.551206],[39.556997,36.551878],[39.546765,36.553893],[39.538238,36.557123],[39.524751,36.566761],[39.474004,36.619471],[39.465168,36.636007],[39.441708,36.692373],[39.765252,36.742151],[39.979812,36.806953],[40.079238,36.854857],[40.115205,36.864728],[40.152722,36.87036],[40.190136,36.884416],[40.261409,36.922785],[40.393741,36.994022],[40.413894,37.004022],[40.435185,37.01061],[40.456993,37.014124],[40.479834,37.015158],[40.525722,37.025881],[40.659461,37.085257],[40.708967,37.100476],[40.896449,37.122696],[41.135091,37.084249],[41.179739,37.069625],[41.20134,37.064974],[41.479773,37.075568],[41.896365,37.154283],[42.009249,37.175613],[42.052968,37.196645],[42.128312,37.253283],[42.178541,37.306303],[42.193011,37.313227],[42.211201,37.324906]]]}}]}
