{"type":"FeatureCollection","features":[{"type":"Feature","properties":{"id":"IN-KA","country":"IN","name_en":"Karnataka"},"geometry":{"type":"Polygon","coordinates":[[[74.854259,12.765286],[74.854747,12.787014],[74.852306,12.797309],[74.844005,12.80801],[74.834972,12.815823],[74.827647,12.824652],[74.824962,12.838202],[74.85141,12.825507],[74.859141,12.824612],[74.866954,12.830024],[74.881114,12.848049],[74.889822,12.851874],[74.901134,12.85342],[74.917491,12.85814],[74.932872,12.866441],[74.940929,12.878607],[74.894786,12.871161],[74.850597,12.857164],[74.817556,12.861762],[74.770274,13.052436],[74.783376,13.084662],[74.774099,13.093411],[74.769216,13.099555],[74.76295,13.118801],[74.761892,13.143134],[74.759776,13.155219],[74.75294,13.160386],[74.74879,13.170844],[74.737804,13.221381],[74.733409,13.262763],[74.715099,13.331041],[74.707205,13.348375],[74.696137,13.365953],[74.689464,13.381578],[74.694591,13.393134],[74.687511,13.410346],[74.68336,13.442816],[74.680919,13.468248],[74.690766,13.439114],[74.693696,13.415269],[74.708263,13.413031],[74.701915,13.420356],[74.702403,13.442613],[74.701427,13.461371],[74.677094,13.52676],[74.677989,13.54914],[74.671397,13.603949],[74.673513,13.619086],[74.669932,13.622016],[74.667979,13.625149],[74.667166,13.628607],[74.666677,13.632758],[74.672862,13.628892],[74.677094,13.630316],[74.679698,13.636461],[74.680919,13.646959],[74.687185,13.646959],[74.696788,13.640448],[74.709972,13.64057],[74.723806,13.645575],[74.735606,13.653795],[74.720551,13.652289],[74.712901,13.656195],[74.701427,13.673733],[74.688324,13.68594],[74.688975,13.690863],[74.701427,13.69477],[74.687755,13.711819],[74.676036,13.701077],[74.660492,13.660061],[74.646983,13.692084],[74.623057,13.774156],[74.614594,13.835517],[74.595958,13.871487],[74.583995,13.903876],[74.550792,13.945502],[74.536388,13.969875],[74.504731,14.01024],[74.495372,14.030585],[74.494802,14.040717],[74.496267,14.06151],[74.495372,14.071519],[74.491384,14.080634],[74.479177,14.095649],[74.474864,14.105699],[74.473155,14.161689],[74.467459,14.181383],[74.438731,14.22012],[74.429047,14.240424],[74.43336,14.263373],[74.447032,14.253974],[74.471039,14.248684],[74.494965,14.247463],[74.508962,14.250312],[74.500011,14.257961],[74.436371,14.27969],[74.427745,14.28384],[74.415375,14.301093],[74.412608,14.344794],[74.403575,14.362982],[74.396983,14.372748],[74.394379,14.384914],[74.394216,14.410793],[74.391856,14.419013],[74.386729,14.424221],[74.381602,14.43122],[74.374278,14.467271],[74.353852,14.505072],[74.351899,14.530219],[74.367035,14.512356],[74.377452,14.484605],[74.388845,14.462714],[74.407237,14.461982],[74.397634,14.475409],[74.401134,14.479722],[74.427745,14.476264],[74.385427,14.524115],[74.372406,14.530219],[74.374685,14.533759],[74.377126,14.541002],[74.379242,14.544582],[74.368337,14.549709],[74.364106,14.54914],[74.358735,14.544582],[74.355479,14.557074],[74.355805,14.562405],[74.358735,14.571234],[74.342947,14.563666],[74.340994,14.551174],[74.342947,14.536851],[74.339041,14.523993],[74.32488,14.517239],[74.309825,14.519436],[74.300548,14.527411],[74.303559,14.537665],[74.295909,14.565009],[74.295177,14.587307],[74.307384,14.601874],[74.339041,14.605943],[74.339041,14.612779],[74.323904,14.618598],[74.312266,14.615465],[74.301117,14.60932],[74.28712,14.605943],[74.27589,14.610175],[74.268077,14.61994],[74.266856,14.631293],[74.276215,14.640082],[74.269216,14.658922],[74.263194,14.701606],[74.25294,14.71894],[74.23406,14.734076],[74.22047,14.738105],[74.208751,14.731838],[74.194347,14.715806],[74.180675,14.742174],[74.173839,14.749945],[74.169444,14.750881],[74.157725,14.748969],[74.153331,14.749945],[74.146495,14.761868],[74.145844,14.763617],[74.111339,14.780341],[74.096446,14.793362],[74.091319,14.811428],[74.109141,14.802639],[74.114024,14.808417],[74.114268,14.82095],[74.118663,14.831855],[74.128754,14.83747],[74.140473,14.838772],[74.151541,14.83511],[74.159516,14.82567],[74.169688,14.844468],[74.178966,14.856269],[74.190684,14.863105],[74.208018,14.866645],[74.21811,14.865383],[74.226899,14.862738],[74.233084,14.864569],[74.235199,14.876532],[74.230724,14.880113],[74.220876,14.882066],[74.211192,14.887356],[74.208018,14.900824],[74.19752,14.890855],[74.166189,14.876532],[74.159516,14.869778],[74.154063,14.862128],[74.14088,14.852688],[74.125011,14.845852],[74.111827,14.846177],[74.103038,14.85692],[74.091156,14.8876],[74.125326,14.904801],[74.14765,14.92343],[74.154575,14.927461],[74.160673,14.929192],[74.183204,14.926764],[74.19757,14.928701],[74.209869,14.933482],[74.226612,14.943248],[74.241185,14.956038],[74.243665,14.961232],[74.245215,14.965702],[74.247592,14.977665],[74.255034,15.000248],[74.260925,15.013063],[74.264336,15.022236],[74.266609,15.032313],[74.26754,15.041382],[74.267126,15.049857],[74.260305,15.083085],[74.259685,15.090268],[74.259685,15.097683],[74.262475,15.112773],[74.264749,15.120757],[74.288417,15.16755],[74.291827,15.178712],[74.292758,15.188272],[74.291001,15.194938],[74.288107,15.200597],[74.283559,15.20517],[74.278598,15.209046],[74.249143,15.225453],[74.244182,15.231319],[74.241185,15.23783],[74.240874,15.247313],[74.243355,15.252532],[74.247076,15.256072],[74.251416,15.257519],[74.282216,15.263358],[74.289657,15.26664],[74.298339,15.272918],[74.302059,15.280282],[74.30423,15.28917],[74.300199,15.329013],[74.298442,15.336609],[74.295858,15.342165],[74.291517,15.348779],[74.263509,15.377408],[74.259065,15.38596],[74.257204,15.394177],[74.257204,15.402678],[74.258858,15.415287],[74.259065,15.420093],[74.258134,15.428154],[74.254827,15.436112],[74.251003,15.442675],[74.239221,15.454225],[74.236534,15.472467],[74.245422,15.48766],[74.254517,15.50032],[74.257824,15.518588],[74.254104,15.532825],[74.246042,15.587163],[74.237981,15.616024],[74.234053,15.622793],[74.226818,15.629847],[74.197776,15.645324],[74.178966,15.652042],[74.172352,15.653386],[74.167184,15.652352],[74.153851,15.643232],[74.14796,15.640131],[74.140829,15.637573],[74.1276,15.63517],[74.115507,15.6361],[74.100625,15.640286],[74.099488,15.655324],[74.094217,15.664832],[74.092873,15.669302],[74.094837,15.672816],[74.107136,15.677338],[74.112407,15.682247],[74.117058,15.690205],[74.125016,15.713666],[74.138142,15.729505],[74.186097,15.76573],[74.194469,15.76958],[74.202531,15.771053],[74.209559,15.768805],[74.213796,15.76449],[74.21576,15.757876],[74.216587,15.75108],[74.215346,15.739014],[74.214209,15.734595],[74.213899,15.731572],[74.214519,15.729195],[74.217517,15.727516],[74.223511,15.726095],[74.255964,15.726017],[74.281595,15.729867],[74.293998,15.73444],[74.30423,15.73966],[74.321593,15.752734],[74.331102,15.761932],[74.349498,15.789372],[74.369549,15.825779],[74.373063,15.835494],[74.370789,15.844795],[74.365931,15.851307],[74.352496,15.86296],[74.351565,15.867378],[74.354459,15.872572],[74.382261,15.908099],[74.400865,15.944893],[74.413577,15.962644],[74.421949,15.9767],[74.42877,15.993753],[74.433007,16.018583],[74.433111,16.031735],[74.43125,16.040752],[74.42815,16.044938],[74.424016,16.047651],[74.419055,16.049512],[74.396524,16.055067],[74.389393,16.058012],[74.384638,16.062121],[74.383501,16.069485],[74.386912,16.076771],[74.397971,16.088346],[74.406342,16.093178],[74.415954,16.096356],[74.457502,16.097416],[74.464323,16.101601],[74.469594,16.109792],[74.471971,16.127879],[74.470421,16.161236],[74.476312,16.20281],[74.476002,16.217331],[74.473935,16.227925],[74.470835,16.235753],[74.466184,16.242394],[74.458949,16.24937],[74.451921,16.253944],[74.366241,16.292882],[74.359937,16.294329],[74.354769,16.293709],[74.349808,16.291228],[74.341127,16.284794],[74.337406,16.282572],[74.332445,16.280531],[74.328001,16.280557],[74.323763,16.282934],[74.320973,16.289368],[74.319526,16.297429],[74.321076,16.31624],[74.321076,16.321097],[74.319526,16.32518],[74.312395,16.335877],[74.308364,16.344455],[74.30578,16.352723],[74.304333,16.36944],[74.306193,16.377114],[74.310741,16.38192],[74.322006,16.385073],[74.339576,16.3867],[74.346708,16.388121],[74.351979,16.390912],[74.356526,16.395304],[74.35787,16.40073],[74.35601,16.404425],[74.352496,16.406958],[74.338543,16.412719],[74.332342,16.416078],[74.326451,16.420032],[74.322627,16.424631],[74.320146,16.430238],[74.318906,16.437472],[74.318596,16.444759],[74.317356,16.451761],[74.314565,16.456283],[74.310844,16.458866],[74.306814,16.459047],[74.295651,16.4576],[74.290277,16.457678],[74.284386,16.45897],[74.279425,16.461399],[74.276428,16.46561],[74.275394,16.468943],[74.274567,16.473181],[74.274257,16.477832],[74.271777,16.489536],[74.269503,16.4938],[74.266919,16.496048],[74.263715,16.496332],[74.259168,16.495169],[74.251416,16.491784],[74.240254,16.48442],[74.237671,16.483206],[74.234983,16.482328],[74.232193,16.48256],[74.228782,16.4838],[74.225992,16.486152],[74.225061,16.488684],[74.225682,16.492534],[74.238394,16.519845],[74.243562,16.539585],[74.248316,16.545089],[74.257928,16.543926],[74.264956,16.538887],[74.271674,16.532144],[74.278288,16.527777],[74.28542,16.526433],[74.292448,16.528371],[74.298029,16.533797],[74.300509,16.538061],[74.307434,16.558964],[74.311051,16.563046],[74.314772,16.564571],[74.321696,16.563253],[74.326864,16.559584],[74.331205,16.554985],[74.335752,16.549197],[74.340507,16.544313],[74.346708,16.541781],[74.353219,16.543512],[74.36035,16.550205],[74.3773,16.569377],[74.382261,16.573588],[74.387739,16.577102],[74.400555,16.583717],[74.406342,16.587541],[74.411407,16.592657],[74.415437,16.598858],[74.418745,16.605524],[74.427426,16.639243],[74.43001,16.644333],[74.434868,16.646762],[74.441276,16.646426],[74.454608,16.642214],[74.469801,16.633352],[74.478586,16.630587],[74.511659,16.627719],[74.51972,16.625962],[74.524578,16.623843],[74.526542,16.61511],[74.528609,16.598806],[74.530883,16.593975],[74.540804,16.581365],[74.544422,16.575268],[74.545972,16.570539],[74.545972,16.566276],[74.545662,16.562788],[74.545765,16.558318],[74.546592,16.555476],[74.548763,16.553357],[74.55238,16.551832],[74.557444,16.551652],[74.563645,16.553073],[74.573257,16.557233],[74.581215,16.562038],[74.614082,16.590564],[74.62173,16.59568],[74.629171,16.598858],[74.636096,16.60046],[74.655319,16.602501],[74.665758,16.606222],[74.669169,16.614154],[74.671959,16.62542],[74.644467,16.65193],[74.65966,16.663376],[74.667515,16.667975],[74.672166,16.672729],[74.675267,16.677561],[74.684878,16.708438],[74.688289,16.712675],[74.694283,16.715233],[74.704825,16.715233],[74.713197,16.716318],[74.720432,16.719419],[74.728493,16.72668],[74.735935,16.738203],[74.739035,16.740296],[74.74503,16.742673],[74.757949,16.745335],[74.78048,16.757246],[74.788025,16.762646],[74.796086,16.766315],[74.807145,16.76753],[74.823991,16.764688],[74.839081,16.759081],[74.85014,16.757143],[74.857581,16.757918],[74.863472,16.763111],[74.865643,16.766677],[74.866676,16.771457],[74.866676,16.776211],[74.858821,16.818922],[74.855204,16.830498],[74.85138,16.839412],[74.844559,16.852021],[74.844042,16.854734],[74.844559,16.858454],[74.845799,16.861245],[74.853964,16.865612],[74.899336,16.878634],[74.913081,16.884267],[74.92228,16.889331],[74.928894,16.897987],[74.933235,16.902612],[74.948015,16.914704],[74.951322,16.920802],[74.960004,16.951136],[74.963828,16.954211],[74.970339,16.955219],[74.999588,16.94509],[75.043409,16.952816],[75.048887,16.953203],[75.053641,16.950671],[75.057879,16.943075],[75.061186,16.931809],[75.066871,16.923179],[75.075552,16.916151],[75.093226,16.908581],[75.098083,16.904653],[75.101494,16.899666],[75.108315,16.891114],[75.118237,16.8822],[75.13405,16.876619],[75.144489,16.871193],[75.154824,16.868583],[75.166503,16.867937],[75.197095,16.877006],[75.24257,16.902095],[75.243811,16.918115],[75.24102,16.937287],[75.241434,16.947829],[75.245671,16.953849],[75.256006,16.959172],[75.307063,16.959869],[75.325253,16.96359],[75.338895,16.9693],[75.360599,16.981987],[75.370831,16.984467],[75.426125,16.984855],[75.434807,16.98222],[75.441731,16.977336],[75.447106,16.970334],[75.45341,16.964055],[75.461368,16.96173],[75.471704,16.963048],[75.509117,16.976664],[75.517799,16.982013],[75.526377,16.989196],[75.532992,16.99687],[75.543741,17.012011],[75.548702,17.015267],[75.553766,17.014905],[75.563171,17.009298],[75.589526,16.986405],[75.602859,16.978163],[75.616708,16.974675],[75.627353,16.976974],[75.634071,16.983227],[75.638102,16.990514],[75.640686,16.999118],[75.641512,17.010177],[75.640272,17.018936],[75.637482,17.028909],[75.622909,17.049166],[75.622289,17.053507],[75.624563,17.061207],[75.62911,17.066349],[75.642443,17.075056],[75.646267,17.080896],[75.646783,17.091412],[75.643476,17.103633],[75.634381,17.119395],[75.625183,17.129342],[75.615881,17.137352],[75.609473,17.145956],[75.605132,17.158126],[75.605029,17.17921],[75.608233,17.192775],[75.61309,17.20311],[75.618361,17.211715],[75.622082,17.220939],[75.622392,17.230602],[75.621049,17.242436],[75.616398,17.258663],[75.61123,17.269825],[75.602548,17.277886],[75.587356,17.285095],[75.582395,17.290263],[75.578674,17.298764],[75.574953,17.318271],[75.569786,17.334291],[75.552836,17.365917],[75.551492,17.389301],[75.560174,17.398912],[75.573506,17.408421],[75.580948,17.415191],[75.588286,17.425293],[75.601928,17.454878],[75.607613,17.46449],[75.61309,17.471595],[75.621772,17.47635],[75.633141,17.480303],[75.643373,17.476582],[75.659599,17.467074],[75.667041,17.446171],[75.677996,17.425267],[75.704764,17.415759],[75.729983,17.418239],[75.740628,17.415681],[75.752927,17.405527],[75.758611,17.395553],[75.762952,17.385115],[75.769877,17.377208],[75.783933,17.374805],[75.799332,17.385968],[75.815869,17.405785],[75.831785,17.416973],[75.845428,17.402116],[75.870026,17.416147],[75.87757,17.411961],[75.886976,17.394649],[75.8908,17.379224],[75.89266,17.363902],[75.897724,17.352171],[75.91085,17.347494],[75.919738,17.341629],[75.926973,17.33101],[75.936482,17.325868],[75.952191,17.336617],[75.96325,17.342585],[75.996736,17.349277],[76.009862,17.353696],[76.021024,17.346332],[76.027845,17.345737],[76.040558,17.349355],[76.061332,17.357649],[76.094715,17.377751],[76.112698,17.381963],[76.127064,17.381317],[76.146288,17.371111],[76.15652,17.370904],[76.166442,17.374134],[76.184115,17.384391],[76.198274,17.387828],[76.210367,17.388913],[76.219978,17.386872],[76.228453,17.382479],[76.245403,17.36708],[76.255015,17.360414],[76.265454,17.357675],[76.291189,17.35814],[76.303798,17.356564],[76.330876,17.350207],[76.343795,17.351861],[76.353614,17.357029],[76.375008,17.371937],[76.380382,17.378759],[76.378108,17.389766],[76.36984,17.398344],[76.347413,17.413434],[76.341005,17.423821],[76.336457,17.445861],[76.332943,17.454465],[76.321471,17.46418],[76.316303,17.473869],[76.31806,17.487383],[76.328086,17.500844],[76.336354,17.508983],[76.340074,17.515546],[76.338834,17.52291],[76.332323,17.534124],[76.332116,17.538129],[76.336147,17.551616],[76.337284,17.559962],[76.336354,17.568308],[76.331703,17.576292],[76.31744,17.592725],[76.311549,17.601071],[76.313099,17.609752],[76.322194,17.61771],[76.390614,17.636779],[76.410251,17.65391],[76.413455,17.664788],[76.416452,17.671376],[76.421723,17.67812],[76.431335,17.683779],[76.453969,17.692383],[76.461721,17.697783],[76.466268,17.704759],[76.466888,17.712537],[76.465958,17.71897],[76.465752,17.726308],[76.469472,17.732148],[76.47712,17.736876],[76.489626,17.740339],[76.496964,17.744421],[76.501408,17.748865],[76.50854,17.766539],[76.512984,17.772817],[76.522699,17.777029],[76.534688,17.775866],[76.553395,17.766409],[76.570861,17.767081],[76.583264,17.769975],[76.592669,17.770595],[76.601557,17.765479],[76.616543,17.745041],[76.625638,17.736385],[76.638454,17.728737],[76.660675,17.709772],[76.675971,17.706852],[76.68765,17.755015],[76.696228,17.776667],[76.70553,17.792118],[76.714832,17.799534],[76.734159,17.80819],[76.743977,17.813616],[76.751626,17.820127],[76.755656,17.825837],[76.756897,17.835372],[76.75483,17.849169],[76.742427,17.877074],[76.740877,17.898417],[76.754209,17.900897],[76.761961,17.900665],[76.771263,17.899114],[76.825316,17.88449],[76.839062,17.884232],[76.851568,17.890743],[76.863143,17.90374],[76.877613,17.933557],[76.882987,17.954899],[76.885054,17.974459],[76.881747,18.002777],[76.881747,18.018565],[76.883504,18.029365],[76.896216,18.079594],[76.897456,18.093004],[76.897456,18.105536],[76.892909,18.144293],[76.900247,18.157006],[76.914406,18.167677],[76.949546,18.179976],[76.970114,18.182069],[76.997502,18.177857],[77.00577,18.178348],[77.015485,18.182146],[77.027681,18.188606],[77.039567,18.191887],[77.050005,18.192172],[77.069539,18.189071],[77.080288,18.191345],[77.087729,18.197055],[77.092173,18.208682],[77.094034,18.219095],[77.097754,18.230412],[77.104576,18.24098],[77.117908,18.253847],[77.176923,18.297049],[77.203898,18.30803],[77.21351,18.310071],[77.221158,18.313818],[77.227359,18.322086],[77.23108,18.333791],[77.231803,18.355986],[77.226222,18.385441],[77.229012,18.399472],[77.232733,18.410659],[77.264773,18.45306],[77.281619,18.459675],[77.290921,18.460811],[77.301876,18.460269],[77.313348,18.456238],[77.324304,18.449133],[77.336603,18.435981],[77.341564,18.426292],[77.343734,18.416628],[77.342804,18.371282],[77.343838,18.361231],[77.346628,18.351516],[77.356137,18.345599],[77.371949,18.338726],[77.406573,18.327719],[77.419905,18.321466],[77.427347,18.316143],[77.429414,18.295809],[77.431894,18.288031],[77.437579,18.281908],[77.44688,18.279531],[77.461453,18.281933],[77.476853,18.292631],[77.493182,18.308986],[77.502794,18.312939],[77.509099,18.314567],[77.551163,18.307875],[77.583306,18.291545],[77.583616,18.284491],[77.582066,18.274182],[77.575658,18.261909],[77.570904,18.249584],[77.568527,18.233745],[77.569767,18.223668],[77.590748,18.175454],[77.600979,18.125121],[77.599946,18.114838],[77.596535,18.110885],[77.591678,18.108301],[77.585477,18.106466],[77.572454,18.10396],[77.565736,18.100885],[77.560982,18.095769],[77.557675,18.086157],[77.559122,18.078354],[77.562946,18.070784],[77.594778,18.044609],[77.60346,18.033732],[77.611211,18.017221],[77.62134,17.986835],[77.625784,17.957457],[77.626714,17.942187],[77.62413,17.932265],[77.61979,17.92565],[77.559225,17.869866],[77.549613,17.863277],[77.539691,17.858626],[77.530286,17.855319],[77.523465,17.852115],[77.515817,17.845578],[77.507859,17.834726],[77.501864,17.821858],[77.500107,17.815786],[77.500314,17.812298],[77.502277,17.80974],[77.506618,17.805141],[77.519641,17.793927],[77.526049,17.786434],[77.530906,17.777597],[77.533697,17.76318],[77.53132,17.754007],[77.525429,17.746281],[77.516127,17.740649],[77.480883,17.726541],[77.470548,17.720288],[77.463623,17.713415],[77.452358,17.689334],[77.423936,17.65267],[77.411534,17.630785],[77.423006,17.612517],[77.456699,17.599055],[77.469928,17.592105],[77.484914,17.581098],[77.492872,17.57761],[77.503414,17.576137],[77.515507,17.576369],[77.535867,17.573734],[77.54951,17.57407],[77.582583,17.578772],[77.588784,17.554174],[77.592608,17.550221],[77.599119,17.54681],[77.608628,17.548206],[77.620203,17.552779],[77.642321,17.566086],[77.655033,17.572132],[77.674257,17.577067],[77.683042,17.574044],[77.685832,17.567171],[77.682008,17.554975],[77.653173,17.500069],[77.651622,17.499216],[77.648005,17.497563],[77.599326,17.486917],[77.589714,17.481595],[77.581032,17.471854],[77.578345,17.455498],[77.570594,17.445008],[77.560982,17.438497],[77.548269,17.436119],[77.536177,17.435396],[77.525635,17.430435],[77.51623,17.41948],[77.507755,17.396329],[77.496386,17.374573],[77.37443,17.222567],[77.365335,17.194093],[77.366368,17.180476],[77.370399,17.169159],[77.378151,17.161873],[77.387349,17.15779],[77.405953,17.152855],[77.415564,17.149186],[77.425176,17.142339],[77.428587,17.135983],[77.433548,17.096838],[77.440989,17.081361],[77.465174,17.042578],[77.467758,17.025809],[77.46414,17.011546],[77.451221,16.992581],[77.442126,16.974726],[77.435718,16.954934],[77.433444,16.934755],[77.434375,16.812773],[77.431584,16.799569],[77.424763,16.795383],[77.418975,16.789647],[77.414841,16.779596],[77.40957,16.737842],[77.40957,16.726395],[77.410914,16.720582],[77.415461,16.717326],[77.435615,16.705544],[77.44409,16.695984],[77.445537,16.69017],[77.441299,16.684124],[77.424453,16.670998],[77.417011,16.663479],[77.411534,16.652808],[77.41112,16.647821],[77.413601,16.646891],[77.424866,16.650612],[77.431998,16.65162],[77.438819,16.65056],[77.44533,16.645677],[77.44626,16.640768],[77.444297,16.633042],[77.439439,16.622138],[77.435615,16.604956],[77.431998,16.593613],[77.427243,16.585732],[77.418045,16.579763],[77.396961,16.571702],[77.389519,16.565914],[77.383938,16.556173],[77.383112,16.542763],[77.378667,16.532221],[77.370916,16.524289],[77.344974,16.510259],[77.311591,16.485454],[77.273558,16.465145],[77.260328,16.454707],[77.257435,16.449358],[77.28472,16.4152],[77.293711,16.406518],[77.393964,16.381068],[77.410603,16.379362],[77.473132,16.381068],[77.493286,16.378174],[77.53318,16.361043],[77.538244,16.350191],[77.547649,16.343008],[77.55261,16.332156],[77.551783,16.317686],[77.546409,16.307532],[77.540001,16.299522],[77.530596,16.292572],[77.501347,16.275467],[77.495973,16.270506],[77.490805,16.261592],[77.488532,16.250455],[77.490185,16.222757],[77.488221,16.210458],[77.483984,16.199451],[77.480263,16.183819],[77.479023,16.164414],[77.485121,16.110774],[77.485121,16.092997],[77.4814,16.068606],[77.480883,16.045894],[77.483674,16.002073],[77.479953,15.993908],[77.473959,15.983495],[77.457009,15.966752],[77.446467,15.95298],[77.432928,15.954711],[77.428794,15.9559],[77.306217,15.957062],[77.263636,15.962101],[77.252887,15.965744],[77.23542,15.974632],[77.226429,15.976389],[77.163073,15.967114],[77.143746,15.960706],[77.07357,15.921018],[77.034089,15.873734],[77.035433,15.859782],[77.030472,15.849188],[77.030472,15.824745],[77.025304,15.781285],[77.027681,15.760925],[77.031092,15.748755],[77.036776,15.744853],[77.041944,15.743122],[77.046698,15.7409],[77.051659,15.737024],[77.063338,15.712736],[77.076877,15.69018],[77.084939,15.667287],[77.083182,15.657778],[77.076877,15.653825],[77.067162,15.655944],[77.05693,15.659871],[77.047938,15.662171],[77.038533,15.662481],[77.028715,15.659949],[77.01931,15.653929],[77.010525,15.644627],[77.0036,15.631785],[77.000809,15.62406],[76.999879,15.619435],[76.999672,15.613776],[77.009181,15.569334],[77.010111,15.524402],[77.008044,15.511844],[77.00484,15.504894],[77.000913,15.503886],[76.996882,15.50585],[76.980449,15.519182],[76.972387,15.522179],[76.966393,15.51404],[76.967426,15.506005],[76.968563,15.501509],[76.971767,15.497685],[76.981379,15.479366],[76.986547,15.461873],[76.990887,15.453062],[76.996158,15.446551],[77.001223,15.443244],[77.007631,15.433477],[77.014452,15.41725],[77.022513,15.364851],[77.025924,15.351492],[77.031402,15.345575],[77.039567,15.341725],[77.07419,15.333612],[77.085249,15.328005],[77.09362,15.322243],[77.104886,15.308213],[77.113464,15.2423],[77.128657,15.194267],[77.132274,15.17481],[77.132584,15.154321],[77.130724,15.141634],[77.12814,15.132255],[77.124316,15.123134],[77.119769,15.114943],[77.113464,15.107424],[77.107263,15.097864],[77.100545,15.084532],[77.093414,15.0589],[77.087212,15.045904],[77.080391,15.036654],[77.05693,15.014303],[77.050315,15.009963],[77.042357,15.006449],[77.034192,15.005208],[77.027164,15.006991],[77.021893,15.01234],[77.017242,15.019316],[77.012695,15.024949],[77.007011,15.029522],[77.000189,15.03208],[76.993471,15.033553],[76.981999,15.032855],[76.971354,15.030685],[76.957608,15.023786],[76.947996,15.021642],[76.937351,15.023347],[76.918851,15.031977],[76.906138,15.035568],[76.879473,15.037816],[76.86335,15.040969],[76.776224,15.090242],[76.764338,15.094118],[76.745528,15.063887],[76.743874,15.040064],[76.744908,15.025672],[76.743357,15.018386],[76.739947,15.012753],[76.735399,15.008852],[76.726924,14.999886],[76.719483,14.989731],[76.719483,14.985881],[76.722067,14.982419],[76.727648,14.980455],[76.757517,14.974151],[76.763821,14.971438],[76.782425,14.959346],[76.789453,14.956813],[76.795964,14.955315],[76.802785,14.952834],[76.810123,14.948416],[76.819425,14.937693],[76.822009,14.929322],[76.822216,14.920976],[76.819115,14.900021],[76.818598,14.882684],[76.815084,14.858008],[76.799685,14.794834],[76.797204,14.789123],[76.794724,14.785894],[76.790693,14.783568],[76.768989,14.775868],[76.764648,14.772949],[76.761858,14.763673],[76.765682,14.731814],[76.765268,14.719102],[76.762168,14.707139],[76.753486,14.691713],[76.743874,14.667891],[76.738603,14.643525],[76.738086,14.629211],[76.740567,14.612933],[76.752866,14.565597],[76.75638,14.558931],[76.761651,14.55552],[76.77705,14.550197],[76.784492,14.546632],[76.791313,14.541671],[76.797824,14.533351],[76.803302,14.523817],[76.813637,14.500123],[76.821389,14.486041],[76.825626,14.481261],[76.829967,14.478651],[76.834721,14.478316],[76.841129,14.479943],[76.855392,14.48723],[76.861283,14.488987],[76.869034,14.489529],[76.891359,14.486687],[76.910996,14.486739],[76.917197,14.483845],[76.922881,14.478419],[76.929599,14.466507],[76.931563,14.457567],[76.930943,14.449403],[76.927842,14.444209],[76.917817,14.434365],[76.9142,14.428086],[76.910686,14.415089],[76.907998,14.410413],[76.902521,14.407157],[76.895389,14.406201],[76.888775,14.407157],[76.883504,14.408449],[76.878543,14.408682],[76.873685,14.406925],[76.868414,14.403204],[76.86459,14.398734],[76.86087,14.391577],[76.858182,14.382559],[76.856839,14.368167],[76.858803,14.357005],[76.86242,14.347238],[76.868104,14.338066],[76.875442,14.330082],[76.882987,14.324346],[76.915647,14.311142],[76.921848,14.304709],[76.922571,14.298275],[76.920608,14.292074],[76.915337,14.285097],[76.910376,14.277398],[76.905828,14.268251],[76.908205,14.257864],[76.968047,14.245978],[76.999259,14.244273],[77.024684,14.238408],[77.045458,14.231664],[77.063131,14.230785],[77.072743,14.232594],[77.078221,14.237478],[77.080908,14.243498],[77.082458,14.251456],[77.080288,14.278328],[77.082872,14.288741],[77.086902,14.296053],[77.099201,14.311271],[77.111294,14.329617],[77.124316,14.340985],[77.132894,14.344008],[77.140956,14.343543],[77.159973,14.332175],[77.169895,14.328531],[77.185088,14.326464],[77.206688,14.326904],[77.23294,14.333105],[77.247409,14.334629],[77.256814,14.333957],[77.261155,14.329617],[77.262912,14.324139],[77.263016,14.316749],[77.262602,14.309101],[77.267977,14.301479],[77.278208,14.295588],[77.304977,14.289903],[77.318309,14.285717],[77.327094,14.281041],[77.343424,14.256985],[77.353863,14.245978],[77.367299,14.238253],[77.378977,14.238382],[77.386729,14.24448],[77.387969,14.252774],[77.384352,14.261972],[77.366679,14.287113],[77.362648,14.295123],[77.359444,14.304218],[77.357583,14.313158],[77.358927,14.321633],[77.363578,14.328506],[77.37443,14.334474],[77.382388,14.33543],[77.389623,14.333957],[77.400682,14.327627],[77.406056,14.323286],[77.4105,14.31923],[77.413911,14.313933],[77.415151,14.309747],[77.415151,14.303933],[77.417425,14.299877],[77.423626,14.296957],[77.451841,14.293779],[77.46104,14.290136],[77.463934,14.284994],[77.46352,14.277398],[77.456492,14.257864],[77.454218,14.248355],[77.454218,14.23939],[77.456182,14.230346],[77.465174,14.206136],[77.467241,14.198643],[77.467758,14.192442],[77.465484,14.18624],[77.460523,14.180969],[77.451221,14.176551],[77.439956,14.174148],[77.397064,14.172649],[77.383112,14.170557],[77.37536,14.167585],[77.368539,14.163425],[77.349625,14.143246],[77.332572,14.129836],[77.329161,14.125908],[77.327921,14.122652],[77.331125,14.119087],[77.338153,14.117407],[77.351589,14.115935],[77.358307,14.111749],[77.360994,14.1064],[77.358307,14.098726],[77.353966,14.091388],[77.332055,14.06325],[77.328851,14.056791],[77.327921,14.052166],[77.329471,14.04612],[77.333812,14.039763],[77.346215,14.026069],[77.349005,14.021289],[77.352519,13.999637],[77.353553,13.997518],[77.355826,13.993177],[77.362854,13.984986],[77.370606,13.980103],[77.381148,13.975245],[77.386109,13.969303],[77.387969,13.962946],[77.384662,13.945919],[77.384042,13.939279],[77.385282,13.933646],[77.398821,13.910882],[77.400785,13.903209],[77.399855,13.896801],[77.394894,13.892227],[77.386729,13.890367],[77.37691,13.89215],[77.357894,13.900728],[77.341564,13.904836],[77.332365,13.908169],[77.328955,13.913906],[77.329471,13.92176],[77.331022,13.929925],[77.331022,13.939098],[77.326371,13.949795],[77.311281,13.973308],[77.298156,14.000644],[77.293711,14.006613],[77.289267,14.010747],[77.284616,14.013098],[77.272937,14.014235],[77.265393,14.016742],[77.258571,14.020049],[77.25144,14.022219],[77.243999,14.022219],[77.180643,14.00682],[77.168241,14.005657],[77.140336,14.006303],[77.122146,14.004365],[77.112327,14.005063],[77.103645,14.009274],[77.097651,14.015321],[77.087729,14.028343],[77.081941,14.033847],[77.074707,14.037516],[77.065922,14.040229],[77.035846,14.04612],[77.019723,14.051546],[77.00484,14.058445],[76.999879,14.061855],[76.995332,14.066377],[76.990267,14.074593],[76.98634,14.084515],[76.980449,14.107072],[76.973628,14.156087],[76.971147,14.164588],[76.967426,14.171022],[76.962672,14.171642],[76.958538,14.170221],[76.954714,14.169213],[76.949546,14.169833],[76.943242,14.174019],[76.93239,14.183553],[76.927532,14.186783],[76.921951,14.188798],[76.91668,14.188411],[76.910996,14.18531],[76.906345,14.179832],[76.90004,14.170557],[76.896526,14.168619],[76.882987,14.166216],[76.875442,14.162728],[76.868001,14.153813],[76.868104,14.145623],[76.872962,14.137354],[76.932803,14.080071],[76.940865,14.067255],[76.942622,14.06108],[76.940761,14.056352],[76.936834,14.050305],[76.93363,14.041004],[76.93239,14.021703],[76.935904,14.010902],[76.941795,14.003332],[76.947376,13.999714],[76.951923,13.995606],[76.962052,13.982067],[76.976005,13.957779],[76.981689,13.950105],[77.000499,13.930675],[77.005254,13.924086],[77.010214,13.914061],[77.010421,13.904991],[77.006494,13.898325],[77.002153,13.894217],[76.999259,13.891866],[76.995538,13.888662],[76.991921,13.883571],[76.988097,13.875923],[76.985927,13.868637],[76.982929,13.862048],[76.977968,13.85546],[76.963706,13.840525],[76.958125,13.833368],[76.954507,13.820345],[76.954714,13.807375],[76.958538,13.781614],[76.962776,13.767196],[76.969183,13.753709],[76.974454,13.750505],[76.980035,13.752804],[76.984686,13.759987],[76.987787,13.766783],[76.990681,13.77655],[76.991921,13.778798],[76.993781,13.779909],[76.997812,13.778591],[77.000913,13.777041],[77.00577,13.773552],[77.010214,13.769418],[77.02303,13.755104],[77.032332,13.746241],[77.041117,13.743993],[77.048248,13.747611],[77.052279,13.754845],[77.054966,13.763398],[77.05817,13.768126],[77.063751,13.769728],[77.070779,13.768591],[77.088453,13.763708],[77.098581,13.762003],[77.109537,13.76146],[77.119769,13.76332],[77.127727,13.767894],[77.132688,13.776188],[77.133204,13.784818],[77.12783,13.800372],[77.12659,13.808382],[77.127107,13.817658],[77.125866,13.830887],[77.122456,13.837269],[77.116358,13.841688],[77.109537,13.844633],[77.102612,13.849672],[77.099511,13.854245],[77.099925,13.858663],[77.103232,13.862152],[77.120079,13.867758],[77.124006,13.870239],[77.12628,13.873107],[77.12721,13.87737],[77.12752,13.881918],[77.12721,13.886905],[77.12783,13.890677],[77.129174,13.89525],[77.131344,13.900418],[77.134755,13.905792],[77.138475,13.90879],[77.14354,13.910702],[77.149431,13.907911],[77.152221,13.903596],[77.153048,13.896258],[77.152738,13.888145],[77.153462,13.878223],[77.156149,13.87458],[77.161833,13.874425],[77.182297,13.888739],[77.189222,13.891762],[77.196663,13.891866],[77.205965,13.886336],[77.220848,13.868094],[77.230769,13.866105],[77.24989,13.868689],[77.258261,13.86688],[77.268493,13.861454],[77.281619,13.852462],[77.292058,13.848432],[77.30198,13.84807],[77.309938,13.84962],[77.317069,13.850214],[77.335156,13.847269],[77.353966,13.842334],[77.384042,13.846726],[77.389209,13.843238],[77.394584,13.836701],[77.395721,13.828407],[77.398615,13.821663],[77.405643,13.813369],[77.418252,13.806289],[77.424763,13.797453],[77.428173,13.787066],[77.430447,13.77611],[77.438405,13.753864],[77.440679,13.743993],[77.440576,13.717897],[77.44254,13.701955],[77.448741,13.699448],[77.453702,13.699293],[77.460833,13.703298],[77.466311,13.704203],[77.487705,13.702058],[77.494216,13.702368],[77.499487,13.704461],[77.524808,13.724873],[77.551163,13.736862],[77.563566,13.739808],[77.583823,13.738102],[77.591988,13.73942],[77.595295,13.742417],[77.591678,13.753967],[77.591368,13.76115],[77.593228,13.767093],[77.598086,13.772467],[77.604597,13.776317],[77.614002,13.779443],[77.626094,13.781717],[77.64046,13.781717],[77.648005,13.777893],[77.652966,13.771459],[77.656273,13.765801],[77.663095,13.76022],[77.669296,13.760943],[77.674877,13.767119],[77.678908,13.777273],[77.682422,13.78934],[77.686452,13.799623],[77.693687,13.807607],[77.702989,13.812516],[77.719422,13.816935],[77.729034,13.820733],[77.734925,13.824221],[77.746294,13.836649],[77.755285,13.844194],[77.775852,13.857087],[77.784121,13.863702],[77.789185,13.870316],[77.791562,13.877448],[77.790942,13.884579],[77.787635,13.890599],[77.78164,13.896542],[77.776163,13.903234],[77.772752,13.910314],[77.771822,13.917781],[77.773269,13.924396],[77.777299,13.931165],[77.78257,13.936591],[77.791562,13.941682],[77.799624,13.941217],[77.816677,13.935248],[77.838278,13.935041],[77.844892,13.934008],[77.84975,13.930623],[77.856364,13.924809],[77.863909,13.920236],[77.878792,13.916619],[77.888507,13.919332],[77.896569,13.925636],[77.900806,13.934189],[77.9037,13.941604],[77.908558,13.948787],[77.914139,13.954058],[77.926128,13.961577],[77.932019,13.96367],[77.937083,13.963257],[77.93946,13.960724],[77.941424,13.954911],[77.942561,13.946849],[77.94132,13.920417],[77.94039,13.917084],[77.93853,13.912898],[77.934809,13.908324],[77.915586,13.892253],[77.911451,13.887266],[77.909281,13.880574],[77.909178,13.872203],[77.912278,13.850369],[77.914345,13.841378],[77.916929,13.834582],[77.92065,13.830474],[77.925507,13.832515],[77.931812,13.839026],[77.947315,13.859516],[77.960234,13.868844],[77.971603,13.871324],[77.982558,13.870239],[77.992067,13.866983],[77.998061,13.86626],[78.002092,13.867138],[78.032684,13.884734],[78.07971,13.856932],[78.091389,13.830112],[78.096763,13.809002],[78.097693,13.796083],[78.09604,13.783681],[78.086221,13.764819],[78.08219,13.753812],[78.085188,13.743683],[78.091389,13.732754],[78.102241,13.717354],[78.105445,13.708569],[78.104721,13.701128],[78.09945,13.696787],[78.093042,13.694642],[78.084361,13.694875],[78.068238,13.698725],[78.061416,13.698053],[78.056145,13.692007],[78.057076,13.682783],[78.060176,13.672318],[78.067928,13.65927],[78.074439,13.65387],[78.083947,13.653534],[78.101001,13.660639],[78.109786,13.662526],[78.118157,13.661828],[78.126735,13.658572],[78.133867,13.653611],[78.168593,13.614311],[78.176655,13.606741],[78.184096,13.601547],[78.189057,13.600333],[78.202907,13.598602],[78.212518,13.596225],[78.231742,13.589558],[78.253653,13.58576],[78.263575,13.585347],[78.272153,13.586148],[78.279078,13.588551],[78.2921,13.596974],[78.297991,13.599454],[78.304192,13.599532],[78.310497,13.597],[78.322692,13.589455],[78.327653,13.58775],[78.332614,13.587388],[78.337575,13.588137],[78.350804,13.591806],[78.358556,13.592633],[78.368374,13.591005],[78.373025,13.586225],[78.374679,13.579637],[78.372405,13.571368],[78.365274,13.551964],[78.363103,13.540828],[78.362587,13.528554],[78.366928,13.500391],[78.367134,13.498169],[78.365274,13.487523],[78.36207,13.478738],[78.359796,13.468997],[78.358556,13.457267],[78.361346,13.413393],[78.360416,13.408097],[78.358246,13.403627],[78.355145,13.399673],[78.351528,13.393653],[78.349874,13.387323],[78.350184,13.376109],[78.353698,13.368874],[78.359486,13.362415],[78.365377,13.356963],[78.373129,13.347222],[78.377366,13.337377],[78.38088,13.322753],[78.387288,13.317766],[78.394729,13.31805],[78.409922,13.326655],[78.416227,13.327559],[78.421291,13.325414],[78.430593,13.318903],[78.436174,13.316345],[78.441548,13.314795],[78.446509,13.314795],[78.452297,13.315647],[78.459118,13.315725],[78.46563,13.313245],[78.505627,13.282316],[78.510175,13.279991],[78.516169,13.278854],[78.52268,13.279061],[78.529708,13.280843],[78.534979,13.283376],[78.54056,13.287897],[78.553583,13.301798],[78.558854,13.298646],[78.562471,13.293452],[78.565572,13.285934],[78.568362,13.274823],[78.568982,13.265728],[78.568362,13.256297],[78.565675,13.239683],[78.565262,13.23126],[78.565365,13.224051],[78.564952,13.217876],[78.563815,13.21183],[78.561851,13.206636],[78.55658,13.184984],[78.552653,13.174674],[78.546141,13.164184],[78.530018,13.147389],[78.52361,13.138707],[78.520096,13.127726],[78.518856,13.103722],[78.516479,13.089098],[78.511518,13.077212],[78.502526,13.066929],[78.496015,13.061865],[78.477308,13.052563],[78.471004,13.048119],[78.46656,13.04153],[78.462839,13.030833],[78.457051,13.008173],[78.454467,13.000499],[78.4524,12.996701],[78.441548,12.97988],[78.415813,12.948202],[78.411886,12.936704],[78.412506,12.930503],[78.415917,12.92686],[78.424805,12.924534],[78.435864,12.919186],[78.448576,12.910246],[78.463252,12.889937],[78.468213,12.877406],[78.4678,12.867664],[78.462219,12.863737],[78.45209,12.863272],[78.439998,12.867458],[78.377986,12.911124],[78.370648,12.914638],[78.364757,12.916938],[78.359176,12.917248],[78.352768,12.91624],[78.346154,12.913295],[78.341916,12.907765],[78.340056,12.900376],[78.340366,12.876269],[78.339022,12.870067],[78.335405,12.866579],[78.326,12.860792],[78.318972,12.858259],[78.312771,12.857433],[78.304089,12.857381],[78.300782,12.856141],[78.29303,12.847872],[78.288999,12.844694],[78.285899,12.843377],[78.282488,12.844539],[78.274117,12.851671],[78.267502,12.855469],[78.260371,12.857588],[78.252309,12.857536],[78.247245,12.855753],[78.244041,12.853738],[78.242491,12.849888],[78.24094,12.842911],[78.241044,12.828235],[78.248072,12.801777],[78.248692,12.791623],[78.245695,12.781701],[78.237633,12.769557],[78.229572,12.759893],[78.163839,12.775293],[78.133247,12.790512],[78.089012,12.826039],[78.056249,12.845935],[78.040643,12.850327],[78.029584,12.848699],[78.013564,12.827589],[78.01005,12.821802],[78.00912,12.817513],[78.007053,12.81126],[78.002092,12.807151],[77.987416,12.804361],[77.975737,12.808805],[77.964885,12.816453],[77.947935,12.835703],[77.941424,12.845289],[77.934602,12.853453],[77.926438,12.860921],[77.914759,12.868362],[77.904837,12.871463],[77.895018,12.87278],[77.845822,12.87154],[77.801277,12.856554],[77.789805,12.810743],[77.77823,12.788057],[77.760246,12.762761],[77.756215,12.752943],[77.755389,12.744778],[77.757456,12.739404],[77.76159,12.733332],[77.76469,12.727854],[77.765311,12.718733],[77.76004,12.713798],[77.753528,12.71031],[77.74433,12.706899],[77.701128,12.68212],[77.68976,12.67796],[77.678597,12.676177],[77.669089,12.677108],[77.650796,12.681604],[77.64015,12.682069],[77.632812,12.681216],[77.609351,12.672793],[77.585787,12.624088],[77.571834,12.581765],[77.568733,12.55957],[77.571214,12.545281],[77.576278,12.539157],[77.581136,12.52722],[77.581136,12.519159],[77.574728,12.500064],[77.574728,12.499444],[77.576795,12.495026],[77.580206,12.492494],[77.586097,12.491615],[77.593848,12.492804],[77.602426,12.495258],[77.610178,12.495439],[77.615449,12.491977],[77.61979,12.48066],[77.618859,12.46663],[77.604597,12.405781],[77.598189,12.38989],[77.590644,12.378237],[77.572144,12.357954],[77.560775,12.339661],[77.529046,12.308215],[77.490082,12.28894],[77.479953,12.282532],[77.471892,12.274238],[77.466311,12.26473],[77.46476,12.261526],[77.46476,12.249304],[77.476543,12.241708],[77.48047,12.231502],[77.478403,12.214552],[77.483364,12.20755],[77.492149,12.205457],[77.667849,12.203881],[77.698648,12.198015],[77.724486,12.184812],[77.728724,12.179696],[77.736785,12.174089],[77.765,12.129079],[77.768721,12.120036],[77.768721,12.11492],[77.768101,12.110036],[77.765827,12.100683],[77.76407,12.09629],[77.7619,12.092182],[77.759419,12.088358],[77.755699,12.08456],[77.752495,12.081873],[77.745467,12.074922],[77.736165,12.065698],[77.725933,12.05805],[77.717148,12.039033],[77.682628,11.996762],[77.670846,11.971311],[77.659684,11.962939],[77.651106,11.957901],[77.642321,11.954129],[77.62289,11.949736],[77.517677,11.940357],[77.505895,11.935189],[77.489772,11.92612],[77.484914,11.915578],[77.468998,11.894701],[77.46197,11.882402],[77.442746,11.828581],[77.433858,11.811527],[77.418975,11.79574],[77.408123,11.791606],[77.378977,11.790831],[77.353863,11.7837],[77.338567,11.783467],[77.324821,11.787705],[77.30663,11.802432],[77.298259,11.806437],[77.280999,11.811708],[77.272007,11.816282],[77.259192,11.816902],[77.247719,11.812406],[77.2348,11.805869],[77.220951,11.802277],[77.172892,11.804189],[77.14509,11.800391],[77.130827,11.79667],[77.121939,11.792536],[77.118735,11.786413],[77.114808,11.765794],[77.107366,11.752745],[77.096204,11.75042],[77.082561,11.756776],[77.026544,11.814034],[77.012695,11.821966],[76.997399,11.825919],[76.987477,11.823155],[76.968047,11.814576],[76.953164,11.812768],[76.93146,11.812018],[76.91823,11.807342],[76.907688,11.800184],[76.868311,11.745614],[76.84423,11.704712],[76.832448,11.641874],[76.82697,11.63283],[76.820769,11.625596],[76.766922,11.640453],[76.750799,11.642339],[76.605381,11.631177],[76.583367,11.631409],[76.566934,11.63376],[76.556805,11.638773],[76.550191,11.645439],[76.547504,11.654147],[76.547194,11.663526],[76.549261,11.684481],[76.544093,11.697116],[76.532207,11.709079],[76.503579,11.719156],[76.483735,11.719543],[76.465338,11.71497],[76.451282,11.706624],[76.439397,11.697633],[76.430818,11.689442],[76.425134,11.682698],[76.421413,11.677401],[76.415936,11.666833],[76.400949,11.686341],[76.397332,11.705203],[76.396402,11.725745],[76.394231,11.735589],[76.38927,11.744012],[76.382139,11.74918],[76.37108,11.75042],[76.363846,11.748766],[76.350203,11.743315],[76.342865,11.742384],[76.335217,11.743211],[76.316613,11.746854],[76.309172,11.749722],[76.30111,11.755381],[76.288088,11.768507],[76.265764,11.799538],[76.258736,11.806076],[76.250674,11.810132],[76.240649,11.810442],[76.234241,11.809073],[76.224319,11.804319],[76.218842,11.80437],[76.212227,11.807264],[76.204786,11.815739],[76.200135,11.822586],[76.190316,11.84119],[76.184942,11.848554],[76.17657,11.857029],[76.167062,11.86261],[76.15497,11.866563],[76.13895,11.867183],[76.129855,11.86478],[76.122413,11.861447],[76.115489,11.857494],[76.107014,11.857494],[76.098746,11.860439],[76.086343,11.871136],[76.081899,11.878991],[76.080142,11.889766],[76.084173,11.926688],[76.083553,11.950046],[76.080349,11.958986],[76.072391,11.963249],[76.055751,11.96374],[76.020714,11.951674],[75.98299,11.930874],[75.960563,11.928626],[75.904959,11.942553],[75.882635,11.942915],[75.863514,11.946274],[75.846048,11.951105],[75.830648,11.957746],[75.815249,11.967203],[75.797472,11.983326],[75.782692,12.000224],[75.776181,12.009784],[75.768843,12.027354],[75.765019,12.059058],[75.761092,12.068747],[75.756027,12.071951],[75.744555,12.07531],[75.736287,12.076059],[75.730706,12.075982],[75.722024,12.074354],[75.716443,12.074121],[75.709622,12.074819],[75.701664,12.077454],[75.693912,12.081976],[75.671485,12.098435],[75.662907,12.102285],[75.654018,12.103008],[75.639755,12.099236],[75.634484,12.099184],[75.629213,12.102052],[75.624253,12.107866],[75.618568,12.119028],[75.612884,12.12771],[75.606062,12.135048],[75.59335,12.142903],[75.582395,12.147269],[75.552732,12.154891],[75.536609,12.168947],[75.441628,12.278036],[75.426228,12.291782],[75.419407,12.293203],[75.413516,12.293126],[75.403594,12.292041],[75.39822,12.292196],[75.393569,12.292971],[75.389331,12.294728],[75.385714,12.301601],[75.38158,12.313848],[75.375172,12.343407],[75.368661,12.361106],[75.357809,12.377901],[75.345407,12.390355],[75.341582,12.396944],[75.339722,12.404618],[75.339205,12.420534],[75.340652,12.428673],[75.343546,12.435133],[75.358119,12.445985],[75.36246,12.450687],[75.366077,12.456734],[75.367937,12.462521],[75.368558,12.467095],[75.368248,12.47035],[75.366801,12.473787],[75.36432,12.476371],[75.355328,12.478179],[75.348507,12.478076],[75.320085,12.47035],[75.314091,12.469368],[75.312024,12.469498],[75.309543,12.470893],[75.307063,12.473167],[75.304169,12.476861],[75.29311,12.494328],[75.286185,12.499522],[75.284015,12.50009],[75.282568,12.500607],[75.279674,12.502028],[75.275747,12.506265],[75.270889,12.513164],[75.264585,12.524352],[75.251355,12.536909],[75.247635,12.542956],[75.247015,12.551121],[75.250632,12.56236],[75.264585,12.57869],[75.270889,12.60073],[75.22531,12.61259],[75.212701,12.611737],[75.206707,12.604916],[75.20247,12.601298],[75.196268,12.598404],[75.189757,12.596854],[75.182832,12.597268],[75.176425,12.599748],[75.1695,12.606518],[75.155031,12.629074],[75.148933,12.63357],[75.139838,12.634242],[75.131569,12.631555],[75.124438,12.627912],[75.117513,12.627137],[75.110485,12.630005],[75.102424,12.639358],[75.098703,12.646696],[75.096946,12.653492],[75.097153,12.66039],[75.098497,12.667341],[75.101287,12.674782],[75.102114,12.678865],[75.100254,12.68212],[75.094776,12.686254],[75.072142,12.698993],[75.061186,12.702636],[75.04806,12.702455],[75.040309,12.698088],[75.028733,12.688761],[75.024806,12.686487],[75.020775,12.685841],[75.014884,12.68752],[75.007959,12.690724],[75.002998,12.696435],[75.001448,12.700905],[75.001552,12.704496],[75.003929,12.711628],[75.003929,12.714599],[75.003102,12.716795],[74.998968,12.718862],[74.9938,12.720102],[74.974887,12.721834],[74.969305,12.723203],[74.964655,12.725787],[74.958453,12.732117],[74.955146,12.73806],[74.952872,12.74483],[74.950495,12.761599],[74.949462,12.766224],[74.947395,12.770978],[74.945224,12.773872],[74.940677,12.77612],[74.933545,12.778083],[74.920109,12.779944],[74.897889,12.778755],[74.854259,12.765286]]]}}]}
