{"type":"FeatureCollection","features":[{"type":"Feature","properties":{"id":"IN-GA","country":"IN","name_en":"Goa"},"geometry":{"type":"Polygon","coordinates":[[[74.091156,14.8876],[74.081065,14.893988],[74.077159,14.898383],[74.035981,14.921291],[74.030284,14.935207],[74.031016,14.949774],[74.035981,14.979641],[74.031261,14.995307],[74.020193,15.001776],[74.006847,15.004869],[73.995779,15.010688],[73.972992,15.056871],[73.964366,15.064643],[73.913097,15.078925],[73.922537,15.107856],[73.928966,15.120592],[73.937022,15.130439],[73.958263,15.143134],[73.962169,15.152045],[73.954112,15.16828],[73.947276,15.160834],[73.891287,15.343207],[73.882579,15.355292],[73.869477,15.359565],[73.848399,15.360093],[73.827403,15.36518],[73.810395,15.37759],[73.782888,15.407904],[73.839366,15.404039],[73.848399,15.404486],[73.860118,15.407864],[73.871918,15.401842],[73.884939,15.398017],[73.899587,15.407904],[73.93336,15.395413],[73.945323,15.385688],[73.954112,15.366278],[73.958507,15.367174],[73.961681,15.368232],[73.964203,15.370185],[73.967784,15.373765],[73.959972,15.380683],[73.937022,15.411322],[73.927582,15.417385],[73.885916,15.435207],[73.879161,15.435777],[73.865082,15.434312],[73.858572,15.435207],[73.854177,15.4383],[73.846853,15.447089],[73.841563,15.448879],[73.806163,15.452216],[73.796397,15.448879],[73.795177,15.460761],[73.800466,15.475002],[73.808849,15.488023],[73.817556,15.496649],[73.828136,15.50141],[73.872244,15.510932],[73.863129,15.516343],[73.859548,15.521145],[73.860525,15.525865],[73.865977,15.531399],[73.865977,15.537584],[73.796397,15.500393],[73.786388,15.492174],[73.766287,15.49726],[73.751231,15.513129],[73.756114,15.537584],[73.741222,15.559963],[73.736827,15.571723],[73.735118,15.586005],[73.737071,15.598538],[73.74171,15.604193],[73.746593,15.608385],[73.748709,15.616767],[73.760427,15.632025],[73.787364,15.641791],[73.838145,15.654283],[73.838145,15.661119],[73.801036,15.661851],[73.783865,15.659125],[73.776622,15.650865],[73.76824,15.646918],[73.733246,15.625067],[73.728282,15.619574],[73.718272,15.627143],[73.707042,15.643704],[73.697927,15.662828],[73.690766,15.693793],[73.685883,15.704291],[73.686778,15.713121],[73.700857,15.723212],[73.722146,15.734311],[73.770412,15.736611],[73.784262,15.738652],[73.792736,15.741598],[73.798938,15.749323],[73.813097,15.77188],[73.817851,15.776841],[73.826429,15.783042],[73.832321,15.781492],[73.835731,15.777332],[73.838108,15.761364],[73.840279,15.754129],[73.843793,15.74922],[73.850511,15.744982],[73.857745,15.74289],[73.876866,15.739815],[73.891438,15.735939],[73.900327,15.730539],[73.908388,15.721237],[73.912832,15.710023],[73.924821,15.658347],[73.931953,15.644317],[73.942805,15.632457],[73.964406,15.618814],[73.979392,15.614861],[73.990347,15.613543],[74.002853,15.616954],[74.061557,15.639511],[74.100625,15.640286],[74.115507,15.6361],[74.1276,15.63517],[74.140829,15.637573],[74.14796,15.640131],[74.153851,15.643232],[74.167184,15.652352],[74.172352,15.653386],[74.178966,15.652042],[74.197776,15.645324],[74.226818,15.629847],[74.234053,15.622793],[74.237981,15.616024],[74.246042,15.587163],[74.254104,15.532825],[74.257824,15.518588],[74.254517,15.50032],[74.245422,15.48766],[74.236534,15.472467],[74.239221,15.454225],[74.251003,15.442675],[74.254827,15.436112],[74.258134,15.428154],[74.259065,15.420093],[74.258858,15.415287],[74.257204,15.402678],[74.257204,15.394177],[74.259065,15.38596],[74.263509,15.377408],[74.291517,15.348779],[74.295858,15.342165],[74.298442,15.336609],[74.300199,15.329013],[74.30423,15.28917],[74.302059,15.280282],[74.298339,15.272918],[74.289657,15.26664],[74.282216,15.263358],[74.251416,15.257519],[74.247076,15.256072],[74.243355,15.252532],[74.240874,15.247313],[74.241185,15.23783],[74.244182,15.231319],[74.249143,15.225453],[74.278598,15.209046],[74.283559,15.20517],[74.288107,15.200597],[74.291001,15.194938],[74.292758,15.188272],[74.291827,15.178712],[74.288417,15.16755],[74.264749,15.120757],[74.262475,15.112773],[74.259685,15.097683],[74.259685,15.090268],[74.260305,15.083085],[74.267126,15.049857],[74.26754,15.041382],[74.266609,15.032313],[74.264336,15.022236],[74.260925,15.013063],[74.255034,15.000248],[74.247592,14.977665],[74.245215,14.965702],[74.243665,14.961232],[74.241185,14.956038],[74.226612,14.943248],[74.209869,14.933482],[74.19757,14.928701],[74.183204,14.926764],[74.160673,14.929192],[74.154575,14.927461],[74.14765,14.92343],[74.125326,14.904801],[74.091156,14.8876]]]}}]}
