{"type":"FeatureCollection","features":[{"type":"Feature","properties":{"id":"CN-XJ","country":"CN","name_en":"Xinjiang"},"geometry":{"type":"Polygon","coordinates":[[[77.883132,35.431068],[77.857087,35.436598],[77.834246,35.452152],[77.815332,35.47334],[77.800346,35.495406],[77.773578,35.498971],[77.760349,35.498093],[77.74743,35.49432],[77.716734,35.475407],[77.689655,35.462694],[77.660613,35.458095],[77.519608,35.477439],[77.512199,35.478456],[77.476438,35.477164],[77.412773,35.469412],[77.383731,35.471996],[77.352002,35.486052],[77.305389,35.517833],[77.281102,35.528013],[77.250819,35.530701],[77.177542,35.523156],[77.141265,35.525378],[77.105298,35.537987],[77.092276,35.547805],[77.071089,35.571008],[77.058169,35.580103],[77.039049,35.585013],[77.017552,35.584599],[76.976417,35.578656],[76.9358,35.579638],[76.915026,35.583152],[76.896422,35.589612],[76.880506,35.60067],[76.856941,35.628576],[76.842989,35.641288],[76.824592,35.647799],[76.782837,35.645732],[76.777351,35.646112],[76.763407,35.647076],[76.745424,35.655034],[76.732918,35.66661],[76.709043,35.69405],[76.676694,35.71379],[76.604244,35.735701],[76.570757,35.751256],[76.55112,35.784018],[76.56528,35.865461],[76.555461,35.897862],[76.537168,35.902513],[76.500167,35.871507],[76.476499,35.865254],[76.453969,35.864789],[76.44291,35.86329],[76.432058,35.8605],[76.422446,35.854298],[76.410354,35.836832],[76.403119,35.830992],[76.384102,35.828202],[76.366429,35.830889],[76.348859,35.830992],[76.311962,35.80965],[76.296562,35.809495],[76.280542,35.814249],[76.260389,35.817815],[76.237134,35.815489],[76.189799,35.804999],[76.166027,35.806239],[76.138122,35.826652],[76.127787,35.862102],[76.123756,35.903494],[76.114661,35.941787],[76.08996,35.978115],[76.061434,35.991603],[75.984333,35.995633],[75.953017,36.007261],[75.922321,36.031652],[75.899997,36.063485],[75.894313,36.097384],[75.901444,36.113611],[75.91457,36.123894],[75.964179,36.149836],[75.971517,36.155004],[75.976582,36.162755],[75.977408,36.173762],[75.96914,36.191694],[75.97007,36.202339],[75.983403,36.215413],[76.001593,36.222131],[76.014409,36.230399],[76.011928,36.248124],[76.001696,36.261457],[75.976582,36.286985],[75.96883,36.301971],[75.968623,36.341814],[75.987434,36.421189],[75.981083,36.445444],[75.976811,36.461756],[75.976582,36.462633],[75.874779,36.619471],[75.849768,36.644741],[75.790547,36.687839],[75.728741,36.723186],[75.64978,36.754037],[75.570508,36.766749],[75.50798,36.747629],[75.501882,36.737965],[75.498885,36.72763],[75.49258,36.720705],[75.431912,36.722928],[75.410518,36.747319],[75.403387,36.784784],[75.401423,36.825867],[75.394498,36.864263],[75.377962,36.894287],[75.351297,36.915784],[75.31347,36.928755],[75.195131,36.948883],[75.161231,36.964205],[75.132809,36.984695],[75.118546,36.991232],[75.100149,36.994125],[75.01447,36.984488],[74.976849,36.984281],[74.94233,36.976995],[74.924966,36.970871],[74.910497,36.962551],[74.900782,36.949916],[74.891997,36.920977],[74.885796,36.911443],[74.87236,36.907102],[74.866779,36.916559],[74.860887,36.946893],[74.853239,36.958985],[74.824507,36.994125],[74.824301,36.994125],[74.792571,37.015158],[74.719191,37.01645],[74.692216,37.03588],[74.677953,37.051693],[74.66245,37.054484],[74.62607,37.042753],[74.561784,37.029679],[74.542354,37.021669],[74.519203,37.030247],[74.505767,37.047042],[74.494088,37.066472],[74.476622,37.083138],[74.414403,37.107839],[74.38257,37.126572],[74.366137,37.14776],[74.368308,37.167061],[74.38226,37.172047],[74.420294,37.168068],[74.441585,37.170549],[74.456674,37.177318],[74.46763,37.189927],[74.476622,37.210055],[74.487267,37.225946],[74.500083,37.23163],[74.532225,37.232199],[74.575944,37.242147],[74.59,37.243361],[74.596511,37.240751],[74.609017,37.230183],[74.615011,37.228375],[74.623279,37.230804],[74.627207,37.234318],[74.629997,37.238297],[74.64302,37.248374],[74.646327,37.254833],[74.650978,37.259639],[74.670925,37.261344],[74.676299,37.263721],[74.698934,37.28031],[74.709372,37.290826],[74.721464,37.297776],[74.737381,37.296123],[74.743995,37.288397],[74.783269,37.219667],[74.794018,37.213931],[74.813138,37.21543],[74.892307,37.231114],[74.912667,37.238994],[74.923726,37.255195],[74.932924,37.272506],[74.951528,37.281291],[74.975402,37.284289],[75.06842,37.312142],[75.077102,37.324209],[75.079582,37.361235],[75.091778,37.378443],[75.115239,37.387797],[75.164125,37.400638],[75.132499,37.418492],[75.103973,37.44061],[75.053434,37.493837],[75.035864,37.506394],[74.945223,37.548562],[74.915044,37.570731],[74.891893,37.599205],[74.882178,37.634422],[74.886106,37.653465],[74.897061,37.667573],[74.91091,37.680233],[74.923623,37.695323],[74.92693,37.703591],[74.92879,37.712428],[74.931891,37.721575],[74.938609,37.730825],[74.954422,37.747723],[74.96176,37.758084],[74.965171,37.767463],[74.96145,37.785473],[74.949254,37.795317],[74.898405,37.817589],[74.89117,37.823041],[74.886106,37.83056],[74.883212,37.843867],[74.887346,37.848931],[74.894581,37.852109],[74.911634,37.873762],[74.913701,37.880841],[74.905226,37.886939],[74.89396,37.892262],[74.890756,37.897714],[74.89117,37.904251],[74.888793,37.930916],[74.892824,37.994013],[74.880421,38.02166],[74.809935,38.053208],[74.790711,38.081449],[74.771281,38.196274],[74.771074,38.29154],[74.774795,38.309627],[74.784303,38.325672],[74.826678,38.363215],[74.838253,38.379416],[74.844144,38.397761],[74.844351,38.417243],[74.837116,38.445742],[74.835773,38.455173],[74.832879,38.463648],[74.826161,38.469643],[74.808488,38.477652],[74.801253,38.48282],[74.792261,38.493776],[74.792261,38.493853],[74.792158,38.494034],[74.776345,38.510674],[74.760325,38.519975],[74.742032,38.523076],[74.719087,38.521526],[74.696453,38.52398],[74.679607,38.53491],[74.66431,38.549018],[74.64612,38.56111],[74.476622,38.612063],[74.334201,38.666995],[74.313427,38.669217],[74.243768,38.6502],[74.221443,38.649709],[74.202013,38.652319],[74.140415,38.669217],[74.123361,38.669475],[74.109099,38.662292],[74.095043,38.645756],[74.092666,38.637694],[74.092872,38.628754],[74.091425,38.620434],[74.084397,38.614027],[74.044917,38.603459],[74.037269,38.598472],[74.038095,38.579223],[74.050808,38.56266],[74.058766,38.547028],[74.045537,38.530414],[74.028897,38.527236],[73.932882,38.529665],[73.917276,38.53708],[73.887097,38.559043],[73.869734,38.566794],[73.83356,38.577956],[73.816403,38.586586],[73.797387,38.602839],[73.788602,38.618574],[73.779093,38.660199],[73.772272,38.674617],[73.736408,38.721669],[73.732688,38.737172],[73.738992,38.781096],[73.735892,38.800423],[73.724936,38.814557],[73.695791,38.840111],[73.683698,38.854942],[73.680804,38.872977],[73.688969,38.89109],[73.702922,38.907032],[73.717185,38.918582],[73.739922,38.926927],[73.787878,38.927082],[73.809582,38.932663],[73.823948,38.944937],[73.829116,38.960155],[73.826119,38.976898],[73.81599,38.993771],[73.801624,39.001445],[73.768654,39.029919],[73.70933,39.065472],[73.698168,39.078417],[73.691863,39.094462],[73.682975,39.12875],[73.673776,39.142625],[73.631402,39.175103],[73.607837,39.207324],[73.602256,39.235772],[73.610111,39.26546],[73.641324,39.335275],[73.643804,39.351294],[73.642564,39.371758],[73.631919,39.428809],[73.632642,39.448343],[73.820744,39.468186],[73.838314,39.475679],[73.848029,39.489735],[73.859192,39.524255],[73.870457,39.546786],[73.883066,39.561204],[73.899292,39.571539],[73.921617,39.582133],[73.926784,39.592882],[73.904253,39.64647],[73.899602,39.689465],[73.893505,39.710394],[73.879345,39.727912],[73.859915,39.737162],[73.843068,39.740366],[73.829529,39.746981],[73.819814,39.766721],[73.818574,39.786048],[73.823018,39.805685],[73.83201,39.82372],[73.844102,39.838086],[73.872937,39.856845],[73.880689,39.86501],[73.885443,39.876534],[73.893195,39.918133],[73.907561,39.937873],[73.927301,39.953325],[73.944044,39.970068],[73.949729,39.993684],[73.952106,40.008257],[73.957894,40.021434],[73.966368,40.033268],[73.976704,40.043603],[74.003989,40.060812],[74.069515,40.067788],[74.101244,40.078847],[74.13287,40.095332],[74.167596,40.10639],[74.20315,40.109853],[74.237876,40.10391],[74.272293,40.093833],[74.302885,40.090061],[74.333788,40.09373],[74.369858,40.105822],[74.476622,40.172433],[74.565402,40.24695],[74.598681,40.266174],[74.637645,40.281987],[74.654388,40.291547],[74.705755,40.331286],[74.724668,40.337539],[74.746683,40.336505],[74.830915,40.319917],[74.862128,40.32617],[74.853859,40.35883],[74.841664,40.372059],[74.794638,40.405545],[74.787404,40.420738],[74.794638,40.440737],[74.807041,40.461769],[74.815102,40.480114],[74.816032,40.48368],[74.820063,40.493964],[74.832312,40.508116],[74.835359,40.511637],[74.856443,40.513187],[74.879181,40.505074],[74.966101,40.459289],[75.002378,40.4473],[75.039068,40.441099],[75.064389,40.443837],[75.113172,40.460787],[75.13808,40.463888],[75.15658,40.458152],[75.175287,40.448127],[75.19389,40.441254],[75.212494,40.444716],[75.220142,40.452984],[75.223966,40.462441],[75.229237,40.470347],[75.241536,40.474068],[75.253318,40.47598],[75.26324,40.480166],[75.481832,40.614111],[75.523793,40.63318],[75.559863,40.63287],[75.587665,40.611941],[75.605648,40.569411],[75.610816,40.512877],[75.617947,40.493964],[75.629006,40.481303],[75.657221,40.461097],[75.666936,40.450245],[75.669314,40.432365],[75.659598,40.419084],[75.646369,40.405338],[75.638308,40.386115],[75.640168,40.367305],[75.656291,40.32307],[75.664869,40.305706],[75.681819,40.291702],[75.704454,40.293149],[75.750549,40.308342],[75.772046,40.31015],[75.79375,40.30891],[75.858553,40.296353],[75.880464,40.295268],[75.901858,40.298885],[75.921495,40.309117],[75.938031,40.326222],[75.949297,40.343068],[75.962422,40.357331],[76.051616,40.390197],[76.07611,40.391954],[76.095231,40.387355],[76.132541,40.371542],[76.151351,40.368131],[76.185044,40.384203],[76.21543,40.416552],[76.244162,40.441202],[76.273411,40.434122],[76.283333,40.417276],[76.299353,40.355677],[76.313512,40.343327],[76.330152,40.348081],[76.361984,40.371904],[76.449111,40.415519],[76.476499,40.436138],[76.498927,40.464611],[76.531173,40.534995],[76.556391,40.56569],[76.609411,40.59711],[76.62078,40.611321],[76.624191,40.627547],[76.630805,40.728885],[76.647859,40.764851],[76.674214,40.795444],[76.707286,40.817613],[76.746871,40.83446],[76.762477,40.847017],[76.770848,40.867119],[76.768368,40.887014],[76.760927,40.9066],[76.757413,40.925772],[76.766818,40.944685],[76.783974,40.957139],[76.820871,40.97781],[76.834927,40.99352],[76.860972,41.013208],[76.900143,41.025766],[77.007733,41.044214],[77.035018,41.040338],[77.088555,41.019565],[77.118838,41.011658],[77.243171,41.005664],[77.301152,41.019306],[77.332985,41.02065],[77.388795,41.011658],[77.445226,40.993675],[77.474888,40.982047],[77.503517,40.981066],[77.580721,40.997705],[77.631778,40.995793],[77.650278,40.997137],[77.665574,41.001271],[77.797556,41.054704],[77.831042,41.062973],[77.866699,41.064058],[77.997647,41.049795],[78.036508,41.036101],[78.057178,41.034344],[78.074955,41.039512],[78.176034,41.105502],[78.190503,41.11775],[78.204456,41.133718],[78.231335,41.172856],[78.250345,41.200535],[78.275356,41.228854],[78.291582,41.240791],[78.331477,41.258723],[78.34946,41.270402],[78.359692,41.287455],[78.356901,41.305542],[78.339332,41.344041],[78.343466,41.362024],[78.359899,41.377527],[78.377675,41.386622],[78.41757,41.400471],[78.51038,41.454422],[78.583968,41.465997],[78.619211,41.478089],[78.629133,41.48796],[78.637401,41.512868],[78.645049,41.52372],[78.658278,41.532453],[78.672128,41.538448],[78.807313,41.578445],[78.897437,41.626272],[78.915834,41.63317],[78.976192,41.6418],[79.088743,41.702546],[79.127914,41.714302],[79.174526,41.722622],[79.19592,41.729521],[79.217521,41.741226],[79.264856,41.774506],[79.282323,41.783497],[79.30413,41.787554],[79.367382,41.772387],[79.390844,41.772697],[79.410997,41.778588],[79.489856,41.819257],[79.554658,41.837602],[79.610985,41.867626],[79.655737,41.875843],[79.702969,41.874939],[79.747514,41.879745],[79.783274,41.905092],[79.792576,41.922817],[79.803842,41.959998],[79.812833,41.97762],[79.826786,41.992244],[79.842909,42.00183],[79.879496,42.013199],[79.930862,42.023276],[80.181906,42.020976],[80.231206,42.033689],[80.257561,42.065263],[80.256527,42.084357],[80.247432,42.098413],[80.235133,42.110945],[80.224591,42.125569],[80.219837,42.141873],[80.21653,42.174404],[80.210328,42.189519],[80.249086,42.204893],[80.260455,42.216494],[80.268413,42.237966],[80.249499,42.309951],[80.235547,42.324575],[80.225521,42.339019],[80.2187,42.354935],[80.196169,42.434594],[80.194722,42.446299],[80.206298,42.465962],[80.212085,42.478752],[80.210535,42.490844],[80.200096,42.508388],[80.173741,42.536914],[80.162373,42.552391],[80.153484,42.591536],[80.145423,42.607116],[80.140048,42.622955],[80.143769,42.644762],[80.152451,42.660369],[80.188934,42.701581],[80.205367,42.731088],[80.227485,42.790981],[80.248259,42.816199],[80.264899,42.823666],[80.281745,42.822736],[80.316782,42.815605],[80.333938,42.817078],[80.381687,42.831418],[80.400498,42.843019],[80.476152,42.863896],[80.526692,42.868392],[80.548602,42.878469],[80.554493,42.898933],[80.542918,42.916658],[80.521937,42.925443],[80.476152,42.930275],[80.407732,42.954692],[80.373833,42.975182],[80.355126,43.000581],[80.368148,43.02846],[80.410213,43.048665],[80.497856,43.076183],[80.575887,43.119411],[80.618469,43.134267],[80.660017,43.132821],[80.710763,43.104786],[80.731537,43.101091],[80.753448,43.104037],[80.773395,43.112925],[80.787864,43.12804],[80.793445,43.14946],[80.788174,43.168245],[80.76523,43.199948],[80.759959,43.218784],[80.759132,43.23824],[80.755825,43.257619],[80.748487,43.275163],[80.735464,43.288883],[80.695984,43.303275],[80.658466,43.310639],[80.64286,43.32622],[80.694227,43.394717],[80.710143,43.425852],[80.712727,43.458873],[80.594439,43.684557],[80.476152,43.910241],[80.439875,43.948998],[80.423132,43.972149],[80.412693,43.993233],[80.412693,43.993336],[80.412383,44.013594],[80.410006,44.031939],[80.403805,44.04894],[80.392333,44.065477],[80.359777,44.0893],[80.345101,44.103097],[80.338899,44.121494],[80.346031,44.158908],[80.373213,44.230996],[80.373006,44.270219],[80.332905,44.417393],[80.330424,44.45305],[80.337866,44.494029],[80.364531,44.569684],[80.37993,44.591336],[80.383755,44.602808],[80.377243,44.615314],[80.359157,44.632574],[80.354506,44.641772],[80.355849,44.652883],[80.376313,44.67128],[80.411143,44.682803],[80.476152,44.693655],[80.491965,44.701717],[80.497443,44.714946],[80.492275,44.727969],[80.476152,44.73541],[80.314508,44.780317],[80.263245,44.809359],[80.244745,44.815974],[80.218287,44.818092],[80.039383,44.790497],[79.991737,44.793649],[79.868644,44.849357],[79.843012,44.873489],[79.858205,44.90372],[79.878152,44.914727],[79.924661,44.931677],[80.023776,44.993275],[80.061707,45.018959],[80.103358,45.032188],[80.147593,45.034462],[80.21901,45.026038],[80.29053,45.046244],[80.365048,45.043195],[80.390059,45.045779],[80.406389,45.056631],[80.425096,45.092132],[80.445353,45.104225],[80.467574,45.106292],[80.53682,45.101072],[80.69712,45.143654],[80.745696,45.144274],[80.827552,45.125774],[80.853855,45.126497],[80.976018,45.161069],[81.021907,45.161637],[81.062524,45.172231],[81.144173,45.204684],[81.54203,45.293309],[81.622594,45.33434],[81.665227,45.347982],[81.704759,45.339869],[81.739279,45.338061],[81.765169,45.307727],[81.781447,45.266644],[81.787338,45.232331],[81.788475,45.209128],[81.793643,45.19564],[81.807285,45.188716],[81.875343,45.181068],[81.891001,45.17373],[81.910121,45.15802],[81.950119,45.144481],[82.000452,45.153524],[82.191758,45.222202],[82.245295,45.231814],[82.294594,45.228197],[82.341826,45.20489],[82.427454,45.137246],[82.475823,45.115697],[82.539747,45.123655],[82.585222,45.17683],[82.614574,45.248557],[82.63385,45.339353],[82.636382,45.378885],[82.631989,45.415834],[82.615711,45.435419],[82.51303,45.465753],[82.362652,45.481204],[82.32777,45.493297],[82.327615,45.493348],[82.32746,45.493348],[82.291493,45.533191],[82.297137,45.554545],[82.304619,45.582852],[82.336038,45.635148],[82.372212,45.73416],[82.447505,45.825421],[82.475823,45.87317],[82.488949,45.901695],[82.515872,45.993163],[82.541866,46.131501],[82.568272,46.19651],[82.607856,46.255214],[82.674364,46.331127],[82.689299,46.362546],[82.701287,46.416858],[82.70785,46.434169],[82.747435,46.493339],[82.838953,46.732446],[82.985508,46.94251],[82.991812,46.958737],[82.993363,46.975609],[82.98835,46.992998],[82.985508,47.012532],[82.990159,47.032169],[83.005455,47.06979],[83.006282,47.080616],[82.99946,47.100046],[82.99822,47.110252],[83.001321,47.121363],[83.012173,47.142653],[83.01517,47.154384],[83.013516,47.194588],[83.021475,47.205905],[83.046899,47.214664],[83.071601,47.218514],[83.099093,47.219703],[83.126378,47.217584],[83.150356,47.211538],[83.201929,47.180351],[83.221979,47.171902],[83.31417,47.15795],[83.353392,47.144979],[83.524493,47.067102],[83.905348,46.973956],[83.999193,46.974317],[84.069628,46.964421],[84.093967,46.967419],[84.157839,46.992998],[84.158149,46.993102],[84.158718,46.993153],[84.15908,46.993257],[84.265843,47.00013],[84.388626,46.992998],[84.38935,46.993153],[84.405886,46.994239],[84.421803,46.993102],[84.475753,46.975247],[84.521021,46.969796],[84.616003,46.98628],[84.663545,46.983852],[84.699202,46.970235],[84.731655,46.947756],[84.751602,46.91799],[84.749586,46.882462],[84.738579,46.866159],[84.72442,46.850268],[84.715531,46.835179],[84.719769,46.821303],[84.739613,46.814766],[84.767105,46.818074],[84.840175,46.839132],[84.916036,46.850552],[84.93681,46.861017],[84.959393,46.890886],[84.975774,46.901996],[84.990398,46.907681],[85.035357,46.914967],[85.048224,46.920703],[85.077163,46.943311],[85.145996,46.97809],[85.16739,46.992998],[85.191523,47.023281],[85.205114,47.033719],[85.225836,47.041574],[85.246145,47.044416],[85.303713,47.039404],[85.432129,47.053124],[85.498636,47.051832],[85.505767,47.063898],[85.508093,47.082528],[85.516878,47.100304],[85.529745,47.114283],[85.538634,47.127926],[85.544266,47.143222],[85.547109,47.162032],[85.556824,47.178749],[85.577494,47.189162],[85.601627,47.194433],[85.647309,47.197895],[85.65966,47.206525],[85.664414,47.221305],[85.668393,47.241872],[85.678987,47.274893],[85.678987,47.290706],[85.670202,47.309051],[85.667205,47.326053],[85.674026,47.344295],[85.678884,47.363828],[85.670357,47.384344],[85.600232,47.463202],[85.584574,47.492942],[85.584574,47.493097],[85.579975,47.523767],[85.595788,47.590895],[85.595426,47.624071],[85.515379,47.92028],[85.517808,47.944646],[85.528712,47.966608],[85.547109,47.992989],[85.561785,48.030661],[85.586383,48.141249],[85.718674,48.358832],[85.747406,48.390097],[85.783683,48.407589],[86.005995,48.429551],[86.19203,48.418234],[86.246704,48.437355],[86.286288,48.469704],[86.307372,48.483088],[86.333831,48.4904],[86.430621,48.485879],[86.546427,48.517221],[86.565083,48.527323],[86.57516,48.539829],[86.593556,48.574142],[86.605545,48.59011],[86.6211,48.603158],[86.669004,48.634242],[86.744503,48.70354],[86.751996,48.715426],[86.751893,48.729171],[86.740524,48.771701],[86.739181,48.783535],[86.746105,48.792837],[86.764657,48.807616],[86.789462,48.839139],[86.7737,48.858518],[86.741868,48.878723],[86.718045,48.912519],[86.711585,48.937066],[86.709415,48.954222],[86.713859,48.969932],[86.727502,48.990344],[86.743521,49.007707],[86.760058,49.02011],[86.798918,49.042227],[86.816178,49.058454],[86.838193,49.093852],[86.859483,49.105324],[86.887337,49.106823],[86.946558,49.094472],[86.975445,49.092405],[87.116315,49.129767],[87.161997,49.122791],[87.200651,49.108735],[87.323796,49.085274],[87.362295,49.075093],[87.400432,49.071011],[87.438363,49.07468],[87.47557,49.087599],[87.481771,49.09163],[87.487145,49.096953],[87.491589,49.103205],[87.500064,49.119173],[87.506059,49.120879],[87.514017,49.119639],[87.525282,49.119794],[87.716382,49.158861],[87.816324,49.165837],[87.818081,49.154003],[87.832447,49.123876],[87.835548,49.100725],[87.829657,49.085997],[87.821078,49.071838],[87.815962,49.050599],[87.821905,49.02874],[87.837821,49.02042],[87.856942,49.015614],[87.872238,49.00409],[87.8726,48.96802],[87.835858,48.945902],[87.756896,48.920374],[87.743615,48.905181],[87.735709,48.886733],[87.737879,48.86937],[87.754726,48.857277],[87.77674,48.85118],[87.787489,48.84658],[87.796067,48.839759],[87.800511,48.830302],[87.802165,48.80958],[87.805885,48.800588],[87.821078,48.788289],[87.841697,48.779349],[87.907585,48.758834],[87.95244,48.761107],[87.975488,48.755992],[88.033779,48.72912],[88.05941,48.708087],[88.063854,48.682611],[88.055018,48.673413],[88.010162,48.653414],[88.003393,48.645998],[87.997812,48.635172],[87.989647,48.624165],[87.975488,48.616517],[87.942828,48.599489],[87.95182,48.575202],[87.983032,48.552335],[88.016622,48.539803],[88.028301,48.539622],[88.051969,48.543188],[88.062511,48.542878],[88.071812,48.538795],[88.088245,48.526083],[88.115737,48.516497],[88.148293,48.499366],[88.165967,48.493734],[88.183485,48.492752],[88.21785,48.495],[88.235627,48.493191],[88.304873,48.469006],[88.332107,48.453994],[88.383421,48.408674],[88.416701,48.394101],[88.439645,48.393714],[88.459127,48.398132],[88.479126,48.400148],[88.50269,48.392551],[88.565116,48.342993],[88.57297,48.32532],[88.558759,48.288087],[88.56124,48.268269],[88.568836,48.249201],[88.573487,48.229719],[88.580774,48.211994],[88.596225,48.197679],[88.635809,48.175846],[88.655446,48.171169],[88.680664,48.17303],[88.709189,48.166363],[88.775335,48.120552],[88.805411,48.105954],[88.831456,48.105153],[88.889282,48.110915],[88.916825,48.105954],[88.932328,48.096962],[89.045551,47.992989],[89.04581,47.992989],[89.045913,47.992886],[89.074697,47.984256],[89.167146,47.983997],[89.218719,47.976969],[89.243989,47.980225],[89.268587,47.993144],[89.285692,48.005598],[89.334268,48.032366],[89.354266,48.038774],[89.369201,48.038154],[89.409198,48.023116],[89.425425,48.021644],[89.475344,48.022961],[89.503663,48.029989],[89.5418,48.031023],[89.571876,48.020455],[89.576217,47.992886],[89.575648,47.976039],[89.583245,47.962035],[89.596577,47.952578],[89.613424,47.949581],[89.627376,47.943948],[89.636161,47.929582],[89.643913,47.912761],[89.655282,47.899816],[89.672025,47.89408],[89.707268,47.889042],[89.723391,47.878164],[89.731143,47.864754],[89.740238,47.836151],[89.751296,47.824317],[89.783543,47.818504],[89.889066,47.824317],[89.921364,47.832094],[89.934438,47.844264],[89.937642,47.857545],[89.939037,47.870852],[89.946685,47.883177],[89.96317,47.888654],[90.002496,47.880386],[90.044612,47.879766],[90.059856,47.868811],[90.064352,47.85062],[90.055981,47.828916],[90.052157,47.8107],[90.058771,47.789513],[90.070657,47.76985],[90.082852,47.756104],[90.119956,47.730137],[90.163416,47.710009],[90.209718,47.695746],[90.302116,47.678512],[90.32351,47.670166],[90.3448,47.658642],[90.349554,47.64779],[90.337462,47.63699],[90.327437,47.623037],[90.338496,47.60278],[90.352035,47.588311],[90.381594,47.538391],[90.394616,47.524671],[90.427276,47.506559],[90.441228,47.493045],[90.443606,47.462789],[90.441745,47.430543],[90.448153,47.404033],[90.475232,47.391088],[90.487221,47.378194],[90.490011,47.361839],[90.485567,47.344915],[90.475232,47.33029],[90.468514,47.323521],[90.466343,47.316338],[90.46872,47.308922],[90.712116,47.014702],[90.742399,46.991861],[90.78188,46.986332],[90.805547,46.986849],[90.828182,46.982301],[90.849472,46.973206],[90.869833,46.960339],[90.885129,46.944733],[90.893707,46.92817],[90.900322,46.910678],[90.91014,46.892384],[90.917685,46.885408],[90.92585,46.880654],[90.932775,46.874789],[90.936495,46.864427],[90.934428,46.856831],[90.922749,46.841586],[90.919959,46.833628],[90.925333,46.813139],[90.939389,46.79885],[90.975149,46.774149],[91.004812,46.74043],[91.01556,46.703197],[91.014292,46.689844],[91.011736,46.662941],[90.998094,46.620256],[90.995923,46.594625],[91.011323,46.585323],[91.03251,46.579923],[91.047496,46.566409],[91.045326,46.551087],[91.035611,46.529073],[91.014113,46.493184],[91.001401,46.475045],[90.986105,46.435255],[90.975149,46.416548],[90.935772,46.343865],[90.906006,46.317303],[90.896188,46.302033],[90.899185,46.281672],[90.948794,46.168294],[90.975149,46.140544],[90.995923,46.113724],[91.005432,46.068094],[91.002435,46.021843],[90.986208,45.993111],[90.975149,45.987323],[90.919235,45.950065],[90.710773,45.752196],[90.696613,45.730026],[90.651138,45.493142],[90.672325,45.475675],[90.737955,45.441724],[90.753251,45.42095],[90.762553,45.391597],[90.778055,45.365294],[90.790458,45.337699],[90.790975,45.304316],[90.796556,45.292844],[90.837173,45.280028],[90.854433,45.270623],[90.866629,45.25357],[90.865905,45.242563],[90.860324,45.231659],[90.857637,45.215071],[90.873243,45.186184],[90.90549,45.185977],[90.975149,45.214864],[91.011323,45.218946],[91.056798,45.217551],[91.101343,45.210678],[91.135036,45.197862],[91.147749,45.187217],[91.169763,45.163549],[91.184336,45.153834],[91.249138,45.129701],[91.346703,45.113733],[91.366547,45.11425],[91.3836,45.124224],[91.399723,45.136884],[91.41688,45.145669],[91.43848,45.146134],[91.45605,45.137453],[91.521783,45.077456],[91.533978,45.0711],[91.54328,45.071824],[91.552272,45.075338],[91.563951,45.077146],[91.662963,45.059525],[91.683633,45.061178],[91.724664,45.070738],[91.746989,45.072444],[91.919071,45.065571],[91.975088,45.073374],[92.009401,45.076216],[92.042991,45.074821],[92.075651,45.068878],[92.108414,45.058181],[92.19368,45.014514],[92.218898,45.010122],[92.267887,45.019527],[92.285354,45.019527],[92.331036,45.007848],[92.347365,45.007642],[92.396458,45.013119],[92.413821,45.011259],[92.458986,44.997926],[92.475109,44.997461],[92.572054,45.013016],[92.63851,45.0156],[92.752715,45.037976],[92.798914,45.03317],[92.81421,45.033893],[92.847593,45.039112],[92.861029,45.037872],[92.91622,45.014566],[92.945055,45.005833],[92.974924,45.004696],[92.994458,45.008365],[93.013888,45.009295],[93.033112,45.007642],[93.052439,45.003456],[93.075941,45.005192],[93.139152,45.009864],[93.165713,45.007642],[93.244158,44.981545],[93.268963,44.980098],[93.317229,44.985886],[93.341,44.984852],[93.36136,44.978393],[93.399911,44.960564],[93.420582,44.955087],[93.525278,44.951263],[93.688265,44.891059],[93.714,44.874575],[93.874507,44.714223],[93.927424,44.672933],[93.97507,44.659962],[94.058579,44.651281],[94.103744,44.651643],[94.149012,44.667197],[94.165342,44.665854],[94.181879,44.660841],[94.195005,44.65433],[94.27748,44.589579],[94.295464,44.571389],[94.321922,44.528033],[94.338458,44.512116],[94.366364,44.504313],[94.430132,44.504468],[94.460311,44.493306],[94.588055,44.4361],[94.657199,44.388816],[94.672598,44.373778],[94.683967,44.356622],[94.69823,44.343496],[94.720864,44.335796],[94.905762,44.294248],[94.993819,44.259418],[95.036814,44.254974],[95.379428,44.287117],[95.397722,44.280502],[95.389247,44.260762],[95.359688,44.231823],[95.347492,44.214925],[95.340568,44.187537],[95.327132,44.168313],[95.322688,44.158236],[95.321447,44.148417],[95.328269,44.09824],[95.31876,44.040724],[95.318967,44.017108],[95.327545,44.006669],[95.422733,43.988634],[95.474926,43.986619],[95.510273,43.979125],[95.535284,43.95768],[95.589235,43.869494],[95.692484,43.630542],[95.832837,43.408902],[95.841416,43.372522],[95.845446,43.326478],[95.854955,43.284543],[95.874385,43.247103],[95.908492,43.214547],[96.294308,42.933272],[96.318699,42.910069],[96.330688,42.889709],[96.337199,42.86648],[96.350635,42.740906],[96.357767,42.724499],[96.36634,42.722923],[96.09091,42.58691],[96.072927,42.572647],[96.06285,42.559263],[96.053393,42.541073],[96.043781,42.499887],[96.01784,42.13872],[96.020165,42.102547],[96.025074,42.082031],[96.040991,42.043636],[96.044246,42.03082],[96.044401,42.013146],[96.041301,42.003431],[96.035823,41.995292],[95.952004,41.919199],[95.863947,41.855017],[95.837386,41.841994],[95.80576,41.832486],[95.771912,41.829721],[95.49198,41.856024],[95.05826,41.788561],[94.580925,41.585214],[94.011037,41.104029],[93.759941,40.823322],[93.714776,40.743405],[93.669146,40.683357],[93.577472,40.587962],[93.534322,40.560987],[93.503471,40.547603],[93.397741,40.517243],[93.31909,40.477013],[93.286327,40.469261],[93.036833,40.489854],[92.990428,40.487839],[92.941542,40.472569],[92.925884,40.422908],[92.919528,40.118068],[92.915342,40.093315],[92.907435,40.079208],[92.777417,39.905523],[92.770389,39.890279],[92.765894,39.877695],[92.764498,39.862425],[92.766462,39.840101],[92.772405,39.810542],[92.94795,39.452476],[92.951464,39.441676],[92.954151,39.428343],[92.953531,39.392014],[92.940922,39.310727],[92.935341,39.16438],[92.935961,39.152856],[92.923868,39.153114],[92.904335,39.150892],[92.811059,39.126398],[92.504566,39.074411],[92.394443,39.06759],[92.367572,39.062887],[92.343697,39.055084],[92.333103,39.049865],[92.248561,38.989042],[92.122729,38.940647],[91.975451,38.906773],[91.880625,38.875483],[91.62865,38.825667],[91.491604,38.817269],[91.466025,38.811972],[91.44246,38.804066],[91.342673,38.759753],[91.294407,38.745129],[91.225988,38.744147],[91.198806,38.740375],[91.119844,38.716087],[91.012461,38.698672],[90.923887,38.702909],[90.894948,38.700997],[90.73501,38.673195],[90.705503,38.671464],[90.665815,38.677872],[90.659304,38.677123],[90.653516,38.674074],[90.649072,38.668751],[90.645041,38.660896],[90.642871,38.654023],[90.640649,38.635316],[90.638943,38.629219],[90.635998,38.624309],[90.631502,38.620304],[90.626386,38.61754],[90.57936,38.600383],[90.54975,38.581986],[90.536521,38.571289],[90.47823,38.532506],[90.411929,38.5038],[90.401232,38.496669],[90.380923,38.486178],[90.320565,38.466722],[90.312452,38.465792],[90.256124,38.473776],[90.240621,38.473828],[90.205585,38.46928],[90.18848,38.464035],[90.172202,38.456283],[90.159283,38.445845],[90.150911,38.432797],[90.153288,38.408793],[90.16476,38.379053],[90.193492,38.325671],[90.439266,37.996079],[90.443606,37.984478],[90.448412,37.9659],[90.451358,37.936754],[90.448412,37.915981],[90.443451,37.900478],[90.410068,37.846992],[90.407226,37.84012],[90.405573,37.833505],[90.405107,37.827355],[90.406038,37.816555],[90.408828,37.80839],[90.413169,37.800019],[90.422626,37.788546],[90.429757,37.78281],[90.436475,37.778573],[90.568973,37.731961],[90.675582,37.669794],[90.834487,37.607782],[90.86663,37.583546],[90.899186,37.553445],[90.93908,37.527322],[90.957218,37.519416],[91.073749,37.487945],[91.081655,37.483294],[91.091319,37.475542],[91.106357,37.458127],[91.117674,37.438697],[91.1262,37.418595],[91.151677,37.323252],[91.163149,37.300127],[91.234979,37.195404],[91.302314,37.137062],[91.30991,37.129129],[91.316318,37.118975],[91.320659,37.106314],[91.323553,37.092672],[91.32593,37.070192],[91.32562,37.052984],[91.323243,37.043734],[91.318798,37.035492],[91.308205,37.024045],[91.298748,37.017637],[91.287586,37.013503],[91.191364,37.001463],[91.161134,36.992109],[91.05499,36.945135],[91.000368,36.931209],[90.982178,36.929581],[90.96373,36.929632],[90.895465,36.939296],[90.891124,36.939477],[90.837743,36.927772],[90.826425,36.923612],[90.80777,36.910564],[90.765861,36.863952],[90.712376,36.8215],[90.701472,36.807831],[90.696201,36.796902],[90.69,36.776257],[90.686124,36.745742],[90.688139,36.698484],[90.695891,36.660553],[90.697751,36.655463],[90.702299,36.646006],[90.710463,36.636162],[90.76028,36.590609],[90.80529,36.558518],[90.840533,36.543584],[90.858051,36.539088],[90.93691,36.530174],[90.972256,36.522319],[90.985279,36.517616],[90.994787,36.51294],[91.000523,36.509245],[91.006724,36.503483],[91.024553,36.460333],[91.061036,36.313546],[91.083826,36.260707],[91.117829,36.197636],[91.135761,36.140637],[91.137311,36.120431],[91.135967,36.104567],[91.131626,36.091131],[91.12372,36.081209],[91.111318,36.073922],[91.092042,36.06953],[91.047497,36.06338],[91.005949,36.052942],[90.914999,36.013332],[90.894225,36.006614],[90.875001,36.003642],[90.853401,36.004728],[90.829371,36.010412],[90.642561,36.105807],[90.622665,36.111129],[90.292453,36.115548],[90.165691,36.129242],[90.154218,36.132472],[90.14533,36.137071],[90.138509,36.143091],[90.132463,36.150714],[90.098046,36.204871],[90.083318,36.221019],[90.068849,36.233318],[90.044199,36.250501],[90.029575,36.258847],[90.020997,36.258511],[90.013762,36.252775],[89.979449,36.133144],[89.976658,36.118571],[89.972007,36.104928],[89.96255,36.09188],[89.946117,36.08002],[89.918781,36.069788],[89.892891,36.065964],[89.866794,36.065603],[89.677813,36.081958],[89.223629,36.263575],[89.204716,36.266365],[89.110509,36.262257],[89.078108,36.264324],[89.040074,36.27143],[88.993204,36.273962],[88.98292,36.276081],[88.974911,36.278716],[88.958271,36.287294],[88.88272,36.350185],[88.851249,36.367315],[88.83864,36.371656],[88.828098,36.373672],[88.711722,36.368401],[88.52238,36.414315],[88.516179,36.416744],[88.510804,36.419612],[88.506257,36.422868],[88.502846,36.426278],[88.500521,36.429405],[88.4968,36.432919],[88.490444,36.43788],[88.474786,36.445218],[88.459231,36.448887],[88.398253,36.454829],[88.276762,36.448577],[88.148759,36.428423],[88.078479,36.424134],[88.000086,36.428371],[87.992955,36.427234],[87.985979,36.425038],[87.976367,36.420051],[87.96722,36.41385],[87.942519,36.393309],[87.924535,36.38256],[87.887587,36.369098],[87.852085,36.362949],[87.765785,36.359745],[87.570914,36.333803],[87.514896,36.334966],[87.500582,36.336542],[87.451748,36.349254],[87.39449,36.370132],[87.364208,36.375609],[87.345604,36.374059],[87.193831,36.30396],[87.179878,36.301015],[87.063451,36.292152],[87.03043,36.28484],[87.009914,36.278199],[87.000819,36.274091],[86.820158,36.265074],[86.786982,36.260268],[86.71386,36.231458],[86.690295,36.225102],[86.661305,36.220063],[86.589578,36.216549],[86.496457,36.225283],[86.474753,36.223939],[86.459405,36.219443],[86.448708,36.210297],[86.437649,36.199109],[86.428503,36.187611],[86.419356,36.179756],[86.411294,36.174511],[86.399512,36.170041],[86.272388,36.145649],[86.245258,36.135934],[86.233941,36.130663],[86.224329,36.12503],[86.21234,36.115935],[86.206759,36.107357],[86.202418,36.095601],[86.191876,36.048704],[86.18676,36.034338],[86.178544,36.020308],[86.169242,36.009404],[86.159113,36.000232],[86.133172,35.985349],[86.128573,35.98044],[86.126092,35.97566],[86.120149,35.95765],[86.112605,35.921064],[86.110744,35.916258],[86.087438,35.875588],[86.073331,35.86037],[86.02801,35.826444],[85.993232,35.784844],[85.986721,35.779884],[85.973233,35.772235],[85.951219,35.764071],[85.929928,35.761693],[85.768233,35.772571],[85.745289,35.770401],[85.728855,35.766086],[85.716866,35.759265],[85.619766,35.675394],[85.598321,35.663844],[85.582663,35.657772],[85.571346,35.656041],[85.561889,35.65741],[85.554602,35.661984],[85.548711,35.668986],[85.543544,35.677978],[85.530676,35.708157],[85.527576,35.713298],[85.523855,35.71627],[85.452025,35.749394],[85.442568,35.752056],[85.429339,35.754381],[85.389341,35.756707],[85.36743,35.754924],[85.341541,35.748955],[85.315961,35.739473],[85.283508,35.731669],[85.270796,35.730248],[85.260254,35.730403],[85.253381,35.732238],[85.22408,35.745002],[85.214468,35.747224],[85.177054,35.750531],[85.149769,35.749808],[84.923633,35.689321],[84.847462,35.633536],[84.777647,35.600489],[84.585566,35.566667],[84.563449,35.559484],[84.214684,35.388951],[84.174325,35.376807],[84.155256,35.375567],[84.133191,35.377531],[84.113657,35.383293],[84.051128,35.411741],[84.039191,35.415616],[84.024257,35.418097],[84.009064,35.41851],[83.984414,35.41603],[83.870674,35.374534],[83.615083,35.359005],[83.564801,35.36071],[83.540152,35.366524],[83.498552,35.385153],[83.452612,35.393551],[83.35267,35.39399],[83.32864,35.397065],[83.311432,35.401044],[83.278049,35.413291],[83.246113,35.421249],[83.226217,35.423471],[83.210094,35.422774],[83.156713,35.407193],[83.121779,35.404428],[83.09868,35.412774],[83.082092,35.424686],[83.063902,35.440705],[83.042353,35.455045],[83.006334,35.469515],[82.985405,35.480677],[82.971763,35.490444],[82.96799,35.497937],[82.96706,35.504448],[82.967577,35.516179],[82.978429,35.600773],[82.976569,35.621444],[82.968817,35.641907],[82.956828,35.657204],[82.935899,35.674076],[82.912593,35.682939],[82.885153,35.688855],[82.825415,35.691775],[82.802781,35.689243],[82.784591,35.684541],[82.731519,35.657281],[82.710435,35.650176],[82.671781,35.65108],[82.458461,35.687589],[82.428178,35.68976],[82.414536,35.685729],[82.400531,35.679089],[82.373091,35.661803],[82.360689,35.65679],[82.338468,35.650434],[82.327926,35.643664],[82.318934,35.633743],[82.314283,35.619144],[82.312888,35.582738],[82.309788,35.571576],[82.304517,35.560956],[82.29816,35.55274],[82.289169,35.544962],[82.222248,35.505843],[82.086029,35.447992],[82.075642,35.442075],[82.066133,35.433651],[82.060242,35.426391],[82.056366,35.419285],[82.043654,35.368074],[82.036988,35.351977],[82.029856,35.340582],[82.02257,35.332831],[82.012286,35.32526],[82.00221,35.319447],[81.924333,35.292213],[81.711426,35.245653],[81.604198,35.236919],[81.576602,35.238986],[81.558722,35.244774],[81.54508,35.251776],[81.461777,35.310248],[81.441727,35.318981],[81.417387,35.326035],[81.377648,35.331849],[81.357339,35.332391],[81.259723,35.314176],[81.232902,35.31402],[81.210217,35.316914],[81.177815,35.328748],[81.130635,35.35376],[81.106554,35.374017],[81.091361,35.383784],[81.073532,35.389468],[81.060923,35.388564],[81.050691,35.383267],[81.04263,35.374404],[81.037204,35.363501],[81.034103,35.355052],[81.033328,35.348334],[81.033483,35.341357],[81.036894,35.310791],[81.035188,35.304202],[81.028832,35.299706],[81.019065,35.296295],[80.999945,35.292885],[80.988163,35.292394],[80.978861,35.293402],[80.955607,35.303143],[80.893182,35.33743],[80.875818,35.343424],[80.858455,35.347145],[80.846363,35.34823],[80.829878,35.347972],[80.790966,35.343631],[80.766109,35.343424],[80.758203,35.34438],[80.744095,35.347714],[80.719239,35.357119],[80.676761,35.379184],[80.67056,35.381432],[80.65609,35.3843],[80.541265,35.390915],[80.511965,35.396341],[80.486023,35.404248],[80.388096,35.457578],[80.365464,35.474556],[80.365042,35.474872],[80.319211,35.509254],[80.312144,35.512135],[80.274201,35.527599],[80.259629,35.514163],[80.258594,35.506609],[80.257923,35.501709],[80.261024,35.48631],[80.262729,35.468946],[80.262884,35.435667],[80.259474,35.417322],[80.254203,35.402723],[80.235599,35.375205],[80.176171,35.253249],[80.165474,35.235602],[80.15054,35.219453],[80.097313,35.179274],[80.036645,35.119924],[80.020367,35.09977],[80.014165,35.085921],[80.014165,35.073415],[80.019281,35.064268],[80.025948,35.056155],[80.033389,35.048765],[80.04021,35.040652],[80.045171,35.030188],[80.046928,35.017708],[80.043776,35.001223],[80.037885,34.989958],[80.029358,34.981173],[80.019436,34.975281],[80.00998,34.97107],[80.000988,34.968409],[79.951637,34.961897],[79.938408,34.958848],[79.926316,34.95474],[79.913138,34.947919],[79.900271,34.938074],[79.883838,34.9196],[79.880117,34.906035],[79.88115,34.893917],[79.89841,34.866399],[79.902596,34.856064],[79.907557,34.81834],[79.911123,34.807746],[79.916704,34.798393],[79.953032,34.757827],[79.958458,34.74868],[79.962179,34.735865],[79.963419,34.72093],[79.960009,34.697391],[79.956288,34.684757],[79.94311,34.663983],[79.937725,34.656924],[79.913758,34.62551],[79.87929,34.550243],[79.862702,34.521227],[79.793972,34.431025],[79.78064,34.419088],[79.769633,34.41423],[79.757024,34.41113],[79.742606,34.410277],[79.727878,34.411182],[79.717336,34.412784],[79.710588,34.414933],[79.705657,34.416504],[79.653877,34.441826],[79.602511,34.458672],[79.512646,34.471695],[79.481123,34.471178],[79.453063,34.46663],[79.434149,34.461721],[79.380922,34.439061],[79.364438,34.434488],[79.338393,34.430819],[79.239846,34.440534],[79.218917,34.44074],[79.204499,34.439449],[79.037688,34.384672],[79.027094,34.379504],[78.998724,34.3578],[78.985391,34.3501],[78.95694,34.339961],[78.95118,34.349171],[78.922138,34.372296],[78.885861,34.385758],[78.839249,34.396894],[78.801732,34.415006],[78.750676,34.471282],[78.664583,34.526421],[78.607325,34.546471],[78.379432,34.578666],[78.335301,34.594375],[78.296027,34.624658],[78.273186,34.658867],[78.211381,34.848262],[78.202492,34.865728],[78.162185,34.908826],[78.148129,34.94314],[78.13924,35.018949],[78.130042,35.055432],[78.036404,35.194235],[78.001161,35.268908],[78.009843,35.347456],[78.038058,35.398099],[78.055628,35.452876],[78.044259,35.491633],[77.985865,35.494165],[77.957856,35.482073],[77.912691,35.44099],[77.883132,35.431068]]]}}]}
