{"type":"FeatureCollection","features":[{"type":"Feature","properties":{"id":"IN-BR","country":"IN","name_en":"Bihar"},"geometry":{"type":"Polygon","coordinates":[[[87.648745,26.409993],[87.659641,26.41751],[87.68119,26.424228],[87.697572,26.41627],[87.710904,26.405676],[87.727544,26.403764],[87.74222,26.410482],[87.749455,26.425727],[87.756173,26.446914],[87.768988,26.451461],[87.785938,26.445984],[87.804439,26.437354],[87.821595,26.437509],[87.852084,26.46066],[87.869809,26.464639],[87.870688,26.460712],[87.894769,26.442935],[87.897301,26.443452],[87.902004,26.435287],[87.908515,26.41782],[87.914768,26.40826],[87.928979,26.396426],[87.961225,26.378959],[87.975488,26.366557],[88.006648,26.369864],[88.044321,26.405676],[88.074189,26.453942],[88.082251,26.494921],[88.07915,26.507375],[88.079822,26.517556],[88.087136,26.5391],[88.104628,26.535435],[88.121888,26.5305],[88.130983,26.531197],[88.150206,26.535306],[88.194028,26.549517],[88.203433,26.547191],[88.20581,26.539724],[88.196198,26.51262],[88.194958,26.501483],[88.195268,26.500243],[88.195268,26.50014],[88.199609,26.49598],[88.208704,26.488694],[88.216456,26.484844],[88.227824,26.481459],[88.237436,26.474638],[88.270819,26.444226],[88.278674,26.435002],[88.282291,26.428439],[88.278364,26.423685],[88.27423,26.420842],[88.263998,26.415675],[88.257797,26.410869],[88.253766,26.403582],[88.254489,26.396038],[88.25945,26.390844],[88.278674,26.383558],[88.292213,26.376452],[88.299551,26.368804],[88.303685,26.359968],[88.303892,26.351751],[88.302445,26.343896],[88.300171,26.338935],[88.297174,26.336222],[88.292523,26.335137],[88.276504,26.334904],[88.263688,26.332708],[88.251079,26.326765],[88.220073,26.299454],[88.208911,26.293589],[88.180489,26.285528],[88.167466,26.277182],[88.154444,26.265426],[88.11858,26.226487],[88.09791,26.211114],[88.079823,26.19282],[88.067731,26.18512],[88.047474,26.177111],[88.038068,26.171116],[88.016468,26.150885],[88.006546,26.146906],[87.999415,26.146027],[87.992387,26.146828],[87.985565,26.146983],[87.979364,26.145795],[87.970269,26.138302],[87.936679,26.099002],[87.86733,26.049185],[87.839424,26.022314],[87.831363,26.010557],[87.828986,26.000429],[87.828986,26.000119],[87.828882,25.999964],[87.829916,25.986579],[87.828366,25.975443],[87.824541,25.966296],[87.8171,25.937073],[87.814413,25.931802],[87.811002,25.928547],[87.80077,25.926196],[87.793226,25.923379],[87.789505,25.919168],[87.787438,25.911675],[87.787955,25.906352],[87.789195,25.902373],[87.794466,25.893665],[87.796119,25.890487],[87.79736,25.886999],[87.79829,25.883123],[87.800977,25.878782],[87.805421,25.873666],[87.824335,25.86284],[87.854927,25.849844],[87.865056,25.843901],[87.878078,25.822558],[87.882419,25.81876],[87.88707,25.813308],[87.892651,25.804188],[87.897509,25.786566],[87.904123,25.773311],[87.910531,25.76512],[87.932235,25.751297],[87.94257,25.735329],[88.005099,25.710808],[88.032901,25.691326],[88.042823,25.678149],[88.04644,25.668873],[88.050471,25.64567],[88.055535,25.627428],[88.056672,25.621279],[88.056775,25.614122],[88.052124,25.584563],[88.044063,25.556916],[88.043133,25.547097],[88.04613,25.542627],[88.050471,25.537511],[88.058946,25.529915],[88.06277,25.524592],[88.06494,25.519864],[88.06525,25.506531],[88.067421,25.49108],[88.005822,25.501209],[87.990526,25.507694],[87.990216,25.514593],[87.988666,25.518288],[87.97492,25.528313],[87.9558,25.534075],[87.94288,25.525367],[87.922623,25.514438],[87.88552,25.503663],[87.880352,25.501286],[87.878802,25.500356],[87.878492,25.500072],[87.878182,25.499762],[87.869707,25.486067],[87.863195,25.4786],[87.849966,25.471107],[87.819374,25.457439],[87.786094,25.446122],[87.768007,25.436277],[87.768317,25.433177],[87.767904,25.429714],[87.766974,25.426381],[87.764183,25.42235],[87.759533,25.417906],[87.749714,25.411317],[87.74558,25.406873],[87.743823,25.402636],[87.74496,25.399458],[87.74775,25.397391],[87.758396,25.393515],[87.761186,25.391474],[87.763357,25.388735],[87.766664,25.381965],[87.770385,25.371682],[87.772038,25.368969],[87.774829,25.366979],[87.778239,25.366204],[87.782063,25.366721],[87.788885,25.368917],[87.792709,25.369124],[87.796326,25.368116],[87.798807,25.365946],[87.806868,25.35499],[87.813689,25.347342],[87.81679,25.341115],[87.821234,25.322873],[87.829192,25.302151],[87.839011,25.288302],[87.838081,25.27776],[87.8171,25.246676],[87.783717,25.214094],[87.778756,25.227556],[87.770178,25.236987],[87.759946,25.243498],[87.749611,25.248227],[87.72615,25.251611],[87.681191,25.245436],[87.65959,25.255074],[87.598715,25.266701],[87.58869,25.27683],[87.581559,25.289904],[87.57019,25.303469],[87.558098,25.311892],[87.549726,25.315199],[87.539804,25.316517],[87.535877,25.320031],[87.523475,25.323778],[87.509109,25.314993],[87.470765,25.284168],[87.459706,25.265926],[87.455675,25.251663],[87.454745,25.243317],[87.441412,25.235824],[87.436141,25.228796],[87.42994,25.20226],[87.423429,25.18854],[87.406686,25.181047],[87.392216,25.183993],[87.376507,25.189961],[87.363794,25.196499],[87.35563,25.197067],[87.348602,25.193889],[87.34209,25.189961],[87.337439,25.18823],[87.315219,25.187223],[87.302506,25.183915],[87.291861,25.174252],[87.282972,25.149706],[87.280699,25.13074],[87.265919,25.072165],[87.261372,25.063974],[87.25424,25.062915],[87.230573,25.071777],[87.216723,25.072553],[87.185511,25.061985],[87.174039,25.053872],[87.150887,25.031625],[87.12815,25.001627],[87.121329,24.986279],[87.117298,24.970879],[87.121742,24.863754],[87.119158,24.851145],[87.112027,24.839156],[87.102622,24.827477],[87.085568,24.797892],[87.077714,24.788771],[87.071202,24.782751],[87.068102,24.778488],[87.071202,24.770452],[87.075957,24.760453],[87.077507,24.745337],[87.066655,24.699475],[87.069445,24.668055],[87.055699,24.632011],[87.051875,24.618084],[87.050015,24.597026],[87.042264,24.588396],[87.029758,24.584029],[87.013118,24.586045],[86.961132,24.605191],[86.925475,24.613588],[86.917827,24.612684],[86.915346,24.597259],[86.90005,24.576407],[86.890748,24.564547],[86.889818,24.556796],[86.891989,24.536926],[86.889922,24.531604],[86.813234,24.55416],[86.781504,24.577492],[86.768068,24.584675],[86.755356,24.588138],[86.745021,24.586846],[86.737889,24.580851],[86.727968,24.560129],[86.702336,24.547778],[86.689727,24.547778],[86.666679,24.542404],[86.649213,24.542662],[86.628956,24.55292],[86.607355,24.561292],[86.585651,24.561447],[86.536248,24.515636],[86.503588,24.49065],[86.49439,24.479798],[86.485192,24.445227],[86.486019,24.410474],[86.475166,24.403136],[86.467518,24.399906],[86.462557,24.391767],[86.461214,24.383473],[86.463384,24.373525],[86.461937,24.363139],[86.456873,24.352312],[86.449742,24.343114],[86.438683,24.340375],[86.416359,24.351873],[86.35507,24.395281],[86.276419,24.434814],[86.270941,24.445924],[86.272491,24.454451],[86.298433,24.481607],[86.303497,24.491064],[86.304634,24.500314],[86.300293,24.532611],[86.296573,24.542507],[86.290475,24.551551],[86.26226,24.553799],[86.223606,24.567932],[86.213684,24.565607],[86.191359,24.553024],[86.17441,24.552378],[86.154876,24.556098],[86.136686,24.569586],[86.12573,24.580696],[86.117669,24.597026],[86.107747,24.671647],[86.097722,24.690483],[86.081495,24.701102],[86.064546,24.706658],[86.048733,24.707071],[86.037674,24.708363],[86.03292,24.712394],[86.03788,24.722367],[86.044082,24.731436],[86.046872,24.739601],[86.040154,24.749988],[86.01814,24.742986],[86.001604,24.729111],[85.959332,24.703221],[85.911583,24.698467],[85.865901,24.751719],[85.849158,24.764458],[85.830865,24.770917],[85.746012,24.770039],[85.731853,24.766551],[85.71852,24.753787],[85.708288,24.738645],[85.70095,24.724538],[85.696919,24.711541],[85.693715,24.682163],[85.688858,24.66883],[85.680796,24.658547],[85.655268,24.651829],[85.64731,24.648573],[85.647413,24.643251],[85.651341,24.635422],[85.657439,24.626456],[85.660332,24.61718],[85.6624,24.605734],[85.6624,24.568888],[85.656818,24.557649],[85.643693,24.55013],[85.619818,24.549923],[85.602352,24.553308],[85.587572,24.557571],[85.578374,24.557804],[85.573929,24.54566],[85.569899,24.541241],[85.56008,24.533283],[85.556566,24.527935],[85.526387,24.501554],[85.517085,24.499461],[85.50551,24.503208],[85.495278,24.508065],[85.482359,24.509305],[85.462515,24.506205],[85.438951,24.505197],[85.391408,24.50946],[85.374562,24.499642],[85.295187,24.491141],[85.280614,24.487265],[85.277513,24.480909],[85.27617,24.473416],[85.271312,24.467034],[85.260977,24.461789],[85.170957,24.430912],[85.160208,24.421326],[85.157934,24.412283],[85.160208,24.403084],[85.157727,24.395643],[85.149356,24.387969],[85.135507,24.378254],[85.097576,24.344199],[85.088998,24.341951],[85.082487,24.34854],[85.0829,24.35872],[85.088481,24.383318],[85.087137,24.390915],[85.080626,24.393318],[85.015411,24.371794],[84.998874,24.361046],[84.981821,24.352803],[84.96146,24.348385],[84.908854,24.353682],[84.895625,24.362079],[84.88901,24.372828],[84.879192,24.426752],[84.876298,24.436442],[84.868546,24.440111],[84.859451,24.436338],[84.843845,24.433496],[84.835163,24.43794],[84.825551,24.484914],[84.813149,24.495353],[84.798473,24.496593],[84.786897,24.489823],[84.776976,24.482304],[84.761783,24.474656],[84.747623,24.465148],[84.704318,24.443289],[84.688195,24.430705],[84.675276,24.41143],[84.664734,24.382104],[84.657603,24.37505],[84.644891,24.375231],[84.623807,24.380192],[84.612334,24.380734],[84.602723,24.385747],[84.594144,24.391612],[84.588253,24.394429],[84.584222,24.39231],[84.579572,24.382181],[84.573164,24.37182],[84.549599,24.352261],[84.544948,24.341925],[84.542675,24.332908],[84.539884,24.325983],[84.519213,24.307509],[84.507535,24.303168],[84.496683,24.301695],[84.484487,24.302858],[84.471981,24.307354],[84.454618,24.320376],[84.447177,24.328179],[84.440975,24.33823],[84.434464,24.346499],[84.409659,24.36425],[84.380927,24.377789],[84.366355,24.388124],[84.352815,24.401069],[84.338759,24.420629],[84.314368,24.443134],[84.311888,24.451144],[84.318399,24.463365],[84.32522,24.470445],[84.3246,24.502949],[84.314058,24.522896],[84.305376,24.530803],[84.293284,24.533981],[84.285843,24.531578],[84.275714,24.520312],[84.26879,24.517651],[84.262072,24.519072],[84.254527,24.524136],[84.246879,24.526875],[84.240057,24.525403],[84.233856,24.521992],[84.224968,24.52039],[84.212152,24.522586],[84.202954,24.52132],[84.197373,24.518142],[84.196132,24.510365],[84.197993,24.490288],[84.196339,24.481917],[84.190241,24.476594],[84.181973,24.475741],[84.174118,24.47954],[84.170191,24.488557],[84.170501,24.497756],[84.169157,24.505507],[84.164817,24.510287],[84.156858,24.510985],[84.152104,24.507755],[84.150347,24.501657],[84.150244,24.493673],[84.149004,24.484862],[84.145386,24.476646],[84.139392,24.471168],[84.130503,24.469773],[84.119651,24.474165],[84.107042,24.484552],[84.09557,24.504138],[84.075726,24.562144],[84.043894,24.623898],[84.029631,24.634853],[84.021673,24.639039],[84.015368,24.636714],[84.011648,24.632812],[83.997798,24.599765],[83.995318,24.595424],[83.992424,24.591419],[83.988703,24.587905],[83.979091,24.582014],[83.965862,24.57602],[83.953873,24.558889],[83.938267,24.548683],[83.918423,24.543799],[83.879769,24.541345],[83.860546,24.53628],[83.849797,24.535066],[83.840599,24.536229],[83.819411,24.541319],[83.808869,24.542507],[83.787889,24.537314],[83.767735,24.513775],[83.750165,24.508375],[83.695905,24.506282],[83.6372,24.517212],[83.538705,24.531268],[83.523099,24.529666],[83.525166,24.558501],[83.520205,24.592634],[83.522375,24.61594],[83.525372,24.62891],[83.523305,24.638367],[83.512453,24.660407],[83.510903,24.667435],[83.512247,24.675419],[83.530953,24.703583],[83.531884,24.713815],[83.529817,24.726321],[83.523615,24.746345],[83.517828,24.755414],[83.508836,24.762081],[83.471836,24.770349],[83.45778,24.775904],[83.444447,24.783423],[83.432561,24.792492],[83.423983,24.802362],[83.404139,24.831715],[83.398248,24.837141],[83.391737,24.840758],[83.381919,24.843626],[83.360214,24.863263],[83.35484,24.875045],[83.352773,24.888016],[83.355564,24.897163],[83.359284,24.903364],[83.363315,24.914939],[83.365692,24.931295],[83.366622,24.968657],[83.364245,24.998397],[83.363522,25.000774],[83.359904,25.008965],[83.33758,25.03855],[83.326521,25.058419],[83.323317,25.068005],[83.323007,25.079012],[83.325488,25.089683],[83.329829,25.145778],[83.334273,25.172624],[83.337684,25.183295],[83.341404,25.191615],[83.345952,25.198979],[83.357321,25.212828],[83.371997,25.226833],[83.384089,25.235928],[83.416128,25.254376],[83.469975,25.27701],[83.483618,25.284193],[83.515554,25.306802],[83.531987,25.315742],[83.670066,25.388476],[83.774866,25.444959],[83.801324,25.464131],[83.805872,25.476042],[83.81135,25.486042],[83.817654,25.490227],[83.854861,25.501984],[83.886901,25.517022],[83.904264,25.529476],[83.908398,25.538131],[83.918113,25.549268],[83.981882,25.589317],[84.003379,25.60823],[84.058156,25.67373],[84.143422,25.736207],[84.179803,25.745948],[84.212876,25.728042],[84.215046,25.721479],[84.215253,25.708638],[84.214116,25.699284],[84.213186,25.694582],[84.212876,25.68913],[84.213392,25.68311],[84.214736,25.676857],[84.216803,25.670966],[84.219387,25.665643],[84.222384,25.660837],[84.226105,25.65691],[84.229929,25.653499],[84.238921,25.64797],[84.243881,25.645722],[84.250496,25.643422],[84.258971,25.641717],[84.276024,25.641484],[84.289977,25.643732],[84.309407,25.649701],[84.318296,25.654352],[84.324187,25.658899],[84.32646,25.663318],[84.328011,25.668279],[84.328217,25.674066],[84.327597,25.680164],[84.32646,25.68621],[84.324807,25.692076],[84.312714,25.719722],[84.314678,25.74215],[84.32615,25.748506],[84.33969,25.752666],[84.355916,25.760547],[84.372762,25.765068],[84.387645,25.759384],[84.419168,25.730704],[84.438081,25.718689],[84.464023,25.711919],[84.479733,25.703444],[84.486657,25.700731],[84.49875,25.699052],[84.524174,25.700215],[84.535853,25.703134],[84.542158,25.705382],[84.585669,25.735044],[84.592181,25.738352],[84.600656,25.747008],[84.599312,25.761193],[84.610474,25.773879],[84.612438,25.78685],[84.610577,25.791578],[84.605513,25.799795],[84.531616,25.862091],[84.519524,25.866871],[84.50247,25.867672],[84.470121,25.865812],[84.456582,25.869972],[84.419685,25.889557],[84.41214,25.895939],[84.407489,25.909142],[84.396534,25.923689],[84.383925,25.935446],[84.374313,25.940303],[84.344961,25.940458],[84.332972,25.938572],[84.298348,25.928624],[84.279952,25.927074],[84.261451,25.931312],[84.243571,25.943714],[84.230446,25.956762],[84.225588,25.963583],[84.219697,25.974436],[84.210705,26.006992],[84.206054,26.015415],[84.196442,26.019704],[84.185177,26.020247],[84.175875,26.022753],[84.168641,26.042442],[84.160476,26.055025],[84.150347,26.066006],[84.140942,26.070657],[84.129677,26.073473],[84.107972,26.086832],[84.09619,26.091121],[84.087715,26.091741],[84.073659,26.100242],[84.064874,26.103549],[84.038313,26.161969],[84.022293,26.18388],[83.998005,26.199667],[83.988083,26.208556],[83.984466,26.217625],[83.985086,26.227443],[83.988497,26.235014],[83.992734,26.241138],[83.997695,26.245453],[84.001519,26.247985],[84.00772,26.25093],[84.02312,26.254909],[84.080377,26.25925],[84.089886,26.261705],[84.096087,26.26509],[84.107972,26.274546],[84.11376,26.278164],[84.120581,26.280282],[84.127403,26.280515],[84.137531,26.278965],[84.146006,26.276717],[84.166987,26.274521],[84.18559,26.284856],[84.186831,26.287879],[84.187244,26.292788],[84.171328,26.312787],[84.163266,26.328497],[84.161716,26.337928],[84.162956,26.345937],[84.179079,26.368158],[84.185901,26.383041],[84.186211,26.394617],[84.184144,26.400818],[84.177632,26.40428],[84.103528,26.41862],[84.086165,26.426062],[84.067355,26.436578],[84.04007,26.459677],[84.026117,26.46916],[84.015988,26.473449],[84.010717,26.471925],[84.006377,26.468669],[84.002139,26.464173],[83.997798,26.460995],[83.990667,26.4573],[83.980745,26.454432],[83.969066,26.45314],[83.955114,26.453915],[83.941471,26.456964],[83.926278,26.464638],[83.920077,26.473992],[83.918423,26.484559],[83.919664,26.500166],[83.919974,26.501173],[83.920077,26.53267],[83.922144,26.540034],[83.925865,26.546364],[83.932789,26.550318],[83.939197,26.551248],[83.944158,26.549672],[83.947879,26.546184],[83.950669,26.541378],[83.95253,26.53497],[83.95408,26.527477],[83.95625,26.520759],[83.959454,26.517116],[83.963485,26.515927],[83.967723,26.51771],[83.971443,26.520914],[83.983536,26.538923],[83.987463,26.543703],[83.990564,26.545951],[83.994388,26.54776],[84.034799,26.555925],[84.045444,26.559671],[84.054022,26.564761],[84.060223,26.571815],[84.066528,26.581789],[84.071386,26.591685],[84.080377,26.624422],[84.086165,26.637573],[84.092366,26.644989],[84.099187,26.649588],[84.106422,26.650983],[84.137841,26.650441],[84.154585,26.653981],[84.16492,26.653748],[84.191792,26.6461],[84.229515,26.640596],[84.382994,26.641656],[84.39364,26.649201],[84.39395,26.65442],[84.39271,26.661732],[84.388369,26.669354],[84.381444,26.677442],[84.306307,26.744363],[84.293698,26.75214],[84.283362,26.755576],[84.274681,26.755887],[84.256697,26.754181],[84.246362,26.757049],[84.241918,26.763483],[84.240161,26.772216],[84.247189,26.821619],[84.247602,26.836321],[84.246362,26.853452],[84.240781,26.8742],[84.23396,26.884923],[84.226105,26.891511],[84.216803,26.894586],[84.207915,26.89593],[84.197683,26.895775],[84.187761,26.893966],[84.178769,26.890374],[84.171948,26.886163],[84.16492,26.880504],[84.158719,26.876525],[84.149004,26.876344],[84.122442,26.893578],[84.11066,26.905283],[84.098567,26.911226],[84.086578,26.915179],[84.070559,26.923602],[84.059707,26.93895],[84.027151,26.999618],[84.027047,27.002306],[84.028908,27.030573],[84.027977,27.044344],[84.02343,27.059951],[84.015782,27.069562],[83.998315,27.082068],[83.992217,27.091189],[83.979712,27.119844],[83.97196,27.128034],[83.948189,27.144054],[83.941368,27.154028],[83.938267,27.164389],[83.938991,27.189529],[83.942401,27.20604],[83.942401,27.222499],[83.929585,27.242368],[83.924108,27.248337],[83.912739,27.256786],[83.904264,27.261721],[83.890725,27.27309],[83.885764,27.280144],[83.88411,27.286552],[83.892172,27.313734],[83.892792,27.323966],[83.890105,27.328126],[83.883283,27.330063],[83.849177,27.326653],[83.84804,27.329004],[83.848867,27.332699],[83.851141,27.337815],[83.853311,27.346083],[83.85334,27.346194],[83.854602,27.34505],[83.861733,27.354507],[83.867521,27.358383],[83.877391,27.361742],[83.87765,27.369907],[83.873671,27.380087],[83.87119,27.38944],[83.842717,27.418069],[83.834087,27.434037],[83.853517,27.440962],[83.899871,27.443856],[83.922043,27.449696],[83.923022,27.449954],[83.935941,27.446078],[83.975835,27.439722],[84.007668,27.440807],[84.028907,27.453726],[84.079601,27.509536],[84.099548,27.516874],[84.11717,27.513283],[84.121563,27.494964],[84.130968,27.486411],[84.141716,27.480753],[84.165746,27.472174],[84.175099,27.462976],[84.185848,27.438636],[84.195253,27.436053],[84.225536,27.440393],[84.239023,27.431143],[84.248893,27.412436],[84.267703,27.388562],[84.289408,27.376108],[84.577039,27.329031],[84.606546,27.310479],[84.631919,27.277044],[84.648197,27.240716],[84.657654,27.203405],[84.659824,27.165113],[84.654398,27.125374],[84.644528,27.103721],[84.630369,27.080829],[84.62148,27.057988],[84.627268,27.03649],[84.640239,27.028377],[84.760697,26.999025],[84.771962,26.99918],[84.785501,27.008482],[84.801934,27.013753],[84.817489,27.0106],[84.828134,26.994943],[84.828289,26.994839],[84.851751,26.982127],[84.901567,26.967192],[84.924046,26.955668],[84.938567,26.9366],[84.944251,26.915723],[84.952726,26.897636],[84.975774,26.886887],[84.988176,26.883787],[85.000837,26.882236],[85.018045,26.874433],[85.016857,26.85924],[85.018562,26.845804],[85.043987,26.843737],[85.100211,26.863529],[85.122845,26.8657],[85.162016,26.851024],[85.16553,26.820793],[85.165685,26.786273],[85.194934,26.758885],[85.28728,26.736974],[85.302369,26.737336],[85.337044,26.746792],[85.353219,26.757593],[85.355352,26.759912],[85.369238,26.775008],[85.385878,26.788444],[85.40319,26.787617],[85.421535,26.782656],[85.439622,26.78772],[85.475692,26.805238],[85.519462,26.826426],[85.598578,26.854383],[85.609379,26.851024],[85.687772,26.811853],[85.701828,26.796608],[85.709631,26.76245],[85.702241,26.68845],[85.712887,26.653206],[85.727046,26.6376],[85.780996,26.599204],[85.789988,26.597034],[85.800065,26.600703],[85.809728,26.603028],[85.817635,26.596724],[85.819547,26.588301],[85.819753,26.579516],[85.821614,26.571713],[85.828538,26.566131],[85.844765,26.568509],[85.866366,26.579929],[85.934682,26.632897],[85.952148,26.642044],[85.975713,26.64437],[86.01137,26.654447],[86.041704,26.645455],[86.110692,26.606749],[86.115859,26.602563],[86.122061,26.60029],[86.144798,26.60153],[86.146355,26.601356],[86.152653,26.600651],[86.167794,26.596621],[86.17446,26.593313],[86.179266,26.588611],[86.185364,26.584425],[86.195855,26.582668],[86.202883,26.58458],[86.225155,26.597396],[86.263086,26.609075],[86.284428,26.61202],[86.301378,26.609023],[86.308613,26.60215],[86.309026,26.587991],[86.316002,26.580963],[86.323185,26.580084],[86.344838,26.582616],[86.353674,26.582616],[86.383647,26.572849],[86.444832,26.543084],[86.475476,26.531973],[86.494906,26.527839],[86.510616,26.520139],[86.52431,26.509081],[86.537746,26.49487],[86.537953,26.49487],[86.5579,26.484018],[86.625337,26.456319],[86.695204,26.418234],[86.713601,26.414565],[86.724091,26.421954],[86.730706,26.433788],[86.738199,26.44371],[86.751893,26.445519],[86.78724,26.433065],[86.796438,26.431514],[86.821863,26.438129],[86.846357,26.45265],[86.865684,26.472442],[86.875968,26.494921],[86.907129,26.51151],[86.935153,26.520289],[86.972448,26.531973],[86.985212,26.540655],[87.015443,26.568974],[87.029912,26.579774],[87.041333,26.580187],[87.044433,26.561171],[87.045002,26.544272],[87.056474,26.494921],[87.056681,26.49487],[87.066706,26.465621],[87.083294,26.432083],[87.10629,26.404746],[87.135022,26.394204],[87.188455,26.399578],[87.2191,26.408105],[87.229435,26.398752],[87.236308,26.3833],[87.2453,26.370226],[87.258425,26.36294],[87.30049,26.34599],[87.314029,26.343768],[87.326225,26.353328],[87.344932,26.389346],[87.356404,26.403712],[87.384206,26.418647],[87.416452,26.426967],[87.449628,26.428621],[87.480324,26.423401],[87.552051,26.386711],[87.586984,26.378029],[87.623984,26.392912],[87.648745,26.409993]]]}}]}
