{"type":"FeatureCollection","features":[{"type":"Feature","properties":{"id":"IN-KL","country":"IN","name_en":"Kerala"},"geometry":{"type":"Polygon","coordinates":[[[75.222179,12.02204],[75.216482,12.021064],[75.210623,12.016995],[75.207042,12.01203],[75.208507,12.008368],[75.193696,12.022284],[75.18629,12.041571],[75.180512,12.077297],[75.143809,12.161322],[75.13087,12.207831],[75.139659,12.241767],[75.139659,12.248603],[75.12672,12.245836],[75.11964,12.239],[75.113943,12.23017],[75.105479,12.221259],[75.10613,12.23371],[75.104747,12.24608],[75.098643,12.269029],[75.082856,12.305894],[75.018403,12.41474],[75.010997,12.435777],[75.009939,12.443793],[75.006602,12.449449],[74.99936,12.454901],[74.992035,12.461737],[74.98878,12.471381],[74.985362,12.49136],[74.976736,12.507025],[74.955251,12.537258],[74.879649,12.725491],[74.870128,12.742865],[74.855724,12.759426],[74.854259,12.765286],[74.897889,12.778755],[74.920109,12.779944],[74.933545,12.778083],[74.940677,12.77612],[74.945224,12.773872],[74.947395,12.770978],[74.949462,12.766224],[74.950495,12.761599],[74.952872,12.74483],[74.955146,12.73806],[74.958453,12.732117],[74.964655,12.725787],[74.969305,12.723203],[74.974887,12.721834],[74.9938,12.720102],[74.998968,12.718862],[75.003102,12.716795],[75.003929,12.714599],[75.003929,12.711628],[75.001552,12.704496],[75.001448,12.700905],[75.002998,12.696435],[75.007959,12.690724],[75.014884,12.68752],[75.020775,12.685841],[75.024806,12.686487],[75.028733,12.688761],[75.040309,12.698088],[75.04806,12.702455],[75.061186,12.702636],[75.072142,12.698993],[75.094776,12.686254],[75.100254,12.68212],[75.102114,12.678865],[75.101287,12.674782],[75.098497,12.667341],[75.097153,12.66039],[75.096946,12.653492],[75.098703,12.646696],[75.102424,12.639358],[75.110485,12.630005],[75.117513,12.627137],[75.124438,12.627912],[75.131569,12.631555],[75.139838,12.634242],[75.148933,12.63357],[75.155031,12.629074],[75.1695,12.606518],[75.176425,12.599748],[75.182832,12.597268],[75.189757,12.596854],[75.196268,12.598404],[75.20247,12.601298],[75.206707,12.604916],[75.212701,12.611737],[75.22531,12.61259],[75.270889,12.60073],[75.264585,12.57869],[75.250632,12.56236],[75.247015,12.551121],[75.247635,12.542956],[75.251355,12.536909],[75.264585,12.524352],[75.270889,12.513164],[75.275747,12.506265],[75.279674,12.502028],[75.282568,12.500607],[75.284015,12.50009],[75.286185,12.499522],[75.29311,12.494328],[75.304169,12.476861],[75.307063,12.473167],[75.309543,12.470893],[75.312024,12.469498],[75.314091,12.469368],[75.320085,12.47035],[75.348507,12.478076],[75.355328,12.478179],[75.36432,12.476371],[75.366801,12.473787],[75.368248,12.47035],[75.368558,12.467095],[75.367937,12.462521],[75.366077,12.456734],[75.36246,12.450687],[75.358119,12.445985],[75.343546,12.435133],[75.340652,12.428673],[75.339205,12.420534],[75.339722,12.404618],[75.341582,12.396944],[75.345407,12.390355],[75.357809,12.377901],[75.368661,12.361106],[75.375172,12.343407],[75.38158,12.313848],[75.385714,12.301601],[75.389331,12.294728],[75.393569,12.292971],[75.39822,12.292196],[75.403594,12.292041],[75.413516,12.293126],[75.419407,12.293203],[75.426228,12.291782],[75.441628,12.278036],[75.536609,12.168947],[75.552732,12.154891],[75.582395,12.147269],[75.59335,12.142903],[75.606062,12.135048],[75.612884,12.12771],[75.618568,12.119028],[75.624253,12.107866],[75.629213,12.102052],[75.634484,12.099184],[75.639755,12.099236],[75.654018,12.103008],[75.662907,12.102285],[75.671485,12.098435],[75.693912,12.081976],[75.701664,12.077454],[75.709622,12.074819],[75.716443,12.074121],[75.722024,12.074354],[75.730706,12.075982],[75.736287,12.076059],[75.744555,12.07531],[75.756027,12.071951],[75.761092,12.068747],[75.765019,12.059058],[75.768843,12.027354],[75.776181,12.009784],[75.782692,12.000224],[75.797472,11.983326],[75.815249,11.967203],[75.830648,11.957746],[75.846048,11.951105],[75.863514,11.946274],[75.882635,11.942915],[75.904959,11.942553],[75.960563,11.928626],[75.98299,11.930874],[76.020714,11.951674],[76.055751,11.96374],[76.072391,11.963249],[76.080349,11.958986],[76.083553,11.950046],[76.084173,11.926688],[76.080142,11.889766],[76.081899,11.878991],[76.086343,11.871136],[76.098746,11.860439],[76.107014,11.857494],[76.115489,11.857494],[76.122413,11.861447],[76.129855,11.86478],[76.13895,11.867183],[76.15497,11.866563],[76.167062,11.86261],[76.17657,11.857029],[76.184942,11.848554],[76.190316,11.84119],[76.200135,11.822586],[76.204786,11.815739],[76.212227,11.807264],[76.218842,11.80437],[76.224319,11.804319],[76.234241,11.809073],[76.240649,11.810442],[76.250674,11.810132],[76.258736,11.806076],[76.265764,11.799538],[76.288088,11.768507],[76.30111,11.755381],[76.309172,11.749722],[76.316613,11.746854],[76.335217,11.743211],[76.342865,11.742384],[76.350203,11.743315],[76.363846,11.748766],[76.37108,11.75042],[76.382139,11.74918],[76.38927,11.744012],[76.394231,11.735589],[76.396402,11.725745],[76.397332,11.705203],[76.400949,11.686341],[76.415936,11.666833],[76.419346,11.659599],[76.419036,11.656808],[76.417796,11.652157],[76.415315,11.648747],[76.410665,11.646137],[76.4025,11.643191],[76.386273,11.639703],[76.374181,11.63159],[76.365809,11.622056],[76.360435,11.611979],[76.351443,11.600378],[76.339248,11.591489],[76.31558,11.586916],[76.299457,11.587536],[76.277236,11.595339],[76.266074,11.600843],[76.240752,11.603969],[76.234138,11.594357],[76.231761,11.585676],[76.232277,11.576968],[76.237342,11.560328],[76.236618,11.552654],[76.231141,11.53666],[76.23052,11.529142],[76.233001,11.522191],[76.237032,11.515189],[76.239202,11.510331],[76.240752,11.504518],[76.241579,11.50028],[76.241579,11.498782],[76.242509,11.495242],[76.246954,11.487103],[76.256255,11.478447],[76.3008,11.470334],[76.409114,11.436822],[76.418933,11.431628],[76.439397,11.412611],[76.448182,11.406333],[76.461411,11.401294],[76.47278,11.39809],[76.485182,11.392509],[76.495414,11.384758],[76.516705,11.352098],[76.542749,11.337965],[76.533758,11.313134],[76.47371,11.270708],[76.464821,11.262259],[76.444151,11.234095],[76.440327,11.223372],[76.44105,11.21407],[76.448388,11.206861],[76.456657,11.204691],[76.466268,11.205234],[76.490453,11.213915],[76.495827,11.215078],[76.500995,11.214845],[76.506886,11.213373],[76.531071,11.202753],[76.540682,11.200428],[76.550294,11.200324],[76.573445,11.205156],[76.641245,11.208644],[76.655714,11.211822],[76.662639,11.215543],[76.691061,11.236343],[76.698399,11.240064],[76.70274,11.238048],[76.703773,11.230762],[76.701293,11.212598],[76.696332,11.200479],[76.689821,11.189162],[76.68765,11.181411],[76.68858,11.173814],[76.695608,11.162316],[76.70212,11.155883],[76.710284,11.149992],[76.719173,11.138726],[76.726304,11.12175],[76.737156,11.086895],[76.745528,11.070617],[76.754106,11.060281],[76.761341,11.056793],[76.766508,11.05222],[76.767542,11.046096],[76.762581,11.036562],[76.755656,11.031498],[76.746458,11.02894],[76.737673,11.030257],[76.717933,11.03912],[76.708734,11.0416],[76.700259,11.04129],[76.692921,11.038267],[76.68765,11.033461],[76.682586,11.025761],[76.678452,11.017235],[76.674421,11.002869],[76.672457,10.989304],[76.673387,10.974938],[76.677522,10.956257],[76.690441,10.933364],[76.703773,10.921892],[76.719586,10.914037],[76.768989,10.899309],[76.819838,10.875951],[76.828727,10.869595],[76.834411,10.861275],[76.838959,10.850733],[76.84392,10.834895],[76.84795,10.825438],[76.854358,10.814896],[76.862523,10.807894],[76.870585,10.80363],[76.878026,10.801072],[76.883607,10.797352],[76.886915,10.791771],[76.889705,10.78004],[76.889498,10.769576],[76.887328,10.758956],[76.881333,10.742885],[76.878853,10.730405],[76.878543,10.693069],[76.875546,10.678496],[76.863763,10.663587],[76.851568,10.657463],[76.839269,10.654285],[76.829347,10.652968],[76.822836,10.645836],[76.821079,10.633176],[76.82666,10.551553],[76.822939,10.499334],[76.822009,10.495768],[76.821389,10.490962],[76.811674,10.468922],[76.808573,10.437115],[76.810123,10.425255],[76.812914,10.415256],[76.817565,10.405076],[76.831827,10.384741],[76.838132,10.372881],[76.840509,10.360531],[76.837719,10.333762],[76.838132,10.321127],[76.841543,10.310663],[76.848881,10.303118],[76.869241,10.290406],[76.880817,10.281492],[76.892909,10.270226],[76.912959,10.247256],[76.921848,10.239039],[76.928049,10.235551],[76.936731,10.233458],[76.942002,10.231598],[76.956988,10.223459],[76.969804,10.224699],[76.98634,10.231288],[77.020343,10.255033],[77.064578,10.296297],[77.07481,10.303273],[77.087522,10.3095],[77.131757,10.325158],[77.167931,10.344718],[77.191495,10.351306],[77.207825,10.338517],[77.211649,10.333711],[77.234904,10.293739],[77.241622,10.284437],[77.247099,10.26511],[77.24865,10.24462],[77.254541,10.230668],[77.260535,10.222193],[77.272937,10.214209],[77.276968,10.210101],[77.279139,10.202892],[77.279035,10.191807],[77.274798,10.173565],[77.227772,10.075949],[77.224362,10.065562],[77.224258,10.05781],[77.239554,10.025306],[77.260225,9.962209],[77.260225,9.952364],[77.256711,9.936526],[77.229323,9.883402],[77.226842,9.871827],[77.225912,9.858882],[77.23139,9.818677],[77.237694,9.796637],[77.237591,9.778809],[77.23542,9.764676],[77.187671,9.612773],[77.186534,9.603781],[77.186845,9.596779],[77.189635,9.591275],[77.192736,9.588097],[77.197593,9.585772],[77.204208,9.583369],[77.212476,9.581276],[77.219297,9.578795],[77.225188,9.575824],[77.229529,9.572181],[77.238521,9.562957],[77.243999,9.558306],[77.254541,9.557221],[77.263222,9.557376],[77.308698,9.578718],[77.316139,9.580268],[77.333916,9.580811],[77.340634,9.579958],[77.347248,9.575772],[77.352519,9.568693],[77.360374,9.549779],[77.367609,9.536498],[77.398615,9.499963],[77.404506,9.486372],[77.403782,9.461077],[77.375877,9.43728],[77.369779,9.429037],[77.363475,9.41617],[77.338877,9.344004],[77.312108,9.30088],[77.254541,9.122105],[77.229943,9.06415],[77.210099,9.035211],[77.173512,9.009915],[77.166691,9.003947],[77.164934,9.001001],[77.168034,8.984232],[77.191392,8.921161],[77.202554,8.89416],[77.21754,8.881293],[77.235834,8.87119],[77.243999,8.864756],[77.24927,8.859098],[77.252164,8.854447],[77.253404,8.850726],[77.25268,8.839926],[77.23542,8.784141],[77.192116,8.718512],[77.180747,8.703681],[77.178886,8.695232],[77.180643,8.682597],[77.183744,8.673889],[77.185294,8.66575],[77.185914,8.649059],[77.187671,8.63937],[77.191185,8.629835],[77.196043,8.62105],[77.203794,8.611981],[77.250923,8.575291],[77.269113,8.555499],[77.274798,8.54674],[77.278519,8.536508],[77.278829,8.526405],[77.272627,8.510566],[77.262912,8.495916],[77.244102,8.476511],[77.232733,8.469458],[77.224672,8.467597],[77.219401,8.471318],[77.212476,8.478217],[77.210099,8.479999],[77.207929,8.480645],[77.206068,8.478914],[77.205035,8.474729],[77.204725,8.465349],[77.205965,8.456203],[77.21413,8.427574],[77.215887,8.418789],[77.212166,8.407782],[77.203484,8.393571],[77.181987,8.368353],[77.170825,8.348044],[77.166071,8.336933],[77.165864,8.331507],[77.167311,8.32081],[77.167104,8.314351],[77.165554,8.307452],[77.16235,8.301716],[77.154702,8.295902],[77.14602,8.293112],[77.12721,8.295127],[77.121319,8.294584],[77.118528,8.293499],[77.110331,8.285174],[76.99586,8.368109],[76.962576,8.40469],[76.880138,8.520697],[76.826508,8.56981],[76.813731,8.601264],[76.74171,8.684516],[76.731293,8.707953],[76.695649,8.739814],[76.66033,8.79975],[76.644542,8.818996],[76.558604,8.890692],[76.543956,8.912502],[76.548106,8.924221],[76.559093,8.925238],[76.573253,8.904446],[76.591156,8.908149],[76.609874,8.917955],[76.620616,8.925442],[76.60727,8.925767],[76.593761,8.921047],[76.581554,8.919908],[76.572276,8.931627],[76.573985,8.942572],[76.582286,8.956366],[76.593272,8.968207],[76.603282,8.973212],[76.657563,8.966376],[76.660818,8.969875],[76.65211,8.977281],[76.640391,8.984442],[76.634288,8.986884],[76.641938,8.99136],[76.656505,8.995063],[76.668468,8.999823],[76.668468,9.007392],[76.657888,9.010688],[76.644054,9.00788],[76.632091,9.002346],[76.62672,8.997463],[76.620616,8.987128],[76.606456,8.989407],[76.582774,9.000556],[76.576834,8.994127],[76.565929,8.963284],[76.558604,8.952094],[76.551117,8.966376],[76.558116,8.973049],[76.561534,8.97899],[76.56544,8.99433],[76.549653,8.984442],[76.538829,8.972602],[76.534434,8.957831],[76.538097,8.939114],[76.528087,8.946967],[76.521495,8.96133],[76.517914,8.977444],[76.516856,8.990627],[76.513845,9.002143],[76.500173,9.022284],[76.489268,9.055569],[76.46046,9.114936],[76.462413,9.138332],[76.464529,9.132514],[76.466645,9.128974],[76.468272,9.124579],[76.469086,9.116604],[76.476573,9.116604],[76.476248,9.131252],[76.482758,9.17182],[76.473318,9.164252],[76.470958,9.160142],[76.469086,9.151353],[76.462413,9.151353],[76.44337,9.212144],[76.428233,9.245347],[76.414561,9.246975],[76.416026,9.236314],[76.446788,9.159613],[76.448741,9.145168],[76.442556,9.145168],[76.362966,9.325181],[76.311778,9.492987],[76.291026,9.633205],[76.29713,9.658433],[76.277354,9.809272],[76.253184,9.883734],[76.246755,9.893744],[76.240245,9.939399],[76.236339,9.952704],[76.251475,9.963121],[76.269542,9.950995],[76.284679,9.928534],[76.291026,9.908596],[76.285655,9.904364],[76.262218,9.911566],[76.256847,9.908596],[76.25766,9.895819],[76.26059,9.884711],[76.266856,9.876044],[76.277354,9.870754],[76.278575,9.876899],[76.28419,9.891181],[76.289073,9.877143],[76.288259,9.861233],[76.284434,9.848212],[76.280772,9.842841],[76.289806,9.843817],[76.299978,9.847805],[76.304698,9.856269],[76.29713,9.870754],[76.308604,9.879625],[76.313813,9.861314],[76.338878,9.699408],[76.346202,9.699408],[76.347341,9.726874],[76.337576,9.789252],[76.346202,9.816107],[76.323985,9.846177],[76.320079,9.86164],[76.332693,9.870754],[76.337413,9.856187],[76.353038,9.82982],[76.359223,9.816107],[76.361095,9.80386],[76.358653,9.781806],[76.359223,9.768297],[76.368012,9.715562],[76.377126,9.695502],[76.394054,9.678941],[76.392426,9.662828],[76.386567,9.649848],[76.379161,9.637763],[76.372895,9.624335],[76.353282,9.535346],[76.357432,9.520697],[76.37672,9.514472],[76.425792,9.505276],[76.435069,9.507636],[76.458995,9.497301],[76.477061,9.50373],[76.503266,9.53498],[76.484386,9.543769],[76.466563,9.556383],[76.448497,9.563422],[76.428233,9.555406],[76.417247,9.561428],[76.406993,9.569078],[76.419688,9.594184],[76.419607,9.614488],[76.41505,9.636176],[76.414561,9.682685],[76.410004,9.700263],[76.402599,9.710598],[76.394054,9.706244],[76.3921,9.716946],[76.394786,9.735175],[76.394054,9.747219],[76.390798,9.756985],[76.382091,9.774726],[76.380382,9.785102],[76.384044,9.802639],[76.391287,9.812201],[76.396495,9.822659],[76.394054,9.842841],[76.38559,9.861518],[76.36378,9.899237],[76.359223,9.915432],[76.320811,9.953315],[76.311534,9.966946],[76.294281,9.951321],[76.278168,9.977932],[76.269298,10.016262],[76.273936,10.035834],[76.255056,10.047675],[76.245128,10.1022],[76.236339,10.103461],[76.227712,10.109565],[76.222911,10.117621],[76.215343,10.138251],[76.20753,10.117133],[76.213552,10.098822],[76.223481,10.082099],[76.229015,10.065904],[76.230968,10.025824],[76.235037,10.005072],[76.242686,9.987454],[76.228201,9.999945],[76.21461,10.024482],[76.182384,10.105658],[76.181163,10.121161],[76.184906,10.13581],[76.184581,10.144924],[76.177745,10.155341],[76.177501,10.17064],[76.224132,10.196926],[76.236339,10.210273],[76.237315,10.216986],[76.24171,10.223944],[76.242686,10.231024],[76.240245,10.238959],[76.234386,10.237942],[76.227794,10.23428],[76.22283,10.234442],[76.21339,10.253241],[76.206309,10.262885],[76.194835,10.268622],[76.207856,10.234565],[76.209483,10.21601],[76.201671,10.199693],[76.184093,10.189358],[76.170584,10.193752],[76.160492,10.206244],[76.153168,10.22016],[76.138194,10.261054],[76.120616,10.343573],[76.10613,10.38467],[76.070079,10.432807],[76.065115,10.449856],[76.063324,10.47016],[76.052419,10.513983],[76.044607,10.529283],[76.018728,10.553412],[76.008067,10.567084],[75.999685,10.605536],[75.939138,10.72606],[75.934744,10.74433],[75.93214,10.750963],[75.926931,10.757717],[75.922048,10.76557],[75.921072,10.775702],[75.924083,10.780707],[75.936534,10.790717],[75.94158,10.79621],[75.911143,10.809231],[75.894542,10.849758],[75.880138,10.932685],[75.832774,11.097846],[75.742931,11.310126],[75.737804,11.319485],[75.733653,11.325181],[75.730805,11.331732],[75.729259,11.343655],[75.739513,11.350735],[75.742442,11.35871],[75.735525,11.371527],[75.722179,11.367499],[75.711192,11.381781],[75.69516,11.419989],[75.677094,11.4501],[75.664806,11.462633],[75.650157,11.46776],[75.630138,11.468736],[75.616547,11.473619],[75.608897,11.484931],[75.606293,11.505316],[75.600841,11.523383],[75.581879,11.549791],[75.585297,11.563381],[75.530772,11.693671],[75.506114,11.72724],[75.379731,11.864976],[75.372569,11.864732],[75.355805,11.857652],[75.35255,11.861558],[75.349376,11.871975],[75.324555,11.899115],[75.307628,11.932196],[75.326508,11.935858],[75.400238,11.920233],[75.400238,11.926459],[75.386567,11.935126],[75.382823,11.945502],[75.385997,11.958319],[75.393403,11.97484],[75.380219,11.968695],[75.361339,11.951239],[75.349132,11.947577],[75.331716,11.94953],[75.316091,11.955634],[75.302257,11.966051],[75.290375,11.981106],[75.278819,12.003241],[75.281098,12.010647],[75.314708,12.008368],[75.329763,12.012641],[75.324962,12.02265],[75.305593,12.041775],[75.30421,12.043158],[75.305719,12.057636],[75.301688,12.069755],[75.309543,12.093707],[75.323909,12.10691],[75.330524,12.103138],[75.337965,12.098383],[75.3483,12.104249],[75.357912,12.112853],[75.371762,12.120475],[75.382304,12.129079],[75.396876,12.128769],[75.396876,12.142928],[75.381477,12.147579],[75.369901,12.141301],[75.354192,12.135203],[75.338585,12.140551],[75.322462,12.143393],[75.309853,12.131999],[75.302618,12.123033],[75.288356,12.115488],[75.281845,12.10908],[75.27616,12.100967],[75.258073,12.10461],[75.240503,12.10921],[75.222933,12.100166],[75.221797,12.038645],[75.222179,12.02204]]]}},{"type":"Feature","properties":{"id":"IN-LD","country":"IN","name_en":"Lakshadweep"},"geometry":{"type":"MultiPolygon","coordinates":[[[[73.646332,10.084703],[73.644054,10.076972],[73.640961,10.069322],[73.637055,10.062567],[73.632579,10.057278],[73.631684,10.067816],[73.633311,10.077867],[73.637462,10.087063],[73.643891,10.09455],[73.643972,10.094468],[73.645193,10.09219],[73.646332,10.084703]]],[[[73.662283,10.144599],[73.662201,10.144517],[73.66033,10.142524],[73.659353,10.13996],[73.657888,10.139065],[73.654633,10.141506],[73.65561,10.144761],[73.657481,10.145087],[73.659679,10.144355],[73.662283,10.144599]]],[[[72.64975,10.566881],[72.63852,10.559394],[72.633067,10.556545],[72.627533,10.554796],[72.627452,10.554755],[72.632091,10.560004],[72.648611,10.573961],[72.648692,10.57392],[72.650564,10.572577],[72.650401,10.571194],[72.649587,10.569322],[72.64975,10.566881]]],[[[72.548839,10.779446],[72.548757,10.779324],[72.541189,10.772895],[72.540863,10.776516],[72.542491,10.777899],[72.545421,10.778306],[72.548839,10.779446]]],[[[73.671397,10.829739],[73.681244,10.82807],[73.684418,10.827541],[73.67628,10.824368],[73.672862,10.824693],[73.671886,10.827094],[73.671397,10.829657],[73.671397,10.829739]]],[[[72.750011,11.119086],[72.747569,11.115424],[72.746755,11.111965],[72.744965,11.109524],[72.739513,11.108832],[72.739513,11.113959],[72.742035,11.115953],[72.745779,11.116889],[72.750011,11.119086]]],[[[73.013194,11.502183],[73.010916,11.490139],[73.0088,11.484687],[73.005626,11.479641],[73.004405,11.488837],[73.004405,11.496487],[73.007091,11.501288],[73.013194,11.502183]]],[[[72.716156,11.694159],[72.716075,11.694078],[72.708669,11.689154],[72.705251,11.687323],[72.701101,11.686428],[72.700938,11.686428],[72.705089,11.692328],[72.709239,11.694159],[72.716156,11.694159]]],[[[73.077159,8.315253],[73.081798,8.315823],[73.083018,8.314358],[73.083018,8.311672],[73.083995,8.308498],[73.066091,8.270453],[73.056651,8.259996],[73.044688,8.252427],[73.032725,8.249498],[73.024099,8.255439],[73.022472,8.274359],[73.029307,8.274359],[73.029307,8.274115],[73.028982,8.263414],[73.029307,8.259996],[73.04835,8.267564],[73.063162,8.279486],[73.073009,8.295396],[73.077159,8.315253]]],[[[72.172699,10.809231],[72.172618,10.829983],[72.179047,10.8487],[72.185151,10.858303],[72.189301,10.864936],[72.195649,10.872707],[72.200043,10.878079],[72.200043,10.864447],[72.188162,10.836127],[72.172699,10.809231]]],[[[72.789073,11.261664],[72.789236,11.261664],[72.795909,11.261664],[72.795584,11.257229],[72.793956,11.254299],[72.791515,11.251654],[72.789073,11.248033],[72.787934,11.232245],[72.784923,11.216376],[72.775483,11.186754],[72.775401,11.186591],[72.771169,11.201117],[72.770356,11.203681],[72.774181,11.222886],[72.789073,11.261664]]]]}}]}
