{"type":"FeatureCollection","features":[{"type":"Feature","properties":{"id":"IN-MN","country":"IN","name_en":"Manipur"},"geometry":{"type":"Polygon","coordinates":[[[94.65036,25.44665],[94.630533,25.42739],[94.608003,25.394627],[94.550125,25.245282],[94.553329,25.204147],[94.576893,25.173607],[94.612964,25.161359],[94.653271,25.154125],[94.689135,25.138518],[94.706808,25.109941],[94.713836,25.068264],[94.708565,25.02589],[94.689755,24.99509],[94.673528,24.974807],[94.654821,24.889154],[94.639112,24.862799],[94.599011,24.813474],[94.593223,24.783786],[94.593223,24.765931],[94.589502,24.74725],[94.581544,24.73012],[94.569452,24.716399],[94.555706,24.708855],[94.543407,24.70733],[94.531005,24.707485],[94.516329,24.704953],[94.507957,24.689011],[94.48708,24.620462],[94.474987,24.597389],[94.430236,24.570904],[94.418453,24.560311],[94.410805,24.545945],[94.397059,24.495069],[94.381866,24.48631],[94.370394,24.477732],[94.363676,24.46582],[94.361196,24.425409],[94.352204,24.413937],[94.340009,24.406005],[94.328743,24.394481],[94.32833,24.388487],[94.33174,24.371098],[94.330707,24.362855],[94.323679,24.354664],[94.302802,24.341022],[94.29536,24.332599],[94.289986,24.31676],[94.286885,24.283067],[94.282751,24.266427],[94.233969,24.160335],[94.222186,24.122637],[94.218466,24.08667],[94.214125,24.069178],[94.203686,24.057757],[94.199139,24.048094],[94.193868,24.009673],[94.19025,23.995281],[94.144878,23.938876],[94.13506,23.919006],[94.133613,23.899162],[94.13506,23.877303],[94.131856,23.856969],[94.128859,23.853905],[94.11687,23.841647],[94.099713,23.842628],[94.085347,23.857511],[94.071084,23.876115],[94.055065,23.887949],[93.997911,23.916965],[93.97507,23.920918],[93.94055,23.928876],[93.912334,23.939005],[93.883189,23.94531],[93.803711,23.936059],[93.782833,23.945465],[93.743042,23.995281],[93.711106,24.005461],[93.660464,24.011223],[93.612404,24.009052],[93.588013,23.995229],[93.585636,23.987297],[93.581812,23.979597],[93.576954,23.973008],[93.571063,23.968021],[93.561348,23.965696],[93.55525,23.970993],[93.549979,23.978021],[93.543468,23.980889],[93.526828,23.975385],[93.495719,23.959133],[93.474842,23.957505],[93.456652,23.95996],[93.449004,23.968926],[93.445593,23.981612],[93.439185,23.995229],[93.406526,24.025847],[93.3965,24.037526],[93.368285,24.07848],[93.348545,24.088893],[93.32219,24.080056],[93.309684,24.063984],[93.302966,24.041143],[93.302559,24.035775],[93.30214,24.035768],[93.293562,24.035639],[93.256768,24.017656],[93.248706,24.017733],[93.246433,24.022462],[93.248603,24.028766],[93.251807,24.035381],[93.253564,24.041685],[93.252427,24.049308],[93.248603,24.056982],[93.238475,24.066361],[93.232894,24.068841],[93.227312,24.067213],[93.223488,24.062485],[93.219354,24.054759],[93.213153,24.049153],[93.204058,24.044088],[93.187418,24.04029],[93.178116,24.039954],[93.172535,24.040807],[93.170262,24.043546],[93.170262,24.046362],[93.170572,24.051039],[93.168091,24.054837],[93.158893,24.060392],[93.148041,24.061994],[93.140909,24.062072],[93.135432,24.059514],[93.123856,24.048946],[93.114348,24.044088],[93.105666,24.044941],[93.098225,24.050031],[93.093264,24.056594],[93.084375,24.064113],[93.07094,24.071864],[92.995492,24.095274],[92.984123,24.100881],[92.979369,24.104782],[92.977922,24.109304],[92.980713,24.113257],[92.98588,24.117831],[92.990944,24.12168],[92.995492,24.126409],[92.997559,24.131318],[92.998283,24.137674],[92.997972,24.160179],[93.00221,24.184803],[93.007171,24.197128],[93.008514,24.203303],[93.009341,24.215034],[93.015542,24.233017],[93.017713,24.239916],[93.013372,24.261956],[93.014302,24.274462],[93.018643,24.288647],[93.026084,24.29999],[93.042724,24.315183],[93.045928,24.326526],[93.041691,24.34084],[93.02288,24.35425],[93.018643,24.367479],[93.022054,24.390165],[93.018436,24.399131],[93.011822,24.4128],[93.03673,24.414608],[93.045721,24.444529],[93.052749,24.522664],[93.064532,24.558915],[93.07373,24.567235],[93.090577,24.569818],[93.100602,24.577027],[93.095641,24.593641],[93.080035,24.62444],[93.099052,24.654387],[93.106286,24.671931],[93.097398,24.679683],[93.091197,24.682706],[93.088096,24.690276],[93.087063,24.706994],[93.090473,24.713892],[93.093057,24.716502],[93.097605,24.726811],[93.103186,24.743219],[93.111867,24.780477],[93.117655,24.797195],[93.12396,24.809804],[93.128817,24.81448],[93.135328,24.819157],[93.139773,24.821353],[93.148144,24.823886],[93.151245,24.824351],[93.153725,24.824144],[93.156412,24.8228],[93.168091,24.813705],[93.173776,24.810605],[93.181114,24.809442],[93.189175,24.810811],[93.199407,24.816522],[93.203541,24.823963],[93.205402,24.832076],[93.207159,24.847579],[93.227002,24.880161],[93.253357,24.914707],[93.251704,24.927497],[93.248293,24.931683],[93.240335,24.939744],[93.239405,24.944808],[93.241782,24.949253],[93.246433,24.95163],[93.251497,24.952715],[93.257698,24.954911],[93.26514,24.958374],[93.274338,24.967133],[93.276818,24.973437],[93.276302,24.980103],[93.260075,25.008836],[93.260385,25.029403],[93.262969,25.035992],[93.268757,25.045578],[93.274958,25.051701],[93.281366,25.056455],[93.288187,25.059013],[93.304104,25.061442],[93.312062,25.065783],[93.316403,25.074749],[93.320847,25.087332],[93.328185,25.098572],[93.339554,25.112163],[93.345858,25.124358],[93.365702,25.177662],[93.394331,25.235049],[93.410764,25.261663],[93.422856,25.276597],[93.449211,25.302125],[93.456859,25.294167],[93.466471,25.285899],[93.472982,25.282075],[93.480734,25.278974],[93.487968,25.277217],[93.49417,25.27639],[93.49851,25.274995],[93.500991,25.273445],[93.508846,25.264711],[93.515047,25.259647],[93.524039,25.255823],[93.546363,25.251689],[93.557835,25.247503],[93.566723,25.24125],[93.573338,25.232775],[93.58636,25.212622],[93.596179,25.206575],[93.605481,25.2058],[93.611475,25.211381],[93.615299,25.218719],[93.649199,25.261921],[93.679378,25.314321],[93.679688,25.323933],[93.679068,25.328273],[93.698705,25.347084],[93.723716,25.364034],[93.808569,25.446096],[93.813427,25.457154],[93.81322,25.463252],[93.811359,25.471417],[93.807535,25.47953],[93.801438,25.48599],[93.792756,25.490434],[93.76144,25.499012],[93.75989,25.499684],[93.759373,25.499994],[93.759373,25.500149],[93.75927,25.500304],[93.7602,25.503612],[93.765884,25.516479],[93.768365,25.524902],[93.769605,25.532085],[93.781284,25.53746],[93.803195,25.543557],[93.929905,25.554409],[93.976001,25.548312],[93.996051,25.550585],[94.026747,25.553841],[94.040286,25.548002],[94.051552,25.541749],[94.071499,25.525471],[94.084004,25.519528],[94.096303,25.515704],[94.109946,25.515135],[94.126069,25.516169],[94.15077,25.52144],[94.163586,25.518649],[94.171854,25.514412],[94.177125,25.507332],[94.183533,25.500666],[94.184877,25.499684],[94.187047,25.498599],[94.195109,25.496584],[94.209371,25.495498],[94.251746,25.500149],[94.325333,25.512035],[94.365848,25.527951],[94.386725,25.541439],[94.401401,25.553893],[94.422485,25.583762],[94.435301,25.594407],[94.476332,25.615078],[94.490284,25.623708],[94.564699,25.684221],[94.570383,25.687631],[94.573897,25.685564],[94.574827,25.676211],[94.573897,25.668511],[94.570383,25.654662],[94.570693,25.621486],[94.562528,25.595131],[94.554983,25.577664],[94.537413,25.524902],[94.535863,25.513688],[94.541031,25.502526],[94.552813,25.490331],[94.599528,25.460772],[94.615962,25.4524],[94.649827,25.446739],[94.65036,25.44665]]]}}]}
