{"type":"FeatureCollection","features":[{"type":"Feature","properties":{"id":"IN-MH","country":"IN","name_en":"Maharashtra"},"geometry":{"type":"Polygon","coordinates":[[[73.700857,15.723212],[73.689871,15.724473],[73.672374,15.726508],[73.656016,15.730292],[73.646251,15.736884],[73.643565,15.749091],[73.646251,15.792141],[73.638845,15.817206],[73.604666,15.880845],[73.587576,15.902899],[73.528982,15.949164],[73.510102,15.967597],[73.490977,15.993476],[73.487315,16.014228],[73.515961,16.017401],[73.515961,16.024848],[73.499278,16.024319],[73.483897,16.028225],[73.472504,16.036363],[73.46811,16.048489],[73.464854,16.051663],[73.45753,16.054185],[73.450369,16.058905],[73.447032,16.068915],[73.452973,16.074164],[73.45753,16.079535],[73.460704,16.08633],[73.460704,16.14468],[73.46339,16.159573],[73.470225,16.168891],[73.479259,16.177232],[73.487966,16.189358],[73.465017,16.182278],[73.45281,16.166571],[73.448009,16.143297],[73.447032,16.113593],[73.440196,16.162014],[73.440196,16.202338],[73.435232,16.217841],[73.430837,16.218736],[73.425955,16.215155],[73.419688,16.216702],[73.413585,16.223944],[73.410411,16.230455],[73.406098,16.2508],[73.378673,16.332709],[73.377778,16.337958],[73.378673,16.35692],[73.375662,16.360256],[73.358246,16.367499],[73.359386,16.380601],[73.364431,16.389309],[73.373057,16.395657],[73.384939,16.401597],[73.367442,16.408637],[73.352061,16.418118],[73.341319,16.432074],[73.333995,16.468166],[73.319184,16.509752],[73.313813,16.518297],[73.305837,16.52265],[73.302989,16.533026],[73.303722,16.555569],[73.307302,16.563178],[73.314952,16.557603],[73.321951,16.548489],[73.323497,16.544989],[73.344005,16.523586],[73.355724,16.519436],[73.378673,16.518297],[73.369477,16.52147],[73.362315,16.525458],[73.356212,16.530748],[73.350841,16.538153],[73.35434,16.543158],[73.365001,16.554389],[73.371267,16.559272],[73.354015,16.559638],[73.336436,16.565619],[73.322765,16.576158],[73.317231,16.590277],[73.316091,16.598293],[73.314626,16.599433],[73.316091,16.600043],[73.323497,16.606431],[73.326996,16.607123],[73.358246,16.620673],[73.358409,16.603949],[73.363048,16.596829],[73.368663,16.599026],[73.371267,16.610175],[73.366466,16.628079],[73.354259,16.63467],[73.338878,16.631659],[73.323497,16.620673],[73.312185,16.644721],[73.310557,16.651435],[73.312511,16.658393],[73.321462,16.670844],[73.323497,16.679104],[73.321625,16.69245],[73.31658,16.699897],[73.300304,16.713202],[73.289561,16.74022],[73.295258,16.768052],[73.304454,16.793524],[73.303722,16.813137],[73.296886,16.80565],[73.286632,16.820868],[73.274669,16.848822],[73.269379,16.875637],[73.279552,16.887641],[73.279063,16.891913],[73.269379,16.929185],[73.270518,16.945014],[73.274913,16.958645],[73.289399,16.983832],[73.26238,16.996975],[73.254568,17.006741],[73.262706,17.018541],[73.251231,17.032172],[73.251475,17.042426],[73.258962,17.044094],[73.269379,17.031643],[73.277354,17.054674],[73.275727,17.078599],[73.267426,17.101386],[73.255138,17.120998],[73.261974,17.134955],[73.26059,17.150539],[73.255138,17.165188],[73.236176,17.199205],[73.236013,17.220608],[73.218028,17.253241],[73.214854,17.268744],[73.211192,17.275092],[73.193126,17.294013],[73.187022,17.305976],[73.203461,17.298733],[73.217133,17.286851],[73.231212,17.279283],[73.249034,17.284857],[73.234711,17.302314],[73.207367,17.353746],[73.195974,17.369371],[73.170584,17.389716],[73.166515,17.402167],[73.165294,17.413031],[73.177094,17.426663],[73.185395,17.441881],[73.17335,17.457424],[73.180675,17.477688],[73.165538,17.503404],[73.131684,17.539374],[73.125987,17.556545],[73.12794,17.564683],[73.136404,17.567206],[73.149425,17.567288],[73.163422,17.569485],[73.200694,17.586493],[73.185883,17.592515],[73.154063,17.595608],[73.139171,17.600775],[73.128184,17.611558],[73.121349,17.62641],[73.120291,17.642035],[73.12615,17.655422],[73.118907,17.663479],[73.110525,17.675727],[73.105479,17.68891],[73.108165,17.699774],[73.117361,17.711249],[73.12322,17.723334],[73.123302,17.735785],[73.115001,17.748196],[73.109874,17.758287],[73.106619,17.785549],[73.101329,17.796332],[73.08546,17.813666],[73.079438,17.824612],[73.073741,17.857123],[73.065196,17.878363],[73.018565,17.951728],[73.0171,17.972113],[73.035411,17.991848],[73.018891,17.992499],[73.008637,18.00023],[73.005219,18.012356],[73.0088,18.025946],[73.019542,18.035875],[73.032481,18.041083],[73.042247,18.048977],[73.043468,18.066962],[73.031993,18.06391],[73.022716,18.057685],[73.015147,18.04914],[73.0088,18.039008],[73.00115,18.052069],[72.987315,18.066555],[72.980968,18.080552],[72.983165,18.081732],[72.986664,18.087714],[72.988129,18.096015],[72.98463,18.104193],[72.978363,18.111884],[72.976085,18.118638],[72.967296,18.19599],[72.954845,18.217515],[72.926931,18.223944],[72.935232,18.244778],[72.939952,18.251288],[72.934825,18.25788],[72.933279,18.266588],[72.935069,18.276313],[72.939952,18.286038],[72.953136,18.281317],[72.95753,18.274604],[72.959239,18.265855],[72.964529,18.25495],[72.972667,18.244696],[72.976736,18.24258],[72.98227,18.244208],[72.995128,18.245063],[73.012462,18.24315],[73.0324,18.23786],[73.050955,18.227484],[73.063487,18.210354],[73.047618,18.201158],[73.047618,18.188788],[73.057465,18.185614],[73.071544,18.204088],[73.073985,18.224189],[73.065278,18.257554],[73.071544,18.273017],[73.056977,18.280951],[73.042979,18.282375],[73.012462,18.279202],[72.994884,18.283596],[72.977387,18.295071],[72.968028,18.310614],[72.974783,18.327582],[72.958751,18.328111],[72.950857,18.332953],[72.933604,18.354926],[72.927908,18.357571],[72.922537,18.356635],[72.917328,18.356391],[72.912608,18.361151],[72.909841,18.368069],[72.910167,18.372504],[72.911632,18.377346],[72.912608,18.385647],[72.910167,18.399237],[72.904307,18.408515],[72.897227,18.417304],[72.891449,18.429389],[72.889659,18.441311],[72.891449,18.480902],[72.895763,18.502997],[72.907237,18.523586],[72.924653,18.535631],[72.946788,18.532416],[72.961111,18.517727],[72.990245,18.469957],[73.0088,18.450507],[73.014985,18.469957],[73.004405,18.480048],[72.98878,18.489936],[72.980968,18.508857],[72.977875,18.524115],[72.970388,18.541002],[72.960297,18.554674],[72.950206,18.56037],[72.921153,18.554877],[72.910167,18.558987],[72.905772,18.577135],[72.882172,18.635484],[72.864513,18.648912],[72.855317,18.681138],[72.851736,18.719672],[72.852387,18.769924],[72.856944,18.7862],[72.865571,18.799384],[72.879161,18.807359],[72.887055,18.807034],[72.902029,18.799506],[72.912608,18.799994],[72.926931,18.826646],[72.938975,18.816962],[72.974783,18.779486],[72.966319,18.76142],[72.969574,18.746975],[72.980642,18.736762],[72.995128,18.731024],[72.988048,18.753852],[72.99171,18.779364],[73.002452,18.801459],[73.016287,18.813625],[72.987966,18.824937],[72.981293,18.832709],[72.974783,18.848334],[72.976085,18.854397],[72.979747,18.863349],[72.9817,18.871487],[72.977794,18.874986],[72.972179,18.874254],[72.96697,18.872138],[72.963145,18.868964],[72.961681,18.865139],[72.946137,18.858303],[72.91627,18.87051],[72.896821,18.894477],[72.912608,18.923489],[72.928071,18.911363],[72.934581,18.920803],[72.936778,18.947414],[72.949229,18.951483],[72.96339,18.947984],[72.977224,18.948432],[72.988292,18.964423],[72.953624,18.964423],[72.953624,18.971259],[72.968272,18.972602],[72.992035,18.982489],[73.042166,18.995754],[73.046641,18.995185],[73.056814,19.015326],[73.039806,19.017524],[73.011892,19.009426],[72.988292,18.998603],[72.983572,19.010443],[72.987804,19.036933],[72.980968,19.046373],[72.991873,19.067206],[72.985688,19.074286],[72.973806,19.078559],[72.967296,19.09101],[72.974783,19.163072],[72.967296,19.163072],[72.950043,19.127916],[72.935557,19.115058],[72.93393,19.080308],[72.926931,19.06684],[72.94337,19.055121],[72.934255,19.034084],[72.891449,18.991767],[72.891449,19.00137],[72.885265,19.025865],[72.869314,19.01142],[72.851085,18.987128],[72.836274,18.959133],[72.827647,18.918362],[72.8213,18.903306],[72.812511,18.897447],[72.802745,18.909817],[72.802013,18.920478],[72.805349,18.930976],[72.807384,18.942816],[72.802745,18.957587],[72.795909,18.957587],[72.792328,18.951239],[72.788259,18.946519],[72.775401,18.93651],[72.770356,18.948188],[72.776052,18.959703],[72.795909,18.984931],[72.802419,18.999661],[72.804942,19.011054],[72.802745,19.040188],[72.812999,19.035549],[72.817068,19.032701],[72.821788,19.041978],[72.824229,19.053534],[72.8213,19.063178],[72.809581,19.06684],[72.821951,19.097113],[72.82309,19.108466],[72.821056,19.119208],[72.811778,19.137356],[72.809581,19.146308],[72.812185,19.153713],[72.822439,19.163764],[72.82309,19.169257],[72.818044,19.17536],[72.811209,19.175523],[72.805186,19.17182],[72.799571,19.156887],[72.792166,19.150458],[72.784923,19.150377],[72.781586,19.159654],[72.783376,19.168647],[72.802501,19.211615],[72.819835,19.240627],[72.830089,19.252427],[72.815115,19.253648],[72.802094,19.23786],[72.789399,19.217353],[72.775401,19.204657],[72.772227,19.265123],[72.775645,19.299018],[72.785411,19.31391],[72.839366,19.319078],[72.867035,19.316799],[72.885509,19.296047],[72.900564,19.290758],[72.930349,19.286566],[72.946544,19.289862],[72.959727,19.294827],[72.972667,19.293687],[72.988292,19.27912],[73.010509,19.224311],[73.026622,19.205512],[73.049653,19.217719],[73.03004,19.227729],[73.028005,19.244086],[73.029145,19.259345],[73.019298,19.266059],[73.012462,19.272447],[73.001801,19.286566],[72.987804,19.300686],[72.970958,19.307034],[72.916759,19.303371],[72.898936,19.307034],[72.883556,19.316392],[72.855317,19.339504],[72.836925,19.348049],[72.818533,19.330268],[72.802094,19.331936],[72.787608,19.345201],[72.763438,19.380194],[72.759776,19.388983],[72.74822,19.444241],[72.746837,19.467963],[72.754405,19.481757],[72.769216,19.490465],[72.879161,19.532375],[72.8567,19.541327],[72.835948,19.536689],[72.815929,19.52851],[72.795909,19.526801],[72.787852,19.53026],[72.781261,19.536566],[72.777029,19.545559],[72.775401,19.557196],[72.770681,19.566148],[72.76002,19.573065],[72.741954,19.580797],[72.734548,19.580797],[72.738292,19.570258],[72.740733,19.560736],[72.739757,19.55268],[72.734548,19.546617],[72.749278,19.534247],[72.754893,19.527045],[72.755626,19.519355],[72.749197,19.5126],[72.741547,19.516018],[72.722504,19.536282],[72.710785,19.587592],[72.718028,19.606676],[72.709646,19.64997],[72.686697,19.724799],[72.694102,19.720201],[72.699962,19.714179],[72.7046,19.706529],[72.707774,19.697455],[72.72641,19.705797],[72.72641,19.715237],[72.718598,19.727932],[72.714041,19.745836],[72.717296,19.751532],[72.724376,19.752672],[72.731293,19.754584],[72.734548,19.762641],[72.73406,19.771918],[72.732758,19.779731],[72.728282,19.793647],[72.690115,19.748969],[72.677908,19.746568],[72.675792,19.764146],[72.679861,19.800482],[72.672862,19.812812],[72.650076,19.841986],[72.649181,19.851996],[72.65919,19.866441],[72.664236,19.881578],[72.666189,19.916571],[72.662771,19.941799],[72.665212,19.952948],[72.676443,19.957506],[72.684337,19.964016],[72.694509,19.979315],[72.70338,19.997626],[72.707774,20.012763],[72.707774,20.071112],[72.708102,20.072644],[72.732026,20.0757],[72.75156,20.08619],[72.758071,20.091565],[72.770783,20.099652],[72.776881,20.101487],[72.782566,20.101745],[72.80582,20.092546],[72.810884,20.093037],[72.816569,20.098334],[72.822977,20.101822],[72.830831,20.104045],[72.856256,20.101667],[72.872586,20.101797],[72.897597,20.107145],[72.947207,20.127402],[72.970151,20.086785],[72.98059,20.062367],[72.989891,20.047485],[72.997229,20.039811],[73.00157,20.038881],[73.007771,20.040043],[73.015523,20.044307],[73.031026,20.056476],[73.039397,20.059344],[73.046115,20.056709],[73.052317,20.051128],[73.058518,20.043531],[73.063789,20.040999],[73.067819,20.040818],[73.07247,20.043066],[73.086216,20.052678],[73.093244,20.055856],[73.103063,20.056244],[73.109884,20.052807],[73.117325,20.046089],[73.12363,20.038725],[73.136652,20.027227],[73.142854,20.026607],[73.147918,20.02808],[73.153292,20.032886],[73.16094,20.047485],[73.165901,20.062574],[73.168072,20.077664],[73.166315,20.114871],[73.19298,20.111021],[73.202282,20.113243],[73.216648,20.117971],[73.231014,20.125723],[73.237732,20.131381],[73.243313,20.138642],[73.244966,20.145825],[73.245586,20.152724],[73.244553,20.160243],[73.244966,20.16678],[73.247447,20.175332],[73.255405,20.186365],[73.262536,20.190938],[73.271838,20.193419],[73.337777,20.18373],[73.355037,20.179311],[73.363822,20.178304],[73.377878,20.180319],[73.383149,20.186313],[73.383873,20.194194],[73.378498,20.209955],[73.377878,20.218637],[73.380048,20.228326],[73.389144,20.244372],[73.392554,20.255922],[73.394104,20.270391],[73.387283,20.318347],[73.386663,20.332661],[73.385423,20.341058],[73.383252,20.348707],[73.380152,20.353642],[73.376328,20.3562],[73.367233,20.358913],[73.363512,20.362995],[73.360721,20.369377],[73.364649,20.38227],[73.392864,20.418496],[73.44206,20.495545],[73.453739,20.520298],[73.4587,20.538023],[73.450638,20.573835],[73.448571,20.579804],[73.446401,20.584067],[73.443817,20.586677],[73.439476,20.587633],[73.427694,20.58895],[73.42201,20.59032],[73.416945,20.592593],[73.413948,20.595978],[73.411984,20.601844],[73.408884,20.62471],[73.406817,20.630317],[73.403716,20.633599],[73.396792,20.635588],[73.38966,20.636518],[73.380048,20.636906],[73.3724,20.638611],[73.366509,20.641919],[73.364132,20.648456],[73.364649,20.652667],[73.371677,20.659489],[73.404233,20.66985],[73.418289,20.683699],[73.429038,20.71039],[73.433999,20.716281],[73.43896,20.719149],[73.447228,20.720028],[73.453532,20.717211],[73.46025,20.710648],[73.464694,20.703052],[73.475753,20.678712],[73.481024,20.673725],[73.487122,20.670496],[73.495907,20.667395],[73.501488,20.664605],[73.538902,20.638766],[73.569494,20.624865],[73.586031,20.615409],[73.599467,20.604582],[73.623031,20.571148],[73.629956,20.563861],[73.637914,20.560554],[73.647629,20.559159],[73.699822,20.562414],[73.712845,20.566471],[73.736926,20.581044],[73.763901,20.59373],[73.780541,20.599389],[73.792323,20.606184],[73.800488,20.615409],[73.806276,20.626442],[73.810306,20.639309],[73.81196,20.65153],[73.809686,20.66985],[73.81103,20.676904],[73.839762,20.705326],[73.889165,20.740646],[73.89888,20.750956],[73.904978,20.762686],[73.909008,20.775709],[73.911179,20.790359],[73.911489,20.806276],[73.902911,20.883868],[73.894539,20.907458],[73.884617,20.926527],[73.875005,20.962778],[73.868287,20.974767],[73.859502,20.982285],[73.84741,20.990347],[73.832837,21.003705],[73.814337,21.025177],[73.798628,21.048612],[73.789843,21.058482],[73.77465,21.062126],[73.7423,21.073107],[73.730518,21.087731],[73.725867,21.097188],[73.714292,21.111993],[73.705093,21.118711],[73.695171,21.122639],[73.684629,21.12375],[73.675431,21.123285],[73.664269,21.119254],[73.65166,21.11853],[73.633986,21.119383],[73.5974,21.139899],[73.559882,21.174186],[73.552751,21.184831],[73.551924,21.190671],[73.553475,21.195477],[73.558332,21.198112],[73.566704,21.197595],[73.576936,21.194598],[73.632023,21.165918],[73.639154,21.164522],[73.646595,21.166512],[73.653727,21.170233],[73.662615,21.172481],[73.671607,21.171628],[73.680289,21.169173],[73.68742,21.166434],[73.693001,21.164884],[73.696102,21.164677],[73.698065,21.165582],[73.714705,21.180594],[73.723387,21.186278],[73.733205,21.191265],[73.744471,21.195089],[73.755633,21.197156],[73.766898,21.203796],[73.77744,21.216638],[73.792736,21.264878],[73.800074,21.280949],[73.808446,21.285885],[73.816611,21.283507],[73.832011,21.268495],[73.841312,21.265808],[73.853715,21.267772],[73.909629,21.286918],[73.91862,21.291569],[73.929472,21.308519],[73.946422,21.373502],[73.960168,21.394379],[73.974431,21.406859],[73.991897,21.416187],[74.00709,21.427245],[74.030448,21.452102],[74.04223,21.461791],[74.053496,21.465718],[74.063418,21.462695],[74.087395,21.452877],[74.098248,21.450913],[74.108686,21.451559],[74.240564,21.486131],[74.264956,21.496363],[74.280769,21.505406],[74.291517,21.513855],[74.296788,21.520185],[74.299992,21.527911],[74.300819,21.53698],[74.299579,21.545507],[74.297202,21.553078],[74.291311,21.566307],[74.28883,21.570647],[74.28542,21.573102],[74.279838,21.574032],[74.272914,21.57274],[74.265369,21.569536],[74.248833,21.55964],[74.239634,21.555377],[74.229609,21.552432],[74.191575,21.545507],[74.182583,21.547419],[74.175555,21.553233],[74.169354,21.560054],[74.161499,21.566229],[74.155505,21.568839],[74.146513,21.570699],[74.137212,21.569717],[74.131837,21.567779],[74.128737,21.56486],[74.125119,21.559408],[74.119435,21.554835],[74.108996,21.552612],[74.037889,21.55933],[74.018976,21.558891],[73.995928,21.555325],[73.954897,21.543776],[73.923891,21.531322],[73.856402,21.520883],[73.827256,21.509049],[73.820848,21.508326],[73.815577,21.51153],[73.811237,21.518041],[73.800178,21.540468],[73.792736,21.552587],[73.763281,21.585659],[73.757183,21.596305],[73.751602,21.611033],[73.754082,21.618836],[73.762041,21.623771],[73.792736,21.626742],[73.810927,21.634726],[73.8286,21.650927],[73.839142,21.682191],[73.837178,21.697591],[73.82736,21.707409],[73.815681,21.714153],[73.807516,21.724514],[73.803485,21.739784],[73.806069,21.75384],[73.805035,21.766527],[73.796767,21.794484],[73.796044,21.805155],[73.797594,21.813423],[73.809376,21.836471],[73.824156,21.842155],[73.832941,21.843551],[73.870871,21.854661],[73.8995,21.869828],[73.917587,21.866883],[73.942701,21.874608],[73.965026,21.887786],[73.974637,21.90117],[74.06104,21.940315],[74.12884,21.951761],[74.151164,21.947575],[74.18279,21.929256],[74.204908,21.92507],[74.228162,21.926181],[74.249039,21.929773],[74.267746,21.935922],[74.284386,21.94494],[74.287797,21.949978],[74.288623,21.95649],[74.288727,21.962458],[74.289967,21.966024],[74.294618,21.967858],[74.30609,21.969848],[74.32056,21.976127],[74.342367,21.982044],[74.351979,21.986514],[74.39177,22.021705],[74.407686,22.023049],[74.428047,22.006151],[74.485614,21.945973],[74.494192,21.917009],[74.491919,21.904271],[74.486958,21.820141],[74.488198,21.805078],[74.491609,21.794561],[74.503494,21.772909],[74.506905,21.763736],[74.509179,21.736064],[74.512486,21.726917],[74.521167,21.717564],[74.5345,21.707564],[74.559511,21.692087],[74.591551,21.667877],[74.608191,21.658911],[74.660901,21.645294],[74.672579,21.636147],[74.682708,21.626174],[74.6948,21.616924],[74.708133,21.611162],[74.731077,21.608604],[74.76384,21.608449],[74.85386,21.616459],[74.864712,21.616123],[74.894065,21.61204],[74.903676,21.608991],[74.912978,21.60372],[74.928481,21.591318],[74.940987,21.583153],[74.956076,21.577934],[75.004962,21.575428],[75.011473,21.57349],[75.037105,21.560984],[75.047957,21.554059],[75.067697,21.534732],[75.106248,21.483133],[75.116067,21.459285],[75.121958,21.448407],[75.129916,21.437684],[75.140458,21.429132],[75.15317,21.422698],[75.209498,21.40288],[75.31192,21.38146],[75.347474,21.38469],[75.359876,21.382287],[75.368248,21.379315],[75.38127,21.376292],[75.479972,21.376292],[75.521106,21.371771],[75.534749,21.371797],[75.569786,21.380375],[75.592317,21.38084],[75.609473,21.384096],[75.625183,21.385465],[75.663217,21.380168],[75.706521,21.378153],[75.814008,21.383372],[75.877777,21.399779],[75.907336,21.39177],[75.936792,21.392545],[75.952295,21.390917],[75.986711,21.378385],[76.039628,21.365699],[76.048929,21.365234],[76.059058,21.366526],[76.07084,21.369523],[76.082933,21.368076],[76.093785,21.358645],[76.108047,21.332419],[76.130475,21.280123],[76.132645,21.237231],[76.142877,21.193125],[76.138846,21.181007],[76.131198,21.176279],[76.122103,21.1754],[76.115385,21.175349],[76.109288,21.174005],[76.106187,21.172222],[76.104223,21.169302],[76.103603,21.166925],[76.103396,21.164109],[76.104843,21.159949],[76.108564,21.153128],[76.143911,21.106877],[76.166855,21.09432],[76.186802,21.085819],[76.286641,21.074812],[76.31744,21.081866],[76.378832,21.086827],[76.410354,21.096723],[76.436606,21.107808],[76.449629,21.122406],[76.469472,21.151758],[76.481875,21.166512],[76.498308,21.180361],[76.523629,21.191575],[76.541819,21.195244],[76.614063,21.202479],[76.625949,21.208835],[76.636284,21.219997],[76.645172,21.233588],[76.653957,21.251313],[76.653337,21.293817],[76.639591,21.320482],[76.63556,21.331463],[76.63339,21.341049],[76.637111,21.349214],[76.646412,21.358722],[76.670907,21.37606],[76.709561,21.39624],[76.720413,21.403448],[76.729508,21.413009],[76.749455,21.453032],[76.75638,21.462024],[76.768679,21.471661],[76.77705,21.48011],[76.783252,21.493133],[76.784905,21.498145],[76.785525,21.501685],[76.785525,21.504708],[76.785215,21.508532],[76.786662,21.530702],[76.788006,21.537445],[76.788936,21.549925],[76.79369,21.577004],[76.814051,21.600129],[76.84361,21.613358],[76.89973,21.61266],[76.917404,21.618086],[77.028818,21.693586],[77.069332,21.712293],[77.115531,21.724049],[77.167207,21.728157],[77.178886,21.726168],[77.187051,21.721439],[77.191495,21.717667],[77.194493,21.712939],[77.198523,21.707874],[77.203898,21.703404],[77.210719,21.700924],[77.218987,21.700846],[77.229633,21.704567],[77.237074,21.709657],[77.242862,21.716866],[77.25113,21.731206],[77.257641,21.735056],[77.285547,21.740689],[77.296502,21.748104],[77.305287,21.760894],[77.316449,21.769808],[77.332985,21.774459],[77.46073,21.770041],[77.474062,21.767302],[77.487395,21.760817],[77.493286,21.754771],[77.497317,21.747226],[77.499074,21.741335],[77.500934,21.737356],[77.503724,21.732886],[77.509305,21.72963],[77.53163,21.721879],[77.541448,21.71591],[77.548373,21.707435],[77.551783,21.696764],[77.562015,21.6262],[77.562015,21.611394],[77.560672,21.59708],[77.561395,21.583541],[77.566253,21.572895],[77.573384,21.564059],[77.577105,21.556462],[77.574935,21.548323],[77.566356,21.544344],[77.555194,21.542484],[77.456802,21.548504],[77.443986,21.547135],[77.435615,21.542303],[77.431998,21.534216],[77.430344,21.522201],[77.430654,21.511607],[77.432204,21.500858],[77.433134,21.498817],[77.454632,21.461248],[77.481814,21.423886],[77.486051,21.412776],[77.488015,21.401045],[77.490185,21.392932],[77.493803,21.391201],[77.501347,21.396705],[77.509099,21.411252],[77.51375,21.416264],[77.519537,21.417659],[77.531526,21.416109],[77.539278,21.412388],[77.546719,21.405851],[77.55354,21.397299],[77.560362,21.390374],[77.568423,21.386421],[77.578035,21.384457],[77.590437,21.385413],[77.600979,21.388566],[77.616999,21.396705],[77.627024,21.399469],[77.638083,21.398772],[77.650382,21.396162],[77.67622,21.395103],[77.683972,21.391821],[77.69007,21.38593],[77.695237,21.379755],[77.702989,21.37792],[77.712601,21.380272],[77.743916,21.400115],[77.76221,21.406859],[77.787531,21.423008],[77.794456,21.424558],[77.805411,21.42293],[77.85285,21.403578],[77.871454,21.3981],[77.890884,21.397402],[77.910211,21.40058],[78.02917,21.437684],[78.085601,21.462411],[78.125495,21.484684],[78.144409,21.498662],[78.167043,21.522356],[78.179032,21.538143],[78.192675,21.551114],[78.208384,21.559434],[78.264195,21.570958],[78.310187,21.586331],[78.333234,21.614572],[78.340366,21.619895],[78.348014,21.622867],[78.358039,21.624804],[78.365997,21.625425],[78.387701,21.623693],[78.393799,21.622298],[78.405892,21.616071],[78.413333,21.606304],[78.414263,21.578838],[78.422015,21.562689],[78.425942,21.550339],[78.428836,21.526232],[78.428422,21.51569],[78.427182,21.511891],[78.426872,21.509592],[78.427906,21.508481],[78.431936,21.507396],[78.437414,21.506646],[78.446406,21.507189],[78.455088,21.509359],[78.466663,21.51556],[78.474725,21.521116],[78.48568,21.526826],[78.497152,21.528531],[78.513689,21.526593],[78.526298,21.521245],[78.535186,21.515612],[78.55441,21.499747],[78.561231,21.496104],[78.626653,21.479413],[78.696003,21.474762],[78.716054,21.476312],[78.738068,21.48396],[78.799563,21.489309],[78.838837,21.501169],[78.865295,21.506052],[78.904156,21.509282],[78.917592,21.513907],[78.92927,21.525043],[78.932268,21.534681],[78.931131,21.543879],[78.92679,21.553207],[78.923069,21.563826],[78.921932,21.572275],[78.932061,21.582301],[78.950354,21.590362],[78.99614,21.603436],[79.081509,21.612867],[79.115926,21.621936],[79.166672,21.640411],[79.194474,21.646974],[79.215765,21.65457],[79.22734,21.663923],[79.234368,21.682191],[79.236022,21.694361],[79.236022,21.704024],[79.237572,21.709347],[79.240053,21.712758],[79.258656,21.714256],[79.295036,21.697978],[79.308782,21.694102],[79.331933,21.690278],[79.36914,21.691389],[79.385367,21.689607],[79.399113,21.690408],[79.413065,21.689813],[79.426398,21.687255],[79.470943,21.671985],[79.486342,21.663484],[79.498331,21.639661],[79.533058,21.619275],[79.537399,21.597933],[79.539879,21.591421],[79.54329,21.585892],[79.546597,21.578528],[79.548561,21.570492],[79.551558,21.550029],[79.555589,21.542716],[79.565201,21.538815],[79.576983,21.539926],[79.600134,21.547367],[79.61388,21.555455],[79.633103,21.570777],[79.650467,21.581551],[79.660285,21.585194],[79.672584,21.586951],[79.70483,21.584032],[79.758781,21.594083],[79.781311,21.592145],[79.798365,21.587804],[79.813144,21.579768],[79.822136,21.569459],[79.828544,21.557005],[79.833918,21.543233],[79.840326,21.534345],[79.849731,21.52941],[79.862133,21.528169],[79.880324,21.529539],[79.896447,21.53251],[79.91536,21.538117],[79.921975,21.542458],[79.93355,21.554524],[79.945332,21.556307],[79.96528,21.562586],[79.977889,21.561966],[79.978715,21.559821],[79.978612,21.55561],[79.979852,21.55114],[79.98471,21.548323],[79.989774,21.547807],[80.005277,21.548323],[80.080311,21.571578],[80.088683,21.591783],[80.108423,21.604237],[80.16413,21.621187],[80.174879,21.626561],[80.182217,21.632504],[80.186661,21.63948],[80.202888,21.625476],[80.248053,21.596796],[80.276062,21.584703],[80.310168,21.580233],[80.316059,21.575763],[80.318643,21.568555],[80.31885,21.560571],[80.32009,21.550804],[80.323604,21.54114],[80.337453,21.525534],[80.387786,21.492564],[80.402669,21.480214],[80.411764,21.468742],[80.414761,21.460241],[80.417552,21.446831],[80.417345,21.441327],[80.416001,21.437477],[80.412901,21.43293],[80.395331,21.414869],[80.393367,21.407841],[80.395641,21.399573],[80.402669,21.394328],[80.409904,21.392054],[80.420652,21.392286],[80.429644,21.393811],[80.456619,21.402053],[80.464681,21.403526],[80.473569,21.403603],[80.484421,21.401821],[80.502714,21.395309],[80.611958,21.331722],[80.625601,21.326476],[80.633352,21.327355],[80.63914,21.329396],[80.644101,21.332419],[80.662911,21.346346],[80.679034,21.351152],[80.678414,21.301982],[80.666425,21.279554],[80.637383,21.251701],[80.625601,21.242657],[80.5485,21.206665],[80.484524,21.167701],[80.472742,21.157184],[80.465197,21.14796],[80.459616,21.135868],[80.456826,21.125455],[80.447317,21.061376],[80.436259,21.024686],[80.434605,21.013653],[80.435328,20.999235],[80.441013,20.978823],[80.450108,20.95916],[80.455689,20.950815],[80.463337,20.94221],[80.471709,20.936268],[80.48132,20.931978],[80.491242,20.93017],[80.49796,20.930066],[80.503231,20.930945],[80.518838,20.936087],[80.527416,20.93787],[80.533927,20.937508],[80.541162,20.933994],[80.54757,20.927276],[80.552117,20.919318],[80.554701,20.907846],[80.555838,20.898983],[80.556561,20.878028],[80.556768,20.780825],[80.572994,20.697574],[80.571031,20.682381],[80.56607,20.672511],[80.558938,20.667188],[80.517184,20.648223],[80.509122,20.641324],[80.503025,20.633289],[80.496203,20.618948],[80.49455,20.609595],[80.49486,20.601172],[80.49703,20.596185],[80.501061,20.592645],[80.506435,20.590087],[80.515013,20.588847],[80.523695,20.589958],[80.53248,20.593136],[80.54726,20.601301],[80.56514,20.613781],[80.571444,20.61608],[80.579506,20.617011],[80.586017,20.616494],[80.600796,20.612437],[80.608134,20.609569],[80.614646,20.606184],[80.622397,20.600913],[80.623741,20.596185],[80.623637,20.591172],[80.622707,20.585617],[80.62095,20.541641],[80.6225,20.534096],[80.624981,20.527972],[80.628908,20.523812],[80.634903,20.51234],[80.630562,20.50048],[80.624051,20.489964],[80.617126,20.473505],[80.614439,20.464307],[80.611545,20.401236],[80.612889,20.385216],[80.616506,20.371444],[80.62095,20.361522],[80.626428,20.342609],[80.626738,20.333229],[80.622397,20.325891],[80.615886,20.322765],[80.595525,20.315815],[80.585603,20.310724],[80.575061,20.30287],[80.547363,20.277677],[80.534237,20.269383],[80.521215,20.264965],[80.510466,20.262872],[80.453829,20.257317],[80.441116,20.253312],[80.431194,20.246904],[80.424373,20.234088],[80.423236,20.222409],[80.424166,20.211583],[80.424063,20.197217],[80.414141,20.165178],[80.414244,20.155178],[80.418172,20.148874],[80.426337,20.146238],[80.506952,20.141949],[80.514807,20.140476],[80.521835,20.138487],[80.53062,20.134869],[80.553151,20.073245],[80.557181,20.048337],[80.555528,20.036193],[80.554288,20.031336],[80.551807,20.024876],[80.544779,19.99896],[80.538681,19.944752],[80.534961,19.929869],[80.531137,19.920697],[80.525969,19.918578],[80.518838,19.91819],[80.509536,19.919534],[80.49827,19.923255],[80.467161,19.938551],[80.460236,19.941031],[80.452278,19.938241],[80.444837,19.931213],[80.431194,19.911524],[80.426647,19.901395],[80.425096,19.892817],[80.427474,19.888244],[80.431814,19.883851],[80.437189,19.88088],[80.444423,19.878451],[80.473362,19.873955],[80.4807,19.871139],[80.485041,19.866255],[80.486075,19.85499],[80.483181,19.846024],[80.478943,19.838557],[80.475429,19.83388],[80.471812,19.830159],[80.463027,19.824113],[80.447214,19.816698],[80.428197,19.8106],[80.418172,19.805871],[80.41104,19.79905],[80.408973,19.791996],[80.411454,19.783676],[80.419825,19.777992],[80.431608,19.773289],[80.458686,19.767347],[80.469538,19.766158],[80.47884,19.766468],[80.484214,19.768096],[80.487315,19.771119],[80.488245,19.774271],[80.487935,19.778405],[80.487212,19.78347],[80.486901,19.788198],[80.487625,19.793262],[80.489795,19.799205],[80.494343,19.805691],[80.500751,19.81091],[80.509226,19.814656],[80.518424,19.81631],[80.528449,19.815509],[80.537751,19.81091],[80.544572,19.802073],[80.5485,19.792306],[80.558112,19.755177],[80.565553,19.739777],[80.574545,19.72877],[80.587154,19.7189],[80.59997,19.713655],[80.63852,19.70518],[80.649786,19.701253],[80.659087,19.696007],[80.667666,19.689005],[80.675727,19.676551],[80.685029,19.622239],[80.69154,19.607718],[80.701359,19.597512],[80.712934,19.592603],[80.7612,19.580071],[80.776496,19.573121],[80.806365,19.551365],[80.814737,19.54891],[80.822385,19.5486],[80.830963,19.547102],[80.838095,19.543123],[80.854631,19.526715],[80.878195,19.50713],[80.893905,19.484444],[80.897006,19.468605],[80.895352,19.452198],[80.888944,19.438814],[80.880986,19.42791],[80.86941,19.419358],[80.854218,19.414448],[80.825485,19.411167],[80.813807,19.408454],[80.805745,19.403338],[80.802541,19.39432],[80.805435,19.38613],[80.823315,19.363082],[80.832203,19.345409],[80.830963,19.334247],[80.823005,19.326082],[80.784351,19.311612],[80.7612,19.298461],[80.751175,19.291045],[80.737222,19.278565],[80.72451,19.264483],[80.720479,19.261564],[80.716655,19.262701],[80.710454,19.278694],[80.690093,19.311147],[80.679965,19.321534],[80.65299,19.322413],[80.633559,19.31678],[80.617436,19.318563],[80.60028,19.341688],[80.58705,19.381918],[80.575992,19.391969],[80.553461,19.386905],[80.542712,19.378585],[80.526382,19.355331],[80.516977,19.345202],[80.508502,19.340474],[80.489795,19.33435],[80.480804,19.328562],[80.471088,19.31585],[80.456516,19.285128],[80.447317,19.272131],[80.437085,19.26531],[80.413934,19.256112],[80.405356,19.250402],[80.397088,19.234175],[80.37311,19.151364],[80.37063,19.137127],[80.366599,19.117386],[80.346238,19.081497],[80.290428,19.019305],[80.271824,18.979436],[80.271411,18.946958],[80.283916,18.920267],[80.344171,18.85071],[80.349235,18.830918],[80.3389,18.813348],[80.274821,18.776942],[80.266036,18.768209],[80.260559,18.755522],[80.261386,18.744515],[80.264796,18.731751],[80.270377,18.71369],[80.251464,18.700513],[80.241748,18.69749],[80.169712,18.690048],[80.090543,18.69749],[80.084032,18.701391],[80.066669,18.731002],[80.060674,18.73697],[80.039384,18.752112],[80.001866,18.785624],[79.967967,18.796476],[79.918564,18.824924],[79.91691,18.826577],[79.95019,18.855284],[79.960319,18.867117],[79.964246,18.88554],[79.964866,18.935356],[79.954531,18.968429],[79.941818,19.038141],[79.93355,19.053127],[79.882081,19.041939],[79.864717,19.048398],[79.861823,19.081084],[79.872675,19.110281],[79.893656,19.137411],[79.919288,19.158392],[79.943782,19.169218],[79.935411,19.191542],[79.930553,19.211928],[79.929106,19.230971],[79.931173,19.24929],[79.928486,19.26053],[79.928899,19.263915],[79.930553,19.270194],[79.933447,19.274173],[79.945953,19.28381],[79.94988,19.288771],[79.952981,19.297815],[79.956495,19.313395],[79.955874,19.333342],[79.957631,19.351455],[79.961145,19.364891],[79.965486,19.401917],[79.965383,19.414991],[79.963833,19.426024],[79.957425,19.445248],[79.954014,19.452017],[79.9505,19.457004],[79.943369,19.464419],[79.93107,19.482532],[79.927452,19.486227],[79.923318,19.488862],[79.918461,19.490697],[79.908229,19.493332],[79.893553,19.499689],[79.873916,19.504701],[79.869265,19.506407],[79.864924,19.50899],[79.86141,19.512608],[79.855002,19.521134],[79.841876,19.546714],[79.835158,19.554957],[79.811904,19.574206],[79.804566,19.58219],[79.795781,19.594101],[79.735423,19.603352],[79.718783,19.599192],[79.714752,19.595006],[79.708551,19.591388],[79.636101,19.569814],[79.619358,19.562734],[79.61295,19.557954],[79.608919,19.55307],[79.607265,19.542864],[79.607059,19.531909],[79.604888,19.525475],[79.600754,19.518938],[79.590005,19.510515],[79.582667,19.508189],[79.576363,19.508112],[79.571712,19.509688],[79.562513,19.514081],[79.558793,19.517336],[79.555279,19.521212],[79.552798,19.526328],[79.547217,19.530669],[79.538949,19.533821],[79.511767,19.534829],[79.504843,19.53581],[79.500812,19.537232],[79.420403,19.536379],[79.404074,19.537826],[79.396529,19.540461],[79.389501,19.544027],[79.384126,19.54935],[79.370691,19.566765],[79.363559,19.574051],[79.348883,19.580097],[79.271791,19.589128],[79.266002,19.589555],[79.254301,19.577522],[79.245485,19.559524],[79.243856,19.554039],[79.245741,19.538942],[79.243281,19.531138],[79.232077,19.525176],[79.22271,19.513827],[79.216057,19.504303],[79.213894,19.489588],[79.218302,19.474351],[79.209931,19.465658],[79.197731,19.461883],[79.183074,19.467435],[79.170548,19.477121],[79.150711,19.499977],[79.119855,19.511749],[79.109569,19.522829],[79.09708,19.531138],[79.080917,19.53183],[79.068427,19.535985],[79.058876,19.547063],[79.042672,19.548007],[79.024346,19.541525],[79.014032,19.545436],[79.013198,19.547079],[79.01265,19.554431],[79.011305,19.557003],[79.002112,19.560493],[78.999031,19.560858],[78.988478,19.560255],[78.98555,19.56088],[78.98076,19.564233],[78.980266,19.565755],[78.980327,19.573818],[78.978466,19.577203],[78.97733,19.581027],[78.972679,19.584774],[78.964307,19.589606],[78.944773,19.594412],[78.934852,19.598184],[78.927927,19.603765],[78.925446,19.609734],[78.923999,19.620301],[78.921002,19.624668],[78.914801,19.628285],[78.888756,19.636735],[78.880695,19.640429],[78.87594,19.64446],[78.87253,19.650119],[78.847518,19.724533],[78.845658,19.728796],[78.843591,19.732207],[78.83987,19.736987],[78.830568,19.74262],[78.826744,19.744506],[78.813205,19.755513],[78.805557,19.763755],[78.780029,19.776674],[78.740445,19.777243],[78.71781,19.773651],[78.711713,19.774349],[78.67864,19.792694],[78.616628,19.815199],[78.602469,19.817835],[78.584589,19.814734],[78.569913,19.81352],[78.560404,19.815225],[78.551929,19.818532],[78.541387,19.823984],[78.533739,19.824656],[78.526608,19.823674],[78.52051,19.821504],[78.512655,19.820341],[78.506557,19.818455],[78.502216,19.816052],[78.500046,19.813442],[78.498806,19.810445],[78.496015,19.806311],[78.491984,19.802306],[78.48382,19.798947],[78.477722,19.799128],[78.414883,19.822253],[78.410646,19.824863],[78.406822,19.828273],[78.403514,19.832485],[78.392869,19.853026],[78.386771,19.862276],[78.383257,19.866152],[78.369615,19.87517],[78.329204,19.891293],[78.321762,19.863258],[78.329514,19.838557],[78.363207,19.760448],[78.370958,19.750836],[78.383257,19.747839],[78.390492,19.744351],[78.39938,19.736082],[78.402791,19.728098],[78.403411,19.719262],[78.401034,19.709159],[78.397313,19.699754],[78.392352,19.691977],[78.383567,19.684535],[78.351528,19.66681],[78.341296,19.656294],[78.333441,19.643272],[78.328274,19.621723],[78.3106,19.589192],[78.305743,19.574826],[78.303262,19.551288],[78.306363,19.501678],[78.305329,19.49111],[78.302642,19.482765],[78.297578,19.475943],[78.29086,19.470621],[78.281145,19.466719],[78.240114,19.460182],[78.230812,19.45628],[78.22213,19.450854],[78.211898,19.440132],[78.204767,19.42822],[78.191848,19.39879],[78.186577,19.391039],[78.180582,19.384192],[78.174381,19.374657],[78.172314,19.365149],[78.172211,19.357088],[78.181616,19.310114],[78.181823,19.298512],[78.180066,19.279004],[78.174795,19.269599],[78.16787,19.264096],[78.157328,19.262261],[78.129216,19.262985],[78.118777,19.265207],[78.105755,19.269289],[78.100484,19.270064],[78.093869,19.269754],[78.075679,19.265569],[78.063897,19.264096],[78.050978,19.265414],[78.037025,19.270736],[78.024933,19.278591],[78.014701,19.28872],[77.992377,19.322749],[77.989069,19.324996],[77.984625,19.325384],[77.963128,19.322645],[77.954033,19.323756],[77.936359,19.329699],[77.927678,19.331482],[77.92003,19.331663],[77.911451,19.330267],[77.90308,19.327761],[77.892848,19.322438],[77.883133,19.31541],[77.86949,19.303267],[77.865459,19.29735],[77.865149,19.293035],[77.8698,19.290167],[77.887164,19.282906],[77.891298,19.279418],[77.889954,19.271356],[77.868663,19.24836],[77.860602,19.237922],[77.855021,19.228362],[77.845409,19.195909],[77.83559,19.170768],[77.832387,19.158934],[77.83187,19.149271],[77.834557,19.142372],[77.836417,19.134905],[77.836727,19.126688],[77.833627,19.121443],[77.827736,19.117541],[77.817607,19.113304],[77.810372,19.107955],[77.801794,19.099506],[77.788772,19.083409],[77.778023,19.07297],[77.768101,19.065038],[77.756629,19.059199],[77.752495,19.053566],[77.751978,19.045892],[77.758696,19.028115],[77.761486,19.018038],[77.763037,19.009021],[77.763347,18.99928],[77.76438,18.993518],[77.766551,18.989358],[77.769961,18.986102],[77.776679,18.985224],[77.789805,18.987859],[77.795283,18.987188],[77.800347,18.984035],[77.803964,18.978739],[77.805205,18.973855],[77.804275,18.964605],[77.804895,18.959954],[77.807272,18.95582],[77.813163,18.95197],[77.819054,18.950652],[77.826805,18.951117],[77.833937,18.950756],[77.839001,18.947009],[77.841378,18.938302],[77.839518,18.925848],[77.840551,18.91621],[77.842412,18.909208],[77.854814,18.896986],[77.897085,18.868022],[77.9037,18.861821],[77.910831,18.853113],[77.912072,18.846964],[77.912072,18.835362],[77.905664,18.832443],[77.886027,18.826422],[77.873831,18.826577],[77.864219,18.822546],[77.85037,18.814588],[77.839311,18.80955],[77.830526,18.798336],[77.819674,18.780043],[77.789082,18.715085],[77.781123,18.703768],[77.775542,18.702657],[77.770271,18.702683],[77.746604,18.705008],[77.736578,18.704052],[77.725416,18.700203],[77.712394,18.689454],[77.705779,18.679067],[77.703402,18.669119],[77.705262,18.658732],[77.70826,18.649844],[77.710223,18.637467],[77.70981,18.622688],[77.702989,18.597444],[77.696581,18.584215],[77.688519,18.574732],[77.679941,18.569978],[77.670019,18.566903],[77.660407,18.565353],[77.619273,18.56264],[77.610591,18.560418],[77.60222,18.55662],[77.592298,18.548145],[77.586097,18.539566],[77.580826,18.529154],[77.575245,18.522358],[77.559225,18.50763],[77.554781,18.500344],[77.558605,18.493161],[77.559535,18.487761],[77.557365,18.478692],[77.55261,18.472258],[77.54982,18.464946],[77.548063,18.442802],[77.543929,18.427325],[77.537831,18.417248],[77.529459,18.4096],[77.519537,18.40327],[77.508479,18.394872],[77.503724,18.389317],[77.502588,18.381591],[77.547753,18.352033],[77.552714,18.345831],[77.558295,18.336943],[77.557675,18.329889],[77.551163,18.307875],[77.509099,18.314567],[77.502794,18.312939],[77.493182,18.308986],[77.476853,18.292631],[77.461453,18.281933],[77.44688,18.279531],[77.437579,18.281908],[77.431894,18.288031],[77.429414,18.295809],[77.427347,18.316143],[77.419905,18.321466],[77.406573,18.327719],[77.371949,18.338726],[77.356137,18.345599],[77.346628,18.351516],[77.343838,18.361231],[77.342804,18.371282],[77.343734,18.416628],[77.341564,18.426292],[77.336603,18.435981],[77.324304,18.449133],[77.313348,18.456238],[77.301876,18.460269],[77.290921,18.460811],[77.281619,18.459675],[77.264773,18.45306],[77.232733,18.410659],[77.229012,18.399472],[77.226222,18.385441],[77.231803,18.355986],[77.23108,18.333791],[77.227359,18.322086],[77.221158,18.313818],[77.21351,18.310071],[77.203898,18.30803],[77.176923,18.297049],[77.117908,18.253847],[77.104576,18.24098],[77.097754,18.230412],[77.094034,18.219095],[77.092173,18.208682],[77.087729,18.197055],[77.080288,18.191345],[77.069539,18.189071],[77.050005,18.192172],[77.039567,18.191887],[77.027681,18.188606],[77.015485,18.182146],[77.00577,18.178348],[76.997502,18.177857],[76.970114,18.182069],[76.949546,18.179976],[76.914406,18.167677],[76.900247,18.157006],[76.892909,18.144293],[76.897456,18.105536],[76.897456,18.093004],[76.896216,18.079594],[76.883504,18.029365],[76.881747,18.018565],[76.881747,18.002777],[76.885054,17.974459],[76.882987,17.954899],[76.877613,17.933557],[76.863143,17.90374],[76.851568,17.890743],[76.839062,17.884232],[76.825316,17.88449],[76.771263,17.899114],[76.761961,17.900665],[76.754209,17.900897],[76.740877,17.898417],[76.742427,17.877074],[76.75483,17.849169],[76.756897,17.835372],[76.755656,17.825837],[76.751626,17.820127],[76.743977,17.813616],[76.734159,17.80819],[76.714832,17.799534],[76.70553,17.792118],[76.696228,17.776667],[76.68765,17.755015],[76.675971,17.706852],[76.660675,17.709772],[76.638454,17.728737],[76.625638,17.736385],[76.616543,17.745041],[76.601557,17.765479],[76.592669,17.770595],[76.583264,17.769975],[76.570861,17.767081],[76.553395,17.766409],[76.534688,17.775866],[76.522699,17.777029],[76.512984,17.772817],[76.50854,17.766539],[76.501408,17.748865],[76.496964,17.744421],[76.489626,17.740339],[76.47712,17.736876],[76.469472,17.732148],[76.465752,17.726308],[76.465958,17.71897],[76.466888,17.712537],[76.466268,17.704759],[76.461721,17.697783],[76.453969,17.692383],[76.431335,17.683779],[76.421723,17.67812],[76.416452,17.671376],[76.413455,17.664788],[76.410251,17.65391],[76.390614,17.636779],[76.322194,17.61771],[76.313099,17.609752],[76.311549,17.601071],[76.31744,17.592725],[76.331703,17.576292],[76.336354,17.568308],[76.337284,17.559962],[76.336147,17.551616],[76.332116,17.538129],[76.332323,17.534124],[76.338834,17.52291],[76.340074,17.515546],[76.336354,17.508983],[76.328086,17.500844],[76.31806,17.487383],[76.316303,17.473869],[76.321471,17.46418],[76.332943,17.454465],[76.336457,17.445861],[76.341005,17.423821],[76.347413,17.413434],[76.36984,17.398344],[76.378108,17.389766],[76.380382,17.378759],[76.375008,17.371937],[76.353614,17.357029],[76.343795,17.351861],[76.330876,17.350207],[76.303798,17.356564],[76.291189,17.35814],[76.265454,17.357675],[76.255015,17.360414],[76.245403,17.36708],[76.228453,17.382479],[76.219978,17.386872],[76.210367,17.388913],[76.198274,17.387828],[76.184115,17.384391],[76.166442,17.374134],[76.15652,17.370904],[76.146288,17.371111],[76.127064,17.381317],[76.112698,17.381963],[76.094715,17.377751],[76.061332,17.357649],[76.040558,17.349355],[76.027845,17.345737],[76.021024,17.346332],[76.009862,17.353696],[75.996736,17.349277],[75.96325,17.342585],[75.952191,17.336617],[75.936482,17.325868],[75.926973,17.33101],[75.919738,17.341629],[75.91085,17.347494],[75.897724,17.352171],[75.89266,17.363902],[75.8908,17.379224],[75.886976,17.394649],[75.87757,17.411961],[75.870026,17.416147],[75.845428,17.402116],[75.831785,17.416973],[75.815869,17.405785],[75.799332,17.385968],[75.783933,17.374805],[75.769877,17.377208],[75.762952,17.385115],[75.758611,17.395553],[75.752927,17.405527],[75.740628,17.415681],[75.729983,17.418239],[75.704764,17.415759],[75.677996,17.425267],[75.667041,17.446171],[75.659599,17.467074],[75.643373,17.476582],[75.633141,17.480303],[75.621772,17.47635],[75.61309,17.471595],[75.607613,17.46449],[75.601928,17.454878],[75.588286,17.425293],[75.580948,17.415191],[75.573506,17.408421],[75.560174,17.398912],[75.551492,17.389301],[75.552836,17.365917],[75.569786,17.334291],[75.574953,17.318271],[75.578674,17.298764],[75.582395,17.290263],[75.587356,17.285095],[75.602548,17.277886],[75.61123,17.269825],[75.616398,17.258663],[75.621049,17.242436],[75.622392,17.230602],[75.622082,17.220939],[75.618361,17.211715],[75.61309,17.20311],[75.608233,17.192775],[75.605029,17.17921],[75.605132,17.158126],[75.609473,17.145956],[75.615881,17.137352],[75.625183,17.129342],[75.634381,17.119395],[75.643476,17.103633],[75.646783,17.091412],[75.646267,17.080896],[75.642443,17.075056],[75.62911,17.066349],[75.624563,17.061207],[75.622289,17.053507],[75.622909,17.049166],[75.637482,17.028909],[75.640272,17.018936],[75.641512,17.010177],[75.640686,16.999118],[75.638102,16.990514],[75.634071,16.983227],[75.627353,16.976974],[75.616708,16.974675],[75.602859,16.978163],[75.589526,16.986405],[75.563171,17.009298],[75.553766,17.014905],[75.548702,17.015267],[75.543741,17.012011],[75.532992,16.99687],[75.526377,16.989196],[75.517799,16.982013],[75.509117,16.976664],[75.471704,16.963048],[75.461368,16.96173],[75.45341,16.964055],[75.447106,16.970334],[75.441731,16.977336],[75.434807,16.98222],[75.426125,16.984855],[75.370831,16.984467],[75.360599,16.981987],[75.338895,16.9693],[75.325253,16.96359],[75.307063,16.959869],[75.256006,16.959172],[75.245671,16.953849],[75.241434,16.947829],[75.24102,16.937287],[75.243811,16.918115],[75.24257,16.902095],[75.197095,16.877006],[75.166503,16.867937],[75.154824,16.868583],[75.144489,16.871193],[75.13405,16.876619],[75.118237,16.8822],[75.108315,16.891114],[75.101494,16.899666],[75.098083,16.904653],[75.093226,16.908581],[75.075552,16.916151],[75.066871,16.923179],[75.061186,16.931809],[75.057879,16.943075],[75.053641,16.950671],[75.048887,16.953203],[75.043409,16.952816],[74.999588,16.94509],[74.970339,16.955219],[74.963828,16.954211],[74.960004,16.951136],[74.951322,16.920802],[74.948015,16.914704],[74.933235,16.902612],[74.928894,16.897987],[74.92228,16.889331],[74.913081,16.884267],[74.899336,16.878634],[74.853964,16.865612],[74.845799,16.861245],[74.844559,16.858454],[74.844042,16.854734],[74.844559,16.852021],[74.85138,16.839412],[74.855204,16.830498],[74.858821,16.818922],[74.866676,16.776211],[74.866676,16.771457],[74.865643,16.766677],[74.863472,16.763111],[74.857581,16.757918],[74.85014,16.757143],[74.839081,16.759081],[74.823991,16.764688],[74.807145,16.76753],[74.796086,16.766315],[74.788025,16.762646],[74.78048,16.757246],[74.757949,16.745335],[74.74503,16.742673],[74.739035,16.740296],[74.735935,16.738203],[74.728493,16.72668],[74.720432,16.719419],[74.713197,16.716318],[74.704825,16.715233],[74.694283,16.715233],[74.688289,16.712675],[74.684878,16.708438],[74.675267,16.677561],[74.672166,16.672729],[74.667515,16.667975],[74.65966,16.663376],[74.644467,16.65193],[74.671959,16.62542],[74.669169,16.614154],[74.665758,16.606222],[74.655319,16.602501],[74.636096,16.60046],[74.629171,16.598858],[74.62173,16.59568],[74.614082,16.590564],[74.581215,16.562038],[74.573257,16.557233],[74.563645,16.553073],[74.557444,16.551652],[74.55238,16.551832],[74.548763,16.553357],[74.546592,16.555476],[74.545765,16.558318],[74.545662,16.562788],[74.545972,16.566276],[74.545972,16.570539],[74.544422,16.575268],[74.540804,16.581365],[74.530883,16.593975],[74.528609,16.598806],[74.526542,16.61511],[74.524578,16.623843],[74.51972,16.625962],[74.511659,16.627719],[74.478586,16.630587],[74.469801,16.633352],[74.454608,16.642214],[74.441276,16.646426],[74.434868,16.646762],[74.43001,16.644333],[74.427426,16.639243],[74.418745,16.605524],[74.415437,16.598858],[74.411407,16.592657],[74.406342,16.587541],[74.400555,16.583717],[74.387739,16.577102],[74.382261,16.573588],[74.3773,16.569377],[74.36035,16.550205],[74.353219,16.543512],[74.346708,16.541781],[74.340507,16.544313],[74.335752,16.549197],[74.331205,16.554985],[74.326864,16.559584],[74.321696,16.563253],[74.314772,16.564571],[74.311051,16.563046],[74.307434,16.558964],[74.300509,16.538061],[74.298029,16.533797],[74.292448,16.528371],[74.28542,16.526433],[74.278288,16.527777],[74.271674,16.532144],[74.264956,16.538887],[74.257928,16.543926],[74.248316,16.545089],[74.243562,16.539585],[74.238394,16.519845],[74.225682,16.492534],[74.225061,16.488684],[74.225992,16.486152],[74.228782,16.4838],[74.232193,16.48256],[74.234983,16.482328],[74.237671,16.483206],[74.240254,16.48442],[74.251416,16.491784],[74.259168,16.495169],[74.263715,16.496332],[74.266919,16.496048],[74.269503,16.4938],[74.271777,16.489536],[74.274257,16.477832],[74.274567,16.473181],[74.275394,16.468943],[74.276428,16.46561],[74.279425,16.461399],[74.284386,16.45897],[74.290277,16.457678],[74.295651,16.4576],[74.306814,16.459047],[74.310844,16.458866],[74.314565,16.456283],[74.317356,16.451761],[74.318596,16.444759],[74.318906,16.437472],[74.320146,16.430238],[74.322627,16.424631],[74.326451,16.420032],[74.332342,16.416078],[74.338543,16.412719],[74.352496,16.406958],[74.35601,16.404425],[74.35787,16.40073],[74.356526,16.395304],[74.351979,16.390912],[74.346708,16.388121],[74.339576,16.3867],[74.322006,16.385073],[74.310741,16.38192],[74.306193,16.377114],[74.304333,16.36944],[74.30578,16.352723],[74.308364,16.344455],[74.312395,16.335877],[74.319526,16.32518],[74.321076,16.321097],[74.321076,16.31624],[74.319526,16.297429],[74.320973,16.289368],[74.323763,16.282934],[74.328001,16.280557],[74.332445,16.280531],[74.337406,16.282572],[74.341127,16.284794],[74.349808,16.291228],[74.354769,16.293709],[74.359937,16.294329],[74.366241,16.292882],[74.451921,16.253944],[74.458949,16.24937],[74.466184,16.242394],[74.470835,16.235753],[74.473935,16.227925],[74.476002,16.217331],[74.476312,16.20281],[74.470421,16.161236],[74.471971,16.127879],[74.469594,16.109792],[74.464323,16.101601],[74.457502,16.097416],[74.415954,16.096356],[74.406342,16.093178],[74.397971,16.088346],[74.386912,16.076771],[74.383501,16.069485],[74.384638,16.062121],[74.389393,16.058012],[74.396524,16.055067],[74.419055,16.049512],[74.424016,16.047651],[74.42815,16.044938],[74.43125,16.040752],[74.433111,16.031735],[74.433007,16.018583],[74.42877,15.993753],[74.421949,15.9767],[74.413577,15.962644],[74.400865,15.944893],[74.382261,15.908099],[74.354459,15.872572],[74.351565,15.867378],[74.352496,15.86296],[74.365931,15.851307],[74.370789,15.844795],[74.373063,15.835494],[74.369549,15.825779],[74.349498,15.789372],[74.331102,15.761932],[74.321593,15.752734],[74.30423,15.73966],[74.293998,15.73444],[74.281595,15.729867],[74.255964,15.726017],[74.223511,15.726095],[74.217517,15.727516],[74.214519,15.729195],[74.213899,15.731572],[74.214209,15.734595],[74.215346,15.739014],[74.216587,15.75108],[74.21576,15.757876],[74.213796,15.76449],[74.209559,15.768805],[74.202531,15.771053],[74.194469,15.76958],[74.186097,15.76573],[74.138142,15.729505],[74.125016,15.713666],[74.117058,15.690205],[74.112407,15.682247],[74.107136,15.677338],[74.094837,15.672816],[74.092873,15.669302],[74.094217,15.664832],[74.099488,15.655324],[74.100625,15.640286],[74.061557,15.639511],[74.002853,15.616954],[73.990347,15.613543],[73.979392,15.614861],[73.964406,15.618814],[73.942805,15.632457],[73.931953,15.644317],[73.924821,15.658347],[73.912832,15.710023],[73.908388,15.721237],[73.900327,15.730539],[73.891438,15.735939],[73.876866,15.739815],[73.857745,15.74289],[73.850511,15.744982],[73.843793,15.74922],[73.840279,15.754129],[73.838108,15.761364],[73.835731,15.777332],[73.832321,15.781492],[73.826429,15.783042],[73.817851,15.776841],[73.813097,15.77188],[73.798938,15.749323],[73.792736,15.741598],[73.784262,15.738652],[73.770412,15.736611],[73.722146,15.734311],[73.700857,15.723212]]]}}]}
