{"type":"FeatureCollection","features":[{"type":"Feature","properties":{"id":"IN-SK","country":"IN","name_en":"Sikkim"},"geometry":{"type":"Polygon","coordinates":[[[88.892331,27.315543],[88.884631,27.286346],[88.876116,27.280486],[88.861428,27.270378],[88.801174,27.256425],[88.775852,27.240871],[88.754355,27.212604],[88.738438,27.179789],[88.730067,27.150954],[88.733082,27.148972],[88.73291,27.148937],[88.719371,27.146199],[88.693326,27.155113],[88.671725,27.17121],[88.66449,27.173355],[88.613537,27.168135],[88.542327,27.178083],[88.518039,27.176223],[88.447656,27.114495],[88.423988,27.099897],[88.403628,27.090827],[88.371692,27.084574],[88.357429,27.085117],[88.34854,27.087959],[88.343166,27.091525],[88.336552,27.098966],[88.233095,27.137104],[88.193408,27.143537],[88.148553,27.137853],[88.118167,27.138499],[88.100597,27.143382],[88.088815,27.15165],[88.084474,27.159428],[88.081993,27.169582],[88.081167,27.1894],[88.077343,27.198831],[88.069591,27.209037],[88.036208,27.22932],[88.023186,27.242446],[88.004663,27.249163],[88.029024,27.298076],[88.035122,27.322571],[88.032538,27.333888],[88.020136,27.35337],[88.015795,27.364222],[88.014762,27.378072],[88.017242,27.389234],[88.02582,27.412075],[88.029593,27.418741],[88.034812,27.423805],[88.039308,27.42949],[88.041633,27.438068],[88.039773,27.442357],[88.030781,27.450729],[88.028094,27.455121],[88.02334,27.474655],[88.0221,27.484241],[88.02334,27.494912],[88.048765,27.545348],[88.11088,27.639503],[88.134858,27.723167],[88.149327,27.748772],[88.159662,27.77412],[88.154598,27.815151],[88.166587,27.833599],[88.164623,27.845356],[88.156407,27.851273],[88.143023,27.855717],[88.118218,27.860885],[88.104885,27.879721],[88.097496,27.904008],[88.099924,27.928322],[88.115737,27.947262],[88.126693,27.95044],[88.151187,27.94721],[88.16297,27.9469],[88.174855,27.949768],[88.197851,27.958295],[88.37877,27.982634],[88.399751,27.994726],[88.399854,27.994726],[88.399906,27.994881],[88.455768,28.03152],[88.475405,28.036248],[88.50207,28.028885],[88.51716,28.039582],[88.530802,28.059012],[88.552817,28.078055],[88.594003,28.106606],[88.610488,28.105831],[88.631675,28.083352],[88.652035,28.069399],[88.71012,28.061983],[88.735648,28.055265],[88.780141,28.028342],[88.802931,28.011005],[88.817503,27.994881],[88.81771,27.994881],[88.81771,27.994726],[88.819674,27.977337],[88.809752,27.944497],[88.810682,27.927857],[88.818899,27.915196],[88.842773,27.892407],[88.851558,27.877163],[88.855072,27.859179],[88.853884,27.843676],[88.805669,27.655109],[88.783087,27.622036],[88.767377,27.586198],[88.748154,27.560128],[88.741022,27.54571],[88.741642,27.53168],[88.757559,27.511448],[88.757197,27.494964],[88.754355,27.464216],[88.759781,27.435071],[88.773578,27.408509],[88.795386,27.385926],[88.808202,27.378382],[88.819829,27.373627],[88.830836,27.367323],[88.852023,27.342363],[88.864632,27.33239],[88.892331,27.315543]]]}}]}
