{"type":"FeatureCollection","features":[{"type":"Feature","properties":{"id":"BE-VWV","country":"BE","name_en":"West Flanders"},"geometry":{"type":"Polygon","coordinates":[[[2.650618,50.812248],[2.642453,50.812455],[2.627777,50.814419],[2.620439,50.816486],[2.615168,50.82217],[2.60659,50.834831],[2.602042,50.838087],[2.58995,50.842014],[2.586746,50.845425],[2.58778,50.850024],[2.595531,50.861134],[2.596668,50.867646],[2.576928,50.911519],[2.582715,50.920666],[2.605763,50.935238],[2.611654,50.941233],[2.60845,50.961128],[2.592741,50.976114],[2.55698,51.001177],[2.547059,51.020479],[2.537033,51.06461],[2.5218,51.087541],[2.542003,51.096869],[2.579926,51.104804],[2.715668,51.169501],[2.923595,51.246487],[3.124848,51.329657],[3.348969,51.375149],[3.349415,51.375223],[3.358068,51.336713],[3.353934,51.311908],[3.353211,51.288602],[3.36737,51.263487],[3.391658,51.24677],[3.398798,51.244698],[3.400031,51.242661],[3.366958,51.229586],[3.384063,51.203645],[3.359826,51.192845],[3.387008,51.187212],[3.410314,51.161115],[3.374451,51.11812],[3.330681,51.100137],[3.4438,51.049313],[3.422148,51.039469],[3.452017,51.007042],[3.425869,50.982418],[3.442974,50.967794],[3.412071,50.958957],[3.460234,50.943712],[3.440131,50.943945],[3.455324,50.934385],[3.4484,50.929863],[3.424732,50.932059],[3.432587,50.920561],[3.419151,50.91219],[3.427316,50.898444],[3.450467,50.907461],[3.466073,50.903353],[3.474031,50.884595],[3.450467,50.869298],[3.512375,50.835502],[3.499456,50.825218],[3.522504,50.805168],[3.520023,50.797907],[3.457608,50.768515],[3.412753,50.747405],[3.367432,50.717303],[3.363453,50.709655],[3.353635,50.711645],[3.347795,50.711929],[3.323146,50.723453],[3.324582,50.737157],[3.303302,50.756423],[3.260824,50.75234],[3.219689,50.767275],[3.175068,50.752715],[3.162811,50.749939],[3.146195,50.768892],[3.129245,50.779072],[3.103304,50.784085],[3.023817,50.768262],[3.022962,50.771618],[3.014424,50.80513],[2.998824,50.811613],[2.940637,50.796678],[2.939707,50.792234],[2.960205,50.776796],[2.922447,50.766965],[2.918106,50.757714],[2.889632,50.754149],[2.875421,50.762469],[2.868807,50.761228],[2.842193,50.750841],[2.862502,50.709552],[2.866726,50.700091],[2.786734,50.723365],[2.768234,50.733235],[2.762963,50.739385],[2.749527,50.75959],[2.743842,50.766205],[2.706635,50.788787],[2.700021,50.79628],[2.69692,50.80305],[2.691856,50.808838],[2.67873,50.81323],[2.669222,50.813902],[2.650618,50.812248]]]}},{"type":"Feature","properties":{"id":"BE-VOV","country":"BE","name_en":"East Flanders"},"geometry":{"type":"Polygon","coordinates":[[[3.398798,51.244698],[3.421941,51.237985],[3.453877,51.235633],[3.501212,51.240284],[3.504106,51.249741],[3.501522,51.262402],[3.503383,51.273952],[3.514338,51.281031],[3.529014,51.283331],[3.545034,51.283925],[3.584825,51.289532],[3.609526,51.290436],[3.635054,51.287827],[3.757321,51.262324],[3.776234,51.254521],[3.781402,51.241421],[3.779748,51.230311],[3.781402,51.219872],[3.796285,51.208762],[3.808687,51.205325],[3.927026,51.206255],[3.949454,51.210777],[3.995032,51.23323],[4.118952,51.272401],[4.168562,51.29687],[4.207939,51.330589],[4.21352,51.340537],[4.220962,51.363817],[4.221491,51.368001],[4.222179,51.367743],[4.241059,51.356594],[4.249034,51.346666],[4.256114,51.328437],[4.272634,51.315823],[4.290782,51.305894],[4.302989,51.296088],[4.306651,51.28974],[4.308116,51.283637],[4.305431,51.276597],[4.29865,51.269572],[4.295015,51.267879],[4.288607,51.257854],[4.309846,51.21491],[4.301113,51.211396],[4.325349,51.189434],[4.33062,51.176825],[4.333049,51.169694],[4.328553,51.147783],[4.315995,51.132176],[4.276204,51.12396],[4.23569,51.12396],[4.215846,51.121531],[4.197966,51.113625],[4.185357,51.104271],[4.181998,51.099879],[4.183342,51.095641],[4.184582,51.086701],[4.187528,51.077399],[4.193315,51.066082],[4.196416,51.054507],[4.191403,51.044611],[4.18913,51.043861],[4.201274,51.037195],[4.212281,51.034069],[4.231866,51.044275],[4.240341,51.038074],[4.217087,50.990118],[4.194142,50.983503],[4.161741,50.990583],[4.146497,50.970584],[4.160708,50.942653],[4.160191,50.929915],[4.13704,50.91958],[4.091255,50.931827],[4.100143,50.9125],[4.073633,50.900046],[4.088102,50.891933],[4.08712,50.881391],[4.040405,50.838448],[4.065985,50.835425],[4.074873,50.820723],[4.060352,50.792636],[4.03038,50.776488],[4.013326,50.772147],[3.99927,50.780467],[3.982166,50.76685],[3.956276,50.779769],[3.943977,50.775351],[3.931161,50.757574],[3.952038,50.739487],[3.950643,50.734113],[3.918293,50.728842],[3.894988,50.734164],[3.884403,50.751384],[3.828024,50.743503],[3.814692,50.751901],[3.774635,50.74897],[3.757795,50.780322],[3.714543,50.768644],[3.704001,50.782106],[3.675321,50.771925],[3.634651,50.721851],[3.606643,50.734202],[3.540545,50.73494],[3.533979,50.766421],[3.494143,50.758877],[3.457608,50.768515],[3.520023,50.797907],[3.522504,50.805168],[3.499456,50.825218],[3.512375,50.835502],[3.450467,50.869298],[3.474031,50.884595],[3.466073,50.903353],[3.450467,50.907461],[3.427316,50.898444],[3.419151,50.91219],[3.432587,50.920561],[3.424732,50.932059],[3.4484,50.929863],[3.455324,50.934385],[3.440131,50.943945],[3.460234,50.943712],[3.412071,50.958957],[3.442974,50.967794],[3.425869,50.982418],[3.452017,51.007042],[3.422148,51.039469],[3.4438,51.049313],[3.330681,51.100137],[3.374451,51.11812],[3.410314,51.161115],[3.387008,51.187212],[3.359826,51.192845],[3.384063,51.203645],[3.366958,51.229586],[3.400031,51.242661],[3.398798,51.244698]]]}},{"type":"Feature","properties":{"id":"BE-VAN","country":"BE","name_en":"Antwerp"},"geometry":{"type":"Polygon","coordinates":[[[4.764184,51.496238],[4.778654,51.495359],[4.796844,51.491018],[4.813587,51.48412],[4.823922,51.475645],[4.826093,51.460555],[4.819891,51.446215],[4.815447,51.431074],[4.822682,51.413685],[4.779067,51.426423],[4.767802,51.425389],[4.762117,51.413375],[4.783304,51.407638],[4.853274,51.40614],[4.871671,51.403039],[4.910325,51.391903],[4.931926,51.395624],[4.957144,51.410997],[4.980192,51.430531],[4.995798,51.446706],[5.002723,51.459005],[5.006133,51.468307],[5.012128,51.474327],[5.027527,51.476807],[5.030318,51.47443],[5.06029,51.461976],[5.079927,51.438541],[5.076413,51.421901],[5.065251,51.405907],[5.061737,51.384255],[5.068145,51.37454],[5.102561,51.350665],[5.107832,51.341984],[5.118064,51.319918],[5.122922,51.313381],[5.140182,51.307386],[5.178836,51.309505],[5.197336,51.308342],[5.214906,51.294338],[5.215423,51.258733],[5.232993,51.255916],[5.239456,51.25693],[5.227413,51.25067],[5.216509,51.212482],[5.257178,51.188478],[5.260434,51.148067],[5.235371,51.134037],[5.203021,51.140005],[5.180387,51.119206],[5.130261,51.117552],[5.08985,51.085203],[5.009803,51.075126],[5.0097,51.061431],[4.980916,51.036007],[4.967067,51.046471],[4.948308,51.045722],[4.909706,51.035903],[4.882834,51.020865],[4.870587,51.024689],[4.818549,51.011073],[4.805733,51.016525],[4.78868,51.040089],[4.75602,51.024379],[4.733903,51.027351],[4.694939,50.999781],[4.706256,51.015594],[4.679384,51.024844],[4.606469,51.012494],[4.593394,50.992107],[4.578047,50.992288],[4.546162,51.004122],[4.528024,50.993425],[4.494279,51.009729],[4.476141,50.992392],[4.453816,51.006809],[4.393097,50.997456],[4.388239,51.012287],[4.369532,51.01593],[4.379092,51.031097],[4.347931,51.01792],[4.34142,51.019935],[4.34819,51.027015],[4.29889,51.041019],[4.274602,51.043681],[4.240341,51.038074],[4.231866,51.044275],[4.212281,51.034069],[4.201274,51.037195],[4.18913,51.043861],[4.191403,51.044611],[4.196416,51.054507],[4.193315,51.066082],[4.187528,51.077399],[4.184582,51.086701],[4.183342,51.095641],[4.181998,51.099879],[4.185357,51.104271],[4.197966,51.113625],[4.215846,51.121531],[4.23569,51.12396],[4.276204,51.12396],[4.315995,51.132176],[4.328553,51.147783],[4.333049,51.169694],[4.33062,51.176825],[4.325349,51.189434],[4.301113,51.211396],[4.309846,51.21491],[4.288607,51.257854],[4.295015,51.267879],[4.29865,51.269572],[4.296723,51.267564],[4.30836,51.271226],[4.316417,51.276842],[4.330821,51.296088],[4.29713,51.305162],[4.289317,51.309149],[4.285411,51.31802],[4.286143,51.339667],[4.283051,51.350084],[4.275645,51.3581],[4.261068,51.369379],[4.281124,51.368947],[4.290105,51.368752],[4.326278,51.356427],[4.345605,51.352293],[4.392217,51.350407],[4.411234,51.356737],[4.416195,51.373971],[4.410097,51.38379],[4.38767,51.400533],[4.379918,51.409525],[4.380642,51.419653],[4.387153,51.427456],[4.38922,51.434588],[4.377128,51.442882],[4.429424,51.461976],[4.483064,51.474327],[4.512623,51.477376],[4.525232,51.475929],[4.533191,51.467583],[4.531847,51.450866],[4.523372,51.438412],[4.521512,51.428645],[4.540632,51.420067],[4.553861,51.419291],[4.582697,51.422599],[4.614633,51.41756],[4.630136,51.418206],[4.643571,51.42141],[4.653907,51.426216],[4.731215,51.485618],[4.764184,51.496238]]]}},{"type":"Feature","properties":{"id":"BE-VLI","country":"BE","name_en":"Limburg"},"geometry":{"type":"MultiPolygon","coordinates":[[[[5.551407,51.216767],[5.568373,51.207651],[5.62501,51.196902],[5.638549,51.190907],[5.648161,51.183957],[5.659013,51.179074],[5.67617,51.179177],[5.718028,51.184603],[5.730844,51.18375],[5.747173,51.177601],[5.768051,51.159462],[5.781383,51.152409],[5.812079,51.157318],[5.829132,51.156465],[5.83802,51.143727],[5.840501,51.138921],[5.826445,51.130162],[5.823241,51.118741],[5.845979,51.103393],[5.83678,51.099492],[5.826652,51.096908],[5.815903,51.095875],[5.804948,51.096624],[5.807428,51.089389],[5.808978,51.08634],[5.811769,51.082309],[5.804327,51.068589],[5.79885,51.061484],[5.791305,51.054998],[5.779626,51.061303],[5.771461,51.058125],[5.766397,51.048436],[5.76402,51.035181],[5.777559,51.023553],[5.761746,50.999162],[5.722369,50.959423],[5.744693,50.963247],[5.754305,50.963092],[5.76402,50.959423],[5.752548,50.947227],[5.735288,50.923973],[5.722369,50.911674],[5.717614,50.909245],[5.706039,50.90661],[5.694463,50.903664],[5.622323,50.852659],[5.624493,50.830284],[5.64072,50.815039],[5.657432,50.807641],[5.608484,50.776421],[5.521926,50.76004],[5.523838,50.743762],[5.496811,50.728853],[5.480843,50.726399],[5.461155,50.739964],[5.453248,50.722264],[5.430976,50.720869],[5.404095,50.727498],[5.391753,50.747121],[5.378214,50.750841],[5.332119,50.740971],[5.312275,50.729706],[5.307366,50.718389],[5.275585,50.729447],[5.243381,50.716879],[5.236155,50.728233],[5.228921,50.71875],[5.16939,50.723556],[5.180439,50.707164],[5.167736,50.697253],[5.101103,50.709756],[5.120442,50.736025],[5.101115,50.743311],[5.114551,50.763568],[5.106386,50.781965],[5.151603,50.811628],[5.129486,50.816588],[5.136514,50.850256],[5.153205,50.879634],[5.172687,50.875448],[5.177493,50.878626],[5.186226,50.906299],[5.171654,50.914309],[5.136617,50.914593],[5.133155,50.922525],[5.094552,50.910975],[5.077809,50.922577],[5.061221,50.918029],[5.054658,50.921233],[5.041481,50.943092],[5.081685,50.965649],[5.082615,50.987741],[5.12437,50.999833],[5.117962,51.023346],[5.12778,51.024948],[5.132948,51.01699],[5.158269,51.023501],[5.131191,51.045463],[5.108918,51.051871],[5.080858,51.049546],[5.081013,51.024483],[5.063185,51.017455],[5.042514,51.025568],[5.022464,51.020659],[5.006341,51.040399],[4.980916,51.036007],[5.0097,51.061431],[5.009803,51.075126],[5.08985,51.085203],[5.130261,51.117552],[5.180387,51.119206],[5.203021,51.140005],[5.235371,51.134037],[5.260434,51.148067],[5.257178,51.188478],[5.216509,51.212482],[5.227413,51.25067],[5.239456,51.25693],[5.270717,51.261833],[5.389056,51.258707],[5.409933,51.263539],[5.451894,51.282116],[5.471635,51.288085],[5.493235,51.286535],[5.516696,51.277233],[5.535197,51.26204],[5.542328,51.242661],[5.545532,51.219924],[5.551407,51.216767]]],[[[5.752444,50.773439],[5.76247,50.771011],[5.782933,50.756696],[5.793165,50.752149],[5.879878,50.753544],[5.891288,50.751246],[5.910158,50.73597],[5.886917,50.71335],[5.878184,50.710999],[5.854154,50.718854],[5.818291,50.715598],[5.775968,50.751203],[5.750284,50.746862],[5.735298,50.756371],[5.732777,50.758851],[5.743556,50.769099],[5.752444,50.773439]]]]}},{"type":"Feature","properties":{"id":"BE-VBR","country":"BE","name_en":"Flemish Brabant"},"geometry":{"type":"Polygon","coordinates":[[[4.099739,50.707123],[4.072712,50.712911],[4.058501,50.696013],[4.051473,50.702834],[4.028012,50.695031],[4.008995,50.698984],[3.988842,50.688726],[3.928225,50.689812],[3.906934,50.694669],[3.892771,50.70641],[3.887969,50.717562],[3.894988,50.734164],[3.918293,50.728842],[3.950643,50.734113],[3.952038,50.739487],[3.931161,50.757574],[3.943977,50.775351],[3.956276,50.779769],[3.982166,50.76685],[3.99927,50.780467],[4.013326,50.772147],[4.03038,50.776488],[4.060352,50.792636],[4.074873,50.820723],[4.065985,50.835425],[4.040405,50.838448],[4.08712,50.881391],[4.088102,50.891933],[4.073633,50.900046],[4.100143,50.9125],[4.091255,50.931827],[4.13704,50.91958],[4.160191,50.929915],[4.160708,50.942653],[4.146497,50.970584],[4.161741,50.990583],[4.194142,50.983503],[4.217087,50.990118],[4.240341,51.038074],[4.274602,51.043681],[4.29889,51.041019],[4.34819,51.027015],[4.34142,51.019935],[4.347931,51.01792],[4.379092,51.031097],[4.369532,51.01593],[4.388239,51.012287],[4.393097,50.997456],[4.453816,51.006809],[4.476141,50.992392],[4.494279,51.009729],[4.528024,50.993425],[4.546162,51.004122],[4.578047,50.992288],[4.593394,50.992107],[4.606469,51.012494],[4.679384,51.024844],[4.706256,51.015594],[4.694939,50.999781],[4.733903,51.027351],[4.75602,51.024379],[4.78868,51.040089],[4.805733,51.016525],[4.818549,51.011073],[4.870587,51.024689],[4.882834,51.020865],[4.909706,51.035903],[4.948308,51.045722],[4.967067,51.046471],[4.980916,51.036007],[5.006341,51.040399],[5.022464,51.020659],[5.042514,51.025568],[5.063185,51.017455],[5.081013,51.024483],[5.080858,51.049546],[5.108918,51.051871],[5.131191,51.045463],[5.158269,51.023501],[5.132948,51.01699],[5.12778,51.024948],[5.117962,51.023346],[5.12437,50.999833],[5.082615,50.987741],[5.081685,50.965649],[5.041481,50.943092],[5.054658,50.921233],[5.061221,50.918029],[5.077809,50.922577],[5.094552,50.910975],[5.133155,50.922525],[5.136617,50.914593],[5.171654,50.914309],[5.186226,50.906299],[5.177493,50.878626],[5.172687,50.875448],[5.153205,50.879634],[5.136514,50.850256],[5.129486,50.816588],[5.151603,50.811628],[5.106386,50.781965],[5.114551,50.763568],[5.101115,50.743311],[5.120442,50.736025],[5.101103,50.709756],[5.074718,50.706917],[5.059526,50.711567],[5.043041,50.725107],[5.043547,50.742835],[5.019103,50.751932],[4.981442,50.770944],[4.93235,50.746294],[4.917209,50.744795],[4.904548,50.751565],[4.908049,50.769573],[4.832614,50.764639],[4.836888,50.775492],[4.812926,50.776886],[4.791532,50.799469],[4.749622,50.808667],[4.722854,50.80257],[4.714163,50.789822],[4.710243,50.797298],[4.692675,50.790994],[4.640481,50.799572],[4.636347,50.773993],[4.654627,50.758398],[4.63521,50.744072],[4.601824,50.74295],[4.596551,50.764687],[4.57294,50.748361],[4.52917,50.741824],[4.526948,50.729447],[4.495116,50.741075],[4.490206,50.746087],[4.494532,50.757612],[4.480026,50.758955],[4.458012,50.754562],[4.421735,50.736553],[4.373676,50.731825],[4.367888,50.716735],[4.349026,50.717614],[4.329906,50.734305],[4.32262,50.729034],[4.33325,50.719049],[4.311406,50.718802],[4.30877,50.703558],[4.301846,50.698287],[4.287221,50.695238],[4.259574,50.701077],[4.239989,50.692034],[4.207433,50.709087],[4.180251,50.708725],[4.158599,50.727845],[4.149038,50.730378],[4.139117,50.727949],[4.13183,50.716942],[4.107491,50.7172],[4.099739,50.707123]],[[4.479746,50.795423],[4.446488,50.810993],[4.454911,50.819778],[4.476099,50.821535],[4.460231,50.853214],[4.42003,50.869491],[4.435688,50.879671],[4.436194,50.889293],[4.420495,50.906336],[4.403286,50.914811],[4.377345,50.898584],[4.334609,50.903132],[4.297918,50.891453],[4.278953,50.867785],[4.289174,50.856428],[4.282829,50.839622],[4.257456,50.836934],[4.24557,50.821638],[4.283035,50.808409],[4.301226,50.814404],[4.327632,50.778979],[4.355279,50.767145],[4.377242,50.764639],[4.398429,50.767791],[4.479746,50.795423]]]}},{"type":"Feature","properties":{"id":"BE-BRU","country":"BE","name_en":"Brussels Capital"},"geometry":{"type":"Polygon","coordinates":[[[4.479746,50.795423],[4.398429,50.767791],[4.377242,50.764639],[4.355279,50.767145],[4.327632,50.778979],[4.301226,50.814404],[4.283035,50.808409],[4.24557,50.821638],[4.257456,50.836934],[4.282829,50.839622],[4.289174,50.856428],[4.278953,50.867785],[4.297918,50.891453],[4.334609,50.903132],[4.377345,50.898584],[4.403286,50.914811],[4.420495,50.906336],[4.436194,50.889293],[4.435688,50.879671],[4.42003,50.869491],[4.460231,50.853214],[4.476099,50.821535],[4.454911,50.819778],[4.446488,50.810993],[4.479746,50.795423]]]}}]}
