{"type":"FeatureCollection","features":[{"type":"Feature","properties":{"id":"IN-OR","country":"IN","name_en":"Odisha"},"geometry":{"type":"Polygon","coordinates":[[[87.477387,21.613593],[87.468761,21.611396],[87.404959,21.586656],[87.341807,21.562405],[87.293468,21.553656],[87.256114,21.561998],[87.245942,21.556586],[87.235199,21.554511],[87.211436,21.554592],[87.200938,21.551988],[87.113048,21.507961],[87.063731,21.475002],[86.917654,21.327379],[86.866954,21.256049],[86.83725,21.174709],[86.844005,21.082221],[86.952159,20.849107],[86.965668,20.805976],[86.953868,20.780585],[86.93629,20.787502],[86.916515,20.788072],[86.878754,20.780585],[86.889334,20.764472],[86.910655,20.756415],[86.957205,20.753241],[86.979991,20.755561],[86.986583,20.751858],[86.994884,20.738959],[87.000011,20.728217],[87.001801,20.71898],[86.998709,20.711127],[86.988617,20.70425],[86.975759,20.710679],[86.961192,20.712836],[86.948253,20.709052],[86.940196,20.697984],[86.951915,20.697008],[86.961192,20.695054],[86.968516,20.691148],[86.974294,20.684394],[86.9817,20.68537],[86.986501,20.684394],[86.990245,20.679999],[86.994884,20.670722],[87.019379,20.680365],[87.033376,20.690172],[87.043224,20.697984],[87.027517,20.679674],[87.003591,20.65705],[86.976248,20.637885],[86.923188,20.621731],[86.774181,20.511949],[86.751475,20.489163],[86.733897,20.462226],[86.72462,20.431952],[86.72047,20.368476],[86.741954,20.379543],[86.756358,20.393744],[86.769786,20.400702],[86.788748,20.390123],[86.788259,20.402818],[86.789806,20.4147],[86.796153,20.437323],[86.809825,20.415107],[86.7942,20.37816],[86.768321,20.343451],[86.751475,20.32807],[86.739268,20.324205],[86.719737,20.31509],[86.701671,20.303778],[86.693696,20.293931],[86.701671,20.284654],[86.719737,20.291734],[86.754649,20.314439],[86.717459,20.286933],[86.628184,20.235256],[86.583832,20.218207],[86.53419,20.206122],[86.511485,20.197455],[86.495128,20.184068],[86.490408,20.174058],[86.478852,20.12934],[86.468516,20.10928],[86.467133,20.094672],[86.41505,20.036322],[86.391449,20.020209],[86.396739,20.009955],[86.404145,20.002631],[86.414073,19.998847],[86.42628,19.999172],[86.397227,19.982856],[86.348399,20.008857],[86.275401,20.067369],[86.231293,20.064887],[86.209158,20.066636],[86.199718,20.077948],[86.195974,20.080308],[86.173025,20.1022],[86.168468,20.113186],[86.163097,20.134833],[86.158702,20.143134],[86.152517,20.143134],[86.14503,20.122016],[86.154307,20.089993],[86.158702,20.081041],[86.167735,20.072943],[86.187755,20.063666],[86.213715,20.042426],[86.230235,20.035305],[86.268565,20.026435],[86.273448,20.02619],[86.284679,20.027493],[86.289073,20.026435],[86.293224,20.02143],[86.294119,20.015692],[86.2942,20.010403],[86.295909,20.006578],[86.302908,19.999091],[86.308116,19.992092],[86.314952,19.986884],[86.326671,19.984849],[86.341563,19.979885],[86.356456,19.970404],[86.372406,19.964993],[86.268565,19.910346],[86.111583,19.855699],[86.089041,19.844224],[86.07838,19.843573],[86.066742,19.851996],[86.056651,19.856879],[86.04656,19.852525],[86.037934,19.845282],[86.032074,19.841498],[86.01352,19.839057],[85.888845,19.802965],[85.846365,19.795844],[85.808604,19.773383],[85.788829,19.765692],[85.778087,19.764635],[85.744395,19.765692],[85.734386,19.763617],[85.714854,19.754218],[85.684581,19.747748],[85.624278,19.718573],[85.625987,19.722886],[85.635997,19.72663],[85.63795,19.731635],[85.614268,19.727932],[85.549164,19.690619],[85.480479,19.666327],[85.456798,19.663316],[85.44988,19.666693],[85.44752,19.674628],[85.446788,19.690619],[85.443126,19.69245],[85.43686,19.691352],[85.430431,19.691718],[85.42628,19.697455],[85.427013,19.704088],[85.431651,19.704901],[85.43686,19.704657],[85.439301,19.707994],[85.450857,19.716295],[85.47755,19.723863],[85.521983,19.739081],[85.525564,19.734036],[85.523448,19.728705],[85.518891,19.721584],[85.514985,19.711127],[85.558849,19.738105],[85.576508,19.745836],[85.567638,19.7508],[85.563243,19.756903],[85.564138,19.76439],[85.570323,19.773179],[85.567149,19.791653],[85.570323,19.875637],[85.55714,19.881781],[85.514985,19.889309],[85.476817,19.901028],[85.463552,19.902899],[85.440115,19.896226],[85.41627,19.879788],[85.374522,19.837795],[85.319591,19.793647],[85.30421,19.79267],[85.290294,19.789944],[85.278087,19.78559],[85.268077,19.780015],[85.246837,19.762641],[85.220958,19.736029],[85.20338,19.707261],[85.206554,19.683783],[85.189952,19.670966],[85.175141,19.636908],[85.165538,19.6258],[85.150157,19.613471],[85.140147,19.596584],[85.139334,19.579779],[85.151378,19.567776],[85.151378,19.560289],[85.139171,19.557074],[85.122895,19.549018],[85.108897,19.538967],[85.102875,19.529608],[85.104503,19.514879],[85.108735,19.506781],[85.115489,19.507473],[85.124034,19.519355],[85.128754,19.509508],[85.130219,19.498725],[85.128673,19.487982],[85.124034,19.478339],[85.135753,19.481594],[85.141775,19.487128],[85.145763,19.493476],[85.151378,19.498847],[85.162446,19.503485],[85.171153,19.504462],[85.178559,19.504299],[85.185557,19.505683],[85.202891,19.517157],[85.201915,19.527086],[85.1963,19.538479],[85.199229,19.554104],[85.206309,19.548],[85.214529,19.547268],[85.223643,19.549954],[85.233246,19.554104],[85.203787,19.570502],[85.193044,19.57392],[85.193044,19.580797],[85.212901,19.581122],[85.223643,19.590237],[85.232595,19.601549],[85.247569,19.60871],[85.247569,19.614936],[85.241873,19.617011],[85.237315,19.620551],[85.234386,19.625678],[85.233246,19.632554],[85.236339,19.635321],[85.247813,19.653144],[85.247569,19.65648],[85.260753,19.656073],[85.309093,19.642239],[85.350597,19.677639],[85.36378,19.678046],[85.37436,19.674709],[85.383067,19.676093],[85.391449,19.690619],[85.399181,19.679145],[85.403168,19.671291],[85.404959,19.661933],[85.405284,19.645941],[85.402192,19.643988],[85.388682,19.638251],[85.384613,19.635972],[85.382172,19.63109],[85.380382,19.619615],[85.37794,19.614936],[85.368419,19.6081],[85.352306,19.599433],[85.336762,19.596096],[85.330089,19.604967],[85.326427,19.618801],[85.31837,19.619534],[85.311046,19.6105],[85.309093,19.595038],[85.303477,19.59748],[85.293793,19.599555],[85.288422,19.601264],[85.302501,19.586656],[85.305837,19.580146],[85.302908,19.57392],[85.330577,19.576402],[85.576508,19.690619],[85.540294,19.669582],[85.46339,19.631049],[85.380219,19.593817],[85.336681,19.575181],[85.285411,19.536282],[85.240571,19.518052],[85.180431,19.475002],[85.069509,19.372138],[84.99586,19.32331],[84.872081,19.219875],[84.791026,19.120592],[84.777761,19.116197],[84.774185,19.139969],[84.770774,19.146868],[84.763023,19.156376],[84.754651,19.159658],[84.743696,19.161441],[84.708349,19.161673],[84.6945,19.160588],[84.685508,19.157565],[84.681374,19.153301],[84.683028,19.147126],[84.686128,19.140667],[84.687989,19.134672],[84.689436,19.125525],[84.687059,19.11196],[84.681064,19.100514],[84.669695,19.090153],[84.66153,19.090256],[84.65688,19.093641],[84.651919,19.098369],[84.64148,19.10054],[84.566963,19.06633],[84.55611,19.059276],[84.525208,19.032973],[84.513632,19.029795],[84.50092,19.030286],[84.489241,19.032534],[84.475599,19.033438],[84.469707,19.030647],[84.467227,19.02579],[84.468881,19.018684],[84.473945,19.007057],[84.474358,19.001114],[84.474255,19.000391],[84.46609,18.986774],[84.4633,18.979617],[84.462576,18.973157],[84.46423,18.968222],[84.466917,18.964295],[84.468777,18.959722],[84.467227,18.953624],[84.462576,18.946312],[84.427229,18.904402],[84.418031,18.901508],[84.409143,18.901921],[84.398187,18.903756],[84.391366,18.90094],[84.385888,18.894635],[84.376793,18.86704],[84.368835,18.849392],[84.351782,18.827766],[84.336072,18.8165],[84.317779,18.80924],[84.2537,18.805338],[84.18218,18.788027],[84.162129,18.785314],[84.153138,18.787717],[84.139185,18.798],[84.130193,18.801824],[84.103632,18.802651],[84.09309,18.806113],[84.083788,18.813503],[84.071386,18.81787],[84.054642,18.818438],[83.997798,18.806992],[83.949533,18.808516],[83.902404,18.805648],[83.897133,18.808361],[83.889174,18.814795],[83.88504,18.817198],[83.881113,18.820428],[83.878219,18.824794],[83.872948,18.834845],[83.867057,18.843424],[83.860029,18.850943],[83.856928,18.85518],[83.854241,18.860038],[83.850107,18.871329],[83.839358,18.901921],[83.829023,18.915047],[83.825922,18.920473],[83.817964,18.96197],[83.801841,18.999952],[83.780241,19.009253],[83.771869,19.009693],[83.763704,19.009331],[83.756263,19.006282],[83.749545,19.001114],[83.748925,19.000417],[83.746754,18.995017],[83.744997,18.98866],[83.744687,18.980599],[83.746754,18.971762],[83.749131,18.965044],[83.751095,18.957448],[83.751922,18.948172],[83.748615,18.935356],[83.744067,18.930085],[83.738073,18.929284],[83.731871,18.933806],[83.725774,18.943986],[83.706447,19.001424],[83.701486,19.011889],[83.68712,19.033128],[83.646399,19.076097],[83.638337,19.087621],[83.623661,19.115009],[83.612809,19.129789],[83.604747,19.131339],[83.598443,19.127205],[83.593585,19.117257],[83.589554,19.104881],[83.587074,19.092013],[83.581183,19.080412],[83.572605,19.069947],[83.553898,19.064263],[83.545836,19.058579],[83.539635,19.051654],[83.531367,19.027624],[83.524856,19.016049],[83.518344,19.010003],[83.508836,19.006747],[83.503151,19.008788],[83.499121,19.016049],[83.493953,19.039872],[83.490129,19.051551],[83.484238,19.06093],[83.47566,19.06894],[83.464187,19.073461],[83.457986,19.069405],[83.456126,19.061085],[83.466358,19.027082],[83.465738,19.018684],[83.462947,19.011837],[83.450338,19.002871],[83.449408,19.001424],[83.449098,19.000856],[83.448995,19.000494],[83.453645,18.992355],[83.455506,18.986852],[83.454679,18.976904],[83.449615,18.968455],[83.435455,18.961892],[83.423673,18.964347],[83.402279,18.979539],[83.391427,18.985767],[83.367553,18.992769],[83.355564,18.999125],[83.352876,19.001089],[83.341404,19.004577],[83.331482,19.004034],[83.322387,19.002329],[83.313706,18.999719],[83.299856,18.99158],[83.298513,18.982847],[83.299546,18.976516],[83.303887,18.970755],[83.309675,18.965845],[83.314119,18.960626],[83.31815,18.952616],[83.323731,18.935201],[83.326831,18.929698],[83.347295,18.904712],[83.352256,18.901534],[83.35639,18.90032],[83.361351,18.900216],[83.366932,18.899519],[83.371997,18.898201],[83.374787,18.895049],[83.378198,18.88368],[83.380575,18.878693],[83.384916,18.874843],[83.390187,18.872595],[83.394218,18.869417],[83.395251,18.862828],[83.392047,18.85332],[83.380058,18.843114],[83.366002,18.83668],[83.344505,18.830763],[83.329209,18.822236],[83.297479,18.799189],[83.272571,18.776658],[83.256758,18.765341],[83.201671,18.741621],[83.190819,18.742861],[83.181931,18.748882],[83.172732,18.758468],[83.161467,18.763894],[83.150408,18.766348],[83.137386,18.764436],[83.126534,18.758158],[83.108964,18.741983],[83.097491,18.727539],[83.075477,18.690772],[83.065039,18.67638],[83.053256,18.663616],[83.028142,18.640852],[83.025868,18.636124],[83.025351,18.629354],[83.025558,18.621577],[83.024008,18.612172],[83.021217,18.603387],[83.01977,18.595299],[83.02163,18.587703],[83.036823,18.566128],[83.044265,18.547731],[83.047572,18.543313],[83.053773,18.542279],[83.070516,18.544243],[83.076097,18.544166],[83.079508,18.54184],[83.081989,18.538869],[83.083539,18.525329],[83.036513,18.469493],[83.032999,18.461897],[83.029692,18.450373],[83.033723,18.444714],[83.038994,18.439314],[83.042714,18.430116],[83.043851,18.417042],[83.0392,18.390351],[83.030002,18.381953],[83.019667,18.379008],[83.006748,18.37999],[82.99879,18.379163],[82.988558,18.375571],[82.951971,18.358156],[82.943289,18.356735],[82.904118,18.35534],[82.894713,18.357536],[82.888305,18.362497],[82.884895,18.370429],[82.884895,18.378749],[82.887685,18.396061],[82.885515,18.40389],[82.878383,18.409083],[82.861227,18.410117],[82.849238,18.414303],[82.838696,18.422468],[82.828774,18.428798],[82.816062,18.432105],[82.795391,18.429341],[82.785159,18.424147],[82.779681,18.416731],[82.780508,18.40637],[82.786813,18.382496],[82.785883,18.369887],[82.781438,18.357846],[82.77162,18.344436],[82.760148,18.337331],[82.729865,18.326401],[82.697516,18.30555],[82.680049,18.296532],[82.669714,18.289297],[82.663203,18.282321],[82.660412,18.27382],[82.655865,18.250463],[82.652041,18.240256],[82.642429,18.229482],[82.635711,18.228862],[82.622378,18.23589],[82.6138,18.237543],[82.601708,18.238009],[82.593543,18.24005],[82.586722,18.244391],[82.582381,18.251057],[82.5799,18.260255],[82.58021,18.270461],[82.582484,18.281856],[82.595403,18.309632],[82.597367,18.317073],[82.597367,18.325213],[82.594783,18.33299],[82.590236,18.341284],[82.584861,18.348389],[82.578453,18.354901],[82.528637,18.396965],[82.517372,18.410582],[82.511274,18.422209],[82.510137,18.433888],[82.512928,18.45399],[82.512514,18.462078],[82.511067,18.467994],[82.507967,18.474041],[82.506623,18.479312],[82.506313,18.48727],[82.506933,18.495616],[82.506727,18.502049],[82.502696,18.510628],[82.497631,18.512126],[82.487193,18.510498],[82.478098,18.512204],[82.466729,18.51732],[82.449056,18.5221],[82.438204,18.519258],[82.429212,18.510473],[82.41712,18.480862],[82.409368,18.466548],[82.374125,18.425697],[82.369887,18.418979],[82.368234,18.413993],[82.369887,18.395854],[82.369887,18.381953],[82.367097,18.366605],[82.352524,18.33038],[82.350974,18.323042],[82.351801,18.317745],[82.359655,18.301596],[82.360792,18.291623],[82.356555,18.277903],[82.350044,18.265914],[82.317177,18.21739],[82.311286,18.205504],[82.309529,18.194755],[82.31263,18.186978],[82.322862,18.176333],[82.352834,18.1553],[82.358725,18.147084],[82.360276,18.13941],[82.355935,18.131193],[82.34653,18.125483],[82.334644,18.120238],[82.330303,18.112021],[82.33113,18.099231],[82.335574,18.081532],[82.338055,18.066314],[82.336194,18.052749],[82.32989,18.044041],[82.319348,18.041302],[82.293303,18.043524],[82.276973,18.04045],[82.267775,18.032801],[82.261574,18.02027],[82.257543,18.007506],[82.250411,17.997429],[82.240076,17.992933],[82.229637,17.994561],[82.221576,17.997842],[82.215478,17.999212],[82.208243,17.999522],[82.193154,17.998669],[82.181062,17.999909],[82.180028,18.000426],[82.162872,18.018332],[82.149126,18.0289],[82.131866,18.038848],[82.092178,18.04988],[82.042362,18.043266],[81.99544,18.009986],[81.958233,18.002932],[81.92361,18.000219],[81.825218,17.937949],[81.758969,17.908933],[81.739435,17.897642],[81.724965,17.884723],[81.716594,17.873354],[81.704398,17.861029],[81.690549,17.855086],[81.655822,17.850875],[81.640319,17.842296],[81.622749,17.828292],[81.60611,17.811368],[81.578411,17.79695],[81.557844,17.803384],[81.524254,17.823486],[81.511232,17.826277],[81.502757,17.824209],[81.498313,17.817957],[81.491905,17.800619],[81.486944,17.792739],[81.479812,17.787519],[81.472681,17.787235],[81.460175,17.790465],[81.449943,17.794728],[81.39403,17.806691],[81.390929,17.818783],[81.390722,17.837025],[81.393306,17.854234],[81.394236,17.87232],[81.39496,17.877979],[81.397337,17.883146],[81.402608,17.887487],[81.408292,17.88896],[81.413253,17.88803],[81.417801,17.885704],[81.425552,17.879684],[81.429686,17.877333],[81.434647,17.876429],[81.439505,17.877359],[81.444156,17.879736],[81.447256,17.885033],[81.449117,17.892345],[81.449323,17.905652],[81.450667,17.915496],[81.453147,17.925004],[81.459245,17.937484],[81.463689,17.94428],[81.471027,17.953194],[81.474438,17.960015],[81.477849,17.971436],[81.48219,17.994096],[81.482293,18.028176],[81.480743,18.036496],[81.481053,18.043576],[81.482913,18.051431],[81.488184,18.061172],[81.495935,18.071869],[81.499553,18.075331],[81.503067,18.079853],[81.506271,18.085589],[81.516193,18.117809],[81.518466,18.135482],[81.523117,18.150339],[81.524874,18.160287],[81.523634,18.168943],[81.515262,18.183748],[81.513712,18.188838],[81.512885,18.19429],[81.513816,18.200827],[81.516193,18.207881],[81.521774,18.218087],[81.529318,18.229456],[81.542548,18.262451],[81.548439,18.268575],[81.55371,18.269815],[81.558051,18.26811],[81.565389,18.266534],[81.574794,18.267154],[81.593397,18.272244],[81.643833,18.292372],[81.652722,18.297772],[81.658406,18.303276],[81.670498,18.324851],[81.675563,18.32976],[81.682694,18.333713],[81.691376,18.336866],[81.717111,18.340974],[81.725482,18.344049],[81.73313,18.349578],[81.740572,18.357898],[81.772301,18.413217],[81.792352,18.438436],[81.804754,18.449339],[81.843718,18.47771],[81.869453,18.508199],[81.889607,18.52688],[81.913274,18.544915],[81.92423,18.55078],[81.932808,18.554217],[81.94087,18.558532],[81.947071,18.567601],[81.948311,18.579512],[81.941903,18.593982],[81.934048,18.600932],[81.915755,18.610673],[81.908417,18.615944],[81.903663,18.621913],[81.902422,18.627003],[81.903352,18.634083],[81.909657,18.641395],[81.916788,18.644185],[81.92578,18.644883],[81.933428,18.646666],[81.94087,18.650981],[81.947794,18.658138],[81.961333,18.67731],[81.968982,18.685733],[81.979213,18.693795],[81.989549,18.700203],[81.998437,18.704078],[82.005568,18.705861],[82.044533,18.708548],[82.059105,18.712424],[82.069854,18.719762],[82.076779,18.730227],[82.091558,18.76379],[82.095279,18.768829],[82.098689,18.770612],[82.10241,18.770017],[82.106441,18.767537],[82.118326,18.755057],[82.127422,18.749243],[82.138894,18.747254],[82.143234,18.766064],[82.150159,18.782781],[82.15264,18.78689],[82.1545,18.791437],[82.163802,18.83668],[82.164629,18.867169],[82.166179,18.873835],[82.169073,18.878719],[82.175894,18.88585],[82.178891,18.889752],[82.181268,18.893937],[82.184679,18.897658],[82.188813,18.900785],[82.214238,18.913549],[82.220026,18.915202],[82.22447,18.921946],[82.22788,18.933961],[82.2254,18.996334],[82.22571,19.005197],[82.224987,19.015196],[82.221369,19.024395],[82.206486,19.046538],[82.200595,19.058114],[82.197701,19.083874],[82.195014,19.092633],[82.187883,19.100902],[82.164629,19.115914],[82.159668,19.122838],[82.160598,19.132863],[82.167419,19.154929],[82.168659,19.166246],[82.165972,19.178985],[82.152846,19.201671],[82.148505,19.212884],[82.145715,19.225313],[82.145405,19.244226],[82.148195,19.258153],[82.153156,19.271434],[82.17083,19.30691],[82.17176,19.316857],[82.168453,19.325617],[82.158531,19.334712],[82.141788,19.344892],[82.136517,19.350421],[82.135276,19.35577],[82.139617,19.364684],[82.146335,19.370653],[82.163388,19.380833],[82.168659,19.386595],[82.170003,19.395147],[82.167522,19.405224],[82.158841,19.418169],[82.150986,19.424732],[82.142614,19.428685],[82.117706,19.43455],[82.111402,19.436773],[82.106441,19.440209],[82.102203,19.445816],[82.08608,19.480568],[82.081016,19.488811],[82.074815,19.494108],[82.066857,19.497208],[82.038125,19.502479],[82.031923,19.508448],[82.02903,19.517853],[82.03213,19.594773],[82.039055,19.624358],[82.040605,19.637355],[82.038745,19.651902],[82.0312,19.6765],[82.027273,19.695594],[82.028099,19.716265],[82.037815,19.756727],[82.036161,19.767088],[82.029133,19.776468],[82.020141,19.781971],[82.011666,19.784891],[81.978077,19.788198],[81.968775,19.791144],[81.960093,19.796337],[81.954512,19.804011],[81.943453,19.832097],[81.937149,19.841812],[81.929397,19.849254],[81.845268,19.894729],[81.833176,19.903798],[81.824184,19.913255],[81.817156,19.92434],[81.813746,19.935088],[81.813125,19.945527],[81.815296,19.955888],[81.819327,19.965707],[81.860151,20.03702],[81.867799,20.046658],[81.878961,20.051024],[81.897565,20.061902],[81.929811,20.097792],[81.939629,20.104665],[81.9449,20.105569],[81.952032,20.103709],[81.96061,20.097611],[82.009289,20.044487],[82.01425,20.035599],[82.0158,20.029527],[82.015077,20.023119],[82.016317,20.016866],[82.021898,20.011673],[82.032854,20.01188],[82.040295,20.01405],[82.046083,20.017874],[82.049597,20.023352],[82.057865,20.042059],[82.061276,20.047691],[82.065927,20.053686],[82.070784,20.057251],[82.075125,20.058388],[82.081326,20.057872],[82.08515,20.056993],[82.090731,20.054694],[82.096209,20.050637],[82.126801,20.022809],[82.141064,20.012681],[82.148816,20.005704],[82.153466,19.999994],[82.155327,19.995705],[82.156567,19.991545],[82.158531,19.986377],[82.160598,19.982889],[82.164732,19.979427],[82.17083,19.977076],[82.181062,19.976791],[82.203593,19.980331],[82.210104,19.978755],[82.217855,19.972993],[82.228397,19.95873],[82.290306,19.836051],[82.298057,19.826413],[82.304878,19.823312],[82.313457,19.826154],[82.319348,19.834087],[82.3333,19.860545],[82.337951,19.867237],[82.341465,19.87163],[82.346943,19.876591],[82.353351,19.880596],[82.361102,19.883903],[82.370404,19.885402],[82.381359,19.885944],[82.475927,19.872379],[82.488743,19.867909],[82.513961,19.854473],[82.526157,19.850339],[82.564501,19.849331],[82.573699,19.847419],[82.579074,19.843156],[82.577833,19.833493],[82.575043,19.824888],[82.572872,19.814682],[82.572562,19.805019],[82.574319,19.790911],[82.574009,19.7821],[82.573182,19.774917],[82.574009,19.770964],[82.575249,19.76807],[82.592716,19.769104],[82.601088,19.774607],[82.639328,19.805096],[82.650284,19.811168],[82.660722,19.81569],[82.682323,19.822666],[82.691728,19.828764],[82.707851,19.843208],[82.712812,19.849564],[82.713329,19.855533],[82.709091,19.862819],[82.691108,19.878658],[82.688214,19.882689],[82.685527,19.887572],[82.684493,19.895401],[82.685424,19.905995],[82.699066,19.95501],[82.700927,19.968781],[82.70041,19.980099],[82.696276,19.998108],[82.695035,20.000537],[82.692555,20.001441],[82.688214,20.002371],[82.665373,20.004955],[82.653384,20.005032],[82.6477,20.004102],[82.643152,20.002862],[82.638708,20.000304],[82.637158,19.998986],[82.626306,19.991881],[82.618141,19.988935],[82.611216,19.988134],[82.603775,19.990331],[82.598504,19.992785],[82.594266,19.995886],[82.589926,20.000123],[82.57835,20.014618],[82.572562,20.019166],[82.565844,20.022267],[82.55799,20.024101],[82.550341,20.024489],[82.509827,20.021853],[82.495874,20.023042],[82.490914,20.024592],[82.486573,20.026995],[82.47076,20.041361],[82.464455,20.045779],[82.415569,20.066967],[82.412469,20.076992],[82.413399,20.093347],[82.433656,20.159002],[82.435826,20.17373],[82.435826,20.198767],[82.427972,20.241452],[82.427145,20.293981],[82.423114,20.306151],[82.41898,20.314342],[82.414329,20.320362],[82.411642,20.326796],[82.411539,20.345425],[82.421874,20.42803],[82.420324,20.45162],[82.417533,20.462498],[82.411952,20.460173],[82.407301,20.456504],[82.401927,20.4533],[82.396449,20.4533],[82.391281,20.458157],[82.386941,20.466167],[82.382496,20.483995],[82.381359,20.499447],[82.380946,20.500971],[82.376399,20.506526],[82.372678,20.506862],[82.368957,20.505054],[82.366373,20.502263],[82.363893,20.500041],[82.361206,20.49924],[82.359655,20.499447],[82.359035,20.499783],[82.343636,20.529367],[82.340122,20.542493],[82.340225,20.556342],[82.357485,20.624659],[82.362756,20.63949],[82.366683,20.657086],[82.367614,20.669255],[82.366993,20.682304],[82.364203,20.694784],[82.360276,20.705791],[82.350354,20.72659],[82.346633,20.737365],[82.344152,20.747933],[82.341982,20.86082],[82.343222,20.86684],[82.345909,20.872447],[82.349113,20.876762],[82.353041,20.880535],[82.359862,20.882395],[82.364926,20.882317],[82.394899,20.875212],[82.400997,20.872421],[82.404821,20.869088],[82.406578,20.86529],[82.406578,20.861363],[82.405027,20.8494],[82.405131,20.844051],[82.407508,20.838703],[82.410918,20.835369],[82.415879,20.833819],[82.422701,20.834594],[82.438204,20.839529],[82.4535,20.846867],[82.463008,20.855394],[82.47293,20.867073],[82.48771,20.892213],[82.498562,20.907329],[82.514581,20.923736],[82.522436,20.929524],[82.527914,20.932237],[82.537939,20.933064],[82.548171,20.939368],[82.562124,20.954458],[82.606875,21.024143],[82.627236,21.080936],[82.644082,21.104294],[82.646873,21.12344],[82.642842,21.136204],[82.642739,21.140364],[82.644703,21.14442],[82.649043,21.149019],[82.656692,21.152611],[82.668164,21.155479],[82.752603,21.160078],[82.761388,21.158063],[82.769346,21.15398],[82.775031,21.148658],[82.782162,21.144911],[82.79043,21.145015],[82.797458,21.147262],[82.810481,21.15398],[82.822263,21.157856],[82.84159,21.161189],[82.86164,21.161887],[82.96458,21.178527],[82.976982,21.176175],[82.989074,21.168682],[82.995896,21.160776],[83.001477,21.155686],[83.008918,21.150906],[83.01884,21.147469],[83.030312,21.144834],[83.0392,21.141526],[83.047882,21.135739],[83.062558,21.120727],[83.06938,21.116773],[83.078165,21.114551],[83.129117,21.117936],[83.143587,21.120623],[83.156299,21.125998],[83.173973,21.140054],[83.186168,21.153541],[83.198261,21.172558],[83.227199,21.249633],[83.234227,21.261519],[83.257068,21.290329],[83.259652,21.299656],[83.258929,21.30547],[83.256241,21.308829],[83.255208,21.311594],[83.255311,21.316529],[83.257068,21.323944],[83.260479,21.332781],[83.265853,21.34309],[83.271744,21.351539],[83.279393,21.3588],[83.290038,21.359627],[83.301097,21.358697],[83.344815,21.340894],[83.353083,21.338362],[83.361041,21.33676],[83.370756,21.336657],[83.379748,21.339189],[83.385329,21.346475],[83.388326,21.357766],[83.3875,21.377068],[83.384916,21.389444],[83.381195,21.399547],[83.375407,21.406601],[83.341301,21.43616],[83.334583,21.444221],[83.329932,21.453342],[83.327348,21.463677],[83.326211,21.487836],[83.327658,21.499153],[83.3351,21.520005],[83.342541,21.549615],[83.343265,21.560028],[83.351946,21.577262],[83.444034,21.718597],[83.458916,21.748027],[83.463257,21.766139],[83.463877,21.790531],[83.466875,21.799987],[83.473179,21.807171],[83.486408,21.808462],[83.494263,21.806163],[83.500671,21.801744],[83.506252,21.796577],[83.511213,21.796241],[83.515554,21.799677],[83.519068,21.81071],[83.519688,21.826523],[83.522168,21.83027],[83.527853,21.833525],[83.546456,21.832208],[83.552761,21.83337],[83.557102,21.834921],[83.564853,21.853576],[83.560409,21.869673],[83.559582,21.875099],[83.561339,21.883626],[83.570124,21.907578],[83.571674,21.916311],[83.570641,21.923055],[83.566403,21.928197],[83.558859,21.933984],[83.530127,21.949513],[83.521238,21.95636],[83.515347,21.963853],[83.512867,21.973052],[83.513073,21.982793],[83.518034,22.020258],[83.522168,22.028371],[83.528783,22.035167],[83.54594,22.044133],[83.556688,22.047647],[83.564853,22.052117],[83.571054,22.05837],[83.572191,22.067775],[83.570021,22.074183],[83.56537,22.079738],[83.560719,22.083846],[83.55028,22.094802],[83.54625,22.101623],[83.54873,22.11294],[83.556998,22.129425],[83.605367,22.195984],[83.623661,22.21327],[83.639991,22.223269],[83.664175,22.235026],[83.721639,22.25505],[83.733112,22.262285],[83.816724,22.332513],[83.841425,22.348584],[83.876979,22.359152],[83.918423,22.36277],[83.931859,22.365457],[83.945812,22.371193],[83.955734,22.378712],[83.984362,22.410286],[83.989117,22.417107],[83.992527,22.42442],[83.994698,22.431577],[83.996455,22.440543],[83.997075,22.451756],[83.995008,22.468991],[83.990564,22.483253],[83.970616,22.516042],[83.968136,22.522553],[83.970203,22.539348],[84.00741,22.531519],[84.036039,22.51829],[84.067045,22.499583],[84.124302,22.426745],[84.130607,22.412147],[84.137015,22.400933],[84.147763,22.386773],[84.178562,22.364372],[84.188794,22.360599],[84.195822,22.359772],[84.217423,22.360548],[84.230859,22.357344],[84.292767,22.328172],[84.310957,22.324012],[84.408213,22.328741],[84.420822,22.330989],[84.48459,22.362279],[84.490998,22.366568],[84.497303,22.372201],[84.50092,22.376619],[84.503814,22.384655],[84.504951,22.392535],[84.504434,22.402535],[84.505054,22.41057],[84.508155,22.417004],[84.516733,22.421422],[84.530066,22.423024],[84.733671,22.427288],[84.748243,22.430698],[84.757442,22.435427],[84.761886,22.440775],[84.768914,22.445581],[84.778526,22.448346],[84.80085,22.45018],[84.817593,22.448113],[84.878571,22.434031],[84.908337,22.421965],[84.916295,22.423205],[84.921463,22.424885],[84.937586,22.441059],[84.944097,22.445245],[84.952469,22.447416],[84.983371,22.450335],[84.988022,22.452222],[85.038252,22.482401],[85.065537,22.5032],[85.087758,22.446615],[85.100367,22.393956],[85.104707,22.357499],[85.104707,22.330834],[85.09892,22.304685],[85.093339,22.290216],[85.087758,22.280165],[85.040009,22.21637],[85.008899,22.151542],[84.999288,22.136556],[84.992466,22.127642],[84.985232,22.112785],[84.986265,22.106661],[84.991123,22.104026],[85.003215,22.106196],[85.042592,22.119735],[85.050344,22.120898],[85.062023,22.121234],[85.079489,22.119038],[85.097886,22.113457],[85.109152,22.108496],[85.18708,22.05961],[85.20806,22.036743],[85.214882,22.031059],[85.220153,22.029147],[85.225527,22.030516],[85.232038,22.035322],[85.277824,22.085319],[85.324126,22.126686],[85.335081,22.132448],[85.379006,22.146969],[85.396059,22.157873],[85.410012,22.162007],[85.425205,22.164487],[85.43678,22.164229],[85.448562,22.162524],[85.461068,22.158131],[85.550675,22.107591],[85.609586,22.09214],[85.655888,22.084699],[85.679143,22.075862],[85.685344,22.077051],[85.705808,22.087463],[85.717797,22.091882],[85.734333,22.096145],[85.746425,22.101158],[85.755934,22.107152],[85.766683,22.116712],[85.780429,22.125136],[85.792211,22.129089],[85.798309,22.126014],[85.801719,22.117022],[85.800582,22.106222],[85.796552,22.096817],[85.782599,22.079764],[85.779085,22.071935],[85.778465,22.063822],[85.778775,22.053512],[85.777638,22.039663],[85.780635,22.022196],[85.784666,22.011887],[85.834275,21.986126],[85.877477,21.9961],[85.897321,22.007623],[85.916234,22.022119],[85.963983,22.085603],[85.971321,22.097695],[85.974112,22.104594],[85.974112,22.111441],[85.972975,22.118883],[85.972561,22.133507],[85.976592,22.149785],[85.984654,22.172058],[85.988271,22.187535],[85.986824,22.201694],[85.971321,22.22854],[85.964603,22.24487],[85.965223,22.263189],[85.971425,22.275178],[85.989925,22.300784],[85.993025,22.316364],[85.993232,22.3352],[85.986514,22.393621],[85.982483,22.410829],[85.974835,22.424601],[85.950237,22.452842],[85.940625,22.468138],[85.937008,22.486018],[85.937318,22.495061],[85.937835,22.49917],[85.938248,22.499945],[85.938765,22.500513],[85.945586,22.505603],[85.965533,22.513096],[85.973595,22.514957],[85.988271,22.516636],[85.994266,22.517928],[85.997676,22.519143],[86.005324,22.524414],[86.020621,22.547926],[86.030232,22.552965],[86.039844,22.556737],[86.049973,22.555807],[86.057414,22.552164],[86.064752,22.545885],[86.102476,22.500126],[86.268047,22.422404],[86.289545,22.409046],[86.304738,22.397057],[86.322721,22.368738],[86.332746,22.356672],[86.346079,22.343959],[86.366026,22.330058],[86.383492,22.323237],[86.401579,22.320007],[86.419149,22.320834],[86.433722,22.323134],[86.471756,22.335071],[86.486639,22.336854],[86.497181,22.334684],[86.506069,22.330834],[86.602187,22.272853],[86.646629,22.234871],[86.686523,22.218024],[86.70461,22.188698],[86.715462,22.183504],[86.732102,22.178156],[86.749052,22.174306],[86.766725,22.167717],[86.781608,22.155185],[86.833904,22.121751],[86.848167,22.119296],[86.861396,22.120511],[86.876589,22.119813],[86.892712,22.116583],[86.943768,22.096404],[86.97126,22.079531],[86.987383,22.066586],[86.996272,22.055476],[86.999372,22.049895],[87.000922,22.045218],[87.004747,22.02571],[87.005677,22.01398],[87.005573,22.004833],[87.004747,22.000053],[86.993688,21.972483],[86.995858,21.957032],[87.004953,21.936982],[87.031412,21.907991],[87.047845,21.902178],[87.059213,21.90719],[87.063451,21.918171],[87.069135,21.927577],[87.076163,21.932899],[87.085155,21.93662],[87.094147,21.942201],[87.100761,21.951296],[87.106239,21.961735],[87.112957,21.971398],[87.120812,21.976928],[87.136625,21.977238],[87.155435,21.972096],[87.190678,21.956205],[87.206801,21.941426],[87.214656,21.92414],[87.219617,21.884995],[87.225612,21.863575],[87.231503,21.848098],[87.239668,21.832595],[87.251967,21.822105],[87.275014,21.813966],[87.408546,21.786138],[87.424463,21.774744],[87.431594,21.761592],[87.431284,21.746451],[87.42746,21.718184],[87.427873,21.703663],[87.43087,21.689322],[87.436555,21.675628],[87.468284,21.63005],[87.477387,21.613593]]]}}]}
