{"type":"FeatureCollection","features":[{"type":"Feature","properties":{"id":"PK-PB","country":"PK","name_en":"Punjab"},"geometry":{"type":"Polygon","coordinates":[[[75.298403,32.332427],[75.326906,32.312473],[75.35295,32.284387],[75.359048,32.261675],[75.34861,32.242012],[75.31657,32.210748],[75.308405,32.193902],[75.29807,32.159795],[75.294659,32.148892],[75.263344,32.150907],[75.249908,32.148892],[75.226447,32.14207],[75.195751,32.128634],[75.173116,32.109721],[75.17415,32.086828],[75.161334,32.087965],[75.13839,32.093494],[75.129812,32.090239],[75.11896,32.08104],[75.110278,32.07763],[75.102113,32.078095],[75.040825,32.09799],[75.022635,32.094683],[75.030179,32.066416],[75.020154,32.065847],[74.995556,32.067398],[74.986151,32.063212],[74.978503,32.053393],[74.974059,32.04497],[74.967858,32.037891],[74.955662,32.032206],[74.931374,32.029829],[74.908843,32.031896],[74.889103,32.028899],[74.873186,32.011691],[74.828641,32.025437],[74.811278,32.003732],[74.802493,31.968851],[74.783683,31.942858],[74.763012,31.938982],[74.698417,31.950247],[74.669995,31.904152],[74.657179,31.895677],[74.641056,31.890561],[74.565608,31.840538],[74.550415,31.826999],[74.540804,31.810876],[74.537393,31.788913],[74.53698,31.775736],[74.535119,31.771137],[74.530778,31.767829],[74.523027,31.758476],[74.521167,31.753773],[74.518273,31.741836],[74.516206,31.737392],[74.513312,31.735118],[74.505457,31.732018],[74.503287,31.730571],[74.492641,31.714551],[74.489437,31.711192],[74.499463,31.699875],[74.555583,31.612232],[74.584522,31.517509],[74.614598,31.477821],[74.617181,31.458908],[74.61191,31.440201],[74.600025,31.42413],[74.583695,31.40656],[74.571603,31.389248],[74.532225,31.303207],[74.525301,31.280211],[74.525094,31.235407],[74.509074,31.195668],[74.506387,31.175411],[74.509591,31.156084],[74.514862,31.141821],[74.523544,31.129315],[74.536773,31.115156],[74.553103,31.108955],[74.596924,31.115776],[74.616975,31.11526],[74.631961,31.107508],[74.650254,31.093142],[74.658833,31.083789],[74.600955,31.056607],[74.579458,31.042706],[74.564265,31.025032],[74.564058,31.004362],[74.548762,30.992166],[74.534809,30.97625],[74.519306,30.962452],[74.499463,30.95651],[74.477242,30.956096],[74.458535,30.953409],[74.441585,30.946174],[74.424325,30.932325],[74.41337,30.915065],[74.409132,30.901009],[74.401277,30.893103],[74.379677,30.894498],[74.353632,30.901112],[74.34247,30.901939],[74.329757,30.899614],[74.319215,30.893413],[74.31074,30.884473],[74.304022,30.874034],[74.31136,30.855947],[74.300198,30.83817],[74.279941,30.824683],[74.260201,30.819412],[74.256687,30.815278],[74.265782,30.795434],[74.266712,30.788354],[74.259167,30.781016],[74.244078,30.771249],[74.235706,30.764118],[74.215139,30.737453],[74.198809,30.724999],[74.191161,30.717041],[74.18465,30.696835],[74.170077,30.687172],[74.16677,30.67911],[74.163669,30.664899],[74.155711,30.659577],[74.132663,30.655494],[74.111476,30.646244],[74.09587,30.637149],[74.082227,30.625884],[74.067448,30.610536],[74.057112,30.591571],[74.058249,30.574466],[74.061453,30.555604],[74.057526,30.531367],[74.04409,30.518655],[74.004402,30.50894],[73.996031,30.500982],[73.98983,30.487804],[73.939083,30.426051],[73.929265,30.419075],[73.916656,30.417163],[73.899913,30.422124],[73.902083,30.415612],[73.904253,30.401453],[73.906114,30.394838],[73.887614,30.396544],[73.867666,30.387449],[73.85175,30.372669],[73.845239,30.35696],[73.842345,30.35298],[73.891644,30.329778],[73.911901,30.303784],[73.934639,30.261048],[73.948902,30.217278],[73.946831,30.204077],[73.944354,30.188288],[73.778266,30.067313],[73.739716,30.048451],[73.557815,30.012536],[73.385215,29.942308],[73.370332,29.927322],[73.327441,29.80521],[73.284756,29.683745],[73.232873,29.536596],[73.177993,29.443449],[73.1289,29.360302],[73.050869,29.228217],[72.98865,29.15463],[72.962915,29.116829],[72.930359,29.047685],[72.918164,29.032854],[72.901524,29.022622],[72.77254,28.96335],[72.658541,28.911001],[72.52563,28.84992],[72.382176,28.784006],[72.354581,28.767186],[72.28027,28.687165],[72.256499,28.645591],[72.197794,28.44488],[72.17764,28.397053],[72.149942,28.353774],[72.110978,28.317627],[71.988195,28.228097],[71.908303,28.135571],[71.896934,28.115546],[71.89156,28.097097],[71.879984,27.974909],[71.874403,27.95969],[71.860864,27.950207],[71.70139,27.906773],[71.560727,27.868533],[71.477115,27.862435],[71.397791,27.868378],[71.31144,27.861711],[71.226329,27.845356],[71.150675,27.822411],[71.027581,27.768048],[70.91379,27.717818],[70.831573,27.701463],[70.761758,27.709783],[70.710391,27.74115],[70.671738,27.791095],[70.640732,27.854787],[70.637631,27.874217],[70.64161,27.911269],[70.633187,27.93163],[70.621198,27.944135],[70.592879,27.964496],[70.559806,27.998447],[70.534898,28.015965],[70.506786,28.028962],[70.477227,28.037256],[70.456247,28.039788],[70.43692,28.035344],[70.398266,28.02165],[70.359509,28.016327],[70.341939,28.01147],[70.323852,28.000437],[70.267731,27.945272],[70.199002,27.90096],[70.189028,27.89179],[70.188667,27.891941],[70.074307,27.939716],[70.012089,27.973125],[69.996069,27.984649],[69.977155,28.001883],[69.915092,28.083428],[69.899434,28.111385],[69.837319,28.27582],[69.834063,28.294604],[69.831738,28.301942],[69.827087,28.310443],[69.818095,28.32083],[69.813444,28.328349],[69.811429,28.336539],[69.811584,28.37031],[69.810499,28.37739],[69.806468,28.385684],[69.799492,28.395192],[69.786883,28.403796],[69.778201,28.407775],[69.77014,28.410333],[69.754482,28.423175],[69.732416,28.466196],[69.7042,28.473353],[69.609684,28.483869],[69.603948,28.485858],[69.600538,28.488959],[69.598987,28.492809],[69.599142,28.500276],[69.598522,28.504023],[69.596817,28.508596],[69.593716,28.512239],[69.58922,28.515417],[69.583484,28.517769],[69.557698,28.524719],[69.530413,28.528207],[69.505246,28.52844],[69.491449,28.527251],[69.38515,28.486556],[69.332854,28.558696],[69.331458,28.563606],[69.330993,28.569264],[69.332389,28.577326],[69.335851,28.584147],[69.341277,28.590942],[69.346858,28.595257],[69.352284,28.598281],[69.390318,28.610657],[69.407371,28.618331],[69.414967,28.623344],[69.421944,28.629002],[69.447989,28.659104],[69.471295,28.69321],[69.526227,28.806976],[69.531033,28.825398],[69.529327,28.832091],[69.526692,28.837077],[69.523436,28.840514],[69.512739,28.849195],[69.506797,28.855216],[69.505143,28.857722],[69.503696,28.860177],[69.502352,28.863613],[69.501836,28.871571],[69.503076,28.883948],[69.508243,28.909399],[69.514755,28.926555],[69.520336,28.938053],[69.525297,28.943918],[69.529017,28.947251],[69.556613,28.964951],[69.570462,28.976164],[69.592321,28.999445],[69.641827,29.069776],[69.654849,29.082153],[69.661826,29.08776],[69.669422,29.09254],[69.682651,29.098328],[69.688698,29.102126],[69.695984,29.110472],[69.707456,29.129824],[69.742699,29.280306],[69.74425,29.296739],[69.74332,29.307488],[69.739599,29.311648],[69.735103,29.313043],[69.730245,29.312604],[69.725595,29.311338],[69.721254,29.309322],[69.717378,29.306945],[69.710402,29.301209],[69.7042,29.294931],[69.700945,29.292373],[69.697224,29.290822],[69.693348,29.290822],[69.689783,29.292476],[69.686682,29.295241],[69.666012,29.323043],[69.664306,29.330536],[69.663841,29.342008],[69.667252,29.367278],[69.667872,29.381747],[69.667097,29.391901],[69.664926,29.396991],[69.662446,29.400816],[69.6595,29.404097],[69.652679,29.409911],[69.644773,29.414872],[69.640122,29.416939],[69.629115,29.41991],[69.586585,29.423527],[69.581159,29.424871],[69.576353,29.426809],[69.572632,29.430478],[69.570307,29.436446],[69.569377,29.448203],[69.599762,29.571606],[69.596662,29.604421],[69.597127,29.633463],[69.600227,29.646537],[69.604723,29.658035],[69.616661,29.675243],[69.621673,29.680566],[69.626014,29.683796],[69.630045,29.686276],[69.647563,29.693795],[69.666322,29.699893],[69.727041,29.708575],[69.748435,29.724749],[69.780372,29.769294],[69.785643,29.774875],[69.810344,29.788906],[69.828947,29.802031],[69.838559,29.811876],[69.847758,29.827172],[69.895713,29.933419],[69.948423,30.028374],[69.961963,30.065633],[69.961963,30.089559],[69.963203,30.099791],[69.967234,30.118653],[69.972349,30.130125],[69.977155,30.13798],[69.992038,30.151157],[70.00413,30.159632],[70.010332,30.1671],[70.036273,30.211102],[70.041854,30.230145],[70.042784,30.24265],[70.039064,30.247999],[70.034103,30.250712],[70.028677,30.252366],[70.016895,30.254123],[70.006301,30.254123],[70.00196,30.253606],[69.998549,30.252805],[69.991728,30.249472],[69.988007,30.246862],[69.984597,30.243891],[69.981341,30.240377],[69.971574,30.22521],[69.968474,30.222652],[69.964908,30.221644],[69.961652,30.222652],[69.959017,30.225261],[69.957415,30.228594],[69.956692,30.231902],[69.956071,30.239111],[69.956485,30.259859],[69.955451,30.264303],[69.953074,30.26792],[69.949198,30.270659],[69.938501,30.274638],[69.933385,30.277325],[69.92951,30.282906],[69.92982,30.289495],[69.93323,30.297996],[69.940207,30.311535],[69.959017,30.372901],[69.967699,30.427368],[69.978861,30.45411],[70.065109,30.581415],[70.070741,30.593146],[70.073377,30.602525],[70.071827,30.609036],[70.069656,30.614307],[70.059373,30.629784],[70.057357,30.633738],[70.056892,30.642523],[70.058597,30.65539],[70.065729,30.683166],[70.072912,30.697326],[70.080043,30.705516],[70.086554,30.707738],[70.110584,30.709056],[70.115545,30.71009],[70.119472,30.71257],[70.201689,30.809903],[70.207736,30.81228],[70.225874,30.814063],[70.23192,30.815949],[70.237708,30.822047],[70.238948,30.831633],[70.236881,30.845559],[70.225719,30.874498],[70.239103,31.072807],[70.242979,31.068001],[70.245925,31.066321],[70.251351,31.065753],[70.256311,31.069112],[70.264838,31.084305],[70.266388,31.088826],[70.266543,31.096087],[70.265613,31.104303],[70.258947,31.124405],[70.256467,31.140322],[70.256622,31.144921],[70.258792,31.149856],[70.264218,31.15505],[70.299616,31.171043],[70.31729,31.175074],[70.340389,31.184815],[70.348812,31.187166],[70.355324,31.188329],[70.398732,31.190551],[70.403899,31.19174],[70.40855,31.203315],[70.400592,31.247059],[70.417232,31.245277],[70.427309,31.250289],[70.429014,31.252201],[70.43134,31.256852],[70.433665,31.263312],[70.436611,31.269565],[70.442037,31.277316],[70.453974,31.290778],[70.46188,31.296023],[70.470304,31.298038],[70.486117,31.29579],[70.494488,31.295945],[70.509371,31.297935],[70.517277,31.300286],[70.525546,31.304627],[70.54911,31.321396],[70.559807,31.324807],[70.570504,31.325711],[70.588849,31.321163],[70.622336,31.307573],[70.632619,31.30486],[70.646572,31.302844],[70.656029,31.303929],[70.700729,31.320414],[70.714371,31.323308],[70.722743,31.324316],[70.729564,31.323179],[70.73499,31.321163],[70.739693,31.318063],[70.751165,31.30734],[70.758761,31.302302],[70.77814,31.294163],[70.79292,31.319872],[70.815709,31.340361],[70.819585,31.346537],[70.820825,31.35235],[70.82005,31.356381],[70.816329,31.364572],[70.824856,31.395578],[70.827956,31.399221],[70.832607,31.403484],[70.8478,31.407644],[70.861184,31.414336],[70.86723,31.419917],[70.870641,31.424671],[70.873586,31.436686],[70.876377,31.461387],[70.875602,31.467537],[70.8663,31.490455],[70.868315,31.497354],[70.872656,31.501824],[70.880408,31.504434],[70.885369,31.507405],[70.885214,31.511514],[70.881493,31.516862],[70.868626,31.52991],[70.86382,31.536241],[70.85457,31.552441],[70.903507,31.663856],[70.904954,31.673054],[70.904437,31.678945],[70.899476,31.695275],[70.899476,31.709719],[70.905988,31.721552],[70.923868,31.7446],[70.967172,31.81904],[70.974149,31.838806],[70.983606,31.879398],[70.993062,31.898027],[71.00748,31.913039],[71.023293,31.926036],[71.037194,31.940299],[71.054971,31.982338],[71.070422,31.999236],[71.107112,32.030655],[71.112538,32.039156],[71.114554,32.047631],[71.114864,32.066648],[71.117499,32.081246],[71.1237,32.094243],[71.132434,32.105948],[71.168194,32.140933],[71.177857,32.147263],[71.206951,32.15982],[71.215891,32.16566],[71.229017,32.181912],[71.23682,32.201988],[71.247362,32.243691],[71.252116,32.254647],[71.272063,32.282991],[71.276714,32.292732],[71.278523,32.302163],[71.278885,32.322446],[71.283691,32.340016],[71.294078,32.356242],[71.331646,32.399418],[71.340793,32.415231],[71.346839,32.432439],[71.34994,32.501789],[71.343894,32.513029],[71.339863,32.515561],[71.338003,32.519333],[71.337848,32.526258],[71.336762,32.531012],[71.333197,32.534759],[71.3256,32.537497],[71.317694,32.537911],[71.312423,32.536852],[71.308547,32.53388],[71.304826,32.527111],[71.303586,32.524372],[71.302036,32.521762],[71.299245,32.519798],[71.295008,32.518015],[71.289582,32.516775],[71.286016,32.514295],[71.283536,32.510781],[71.27997,32.503546],[71.277489,32.499825],[71.272994,32.494761],[71.268808,32.492875],[71.264002,32.493443],[71.259816,32.496208],[71.25439,32.501608],[71.249119,32.510987],[71.245708,32.524527],[71.260281,32.566643],[71.261676,32.584265],[71.258421,32.589923],[71.254855,32.592326],[71.249739,32.593411],[71.245502,32.593101],[71.201473,32.585582],[71.193877,32.585815],[71.186281,32.587029],[71.173982,32.592171],[71.168245,32.598321],[71.16437,32.607157],[71.159719,32.635321],[71.149022,32.671081],[71.148092,32.679375],[71.148402,32.698935],[71.144061,32.718494],[71.109128,32.781798],[71.106337,32.791487],[71.109438,32.795931],[71.112693,32.798257],[71.12246,32.801616],[71.133777,32.811098],[71.137395,32.826343],[71.144836,32.899698],[71.149177,32.916415],[71.155378,32.929747],[71.179563,32.963053],[71.188141,32.969874],[71.195737,32.97468],[71.20752,32.978763],[71.222867,32.985687],[71.232789,32.991527],[71.297075,33.013463],[71.300589,33.013747],[71.303896,33.012843],[71.310717,33.008166],[71.315523,33.006177],[71.327461,33.003257],[71.330871,33.001681],[71.333662,32.999201],[71.338003,32.997495],[71.346064,32.9961],[71.357123,33.000906],[71.365339,33.003567],[71.372006,33.004317],[71.380377,33.003851],[71.388284,33.005014],[71.401926,33.01075],[71.411383,33.013127],[71.423062,33.013386],[71.435464,33.016176],[71.442906,33.019406],[71.448797,33.024444],[71.461199,33.040929],[71.46554,33.0485],[71.4674,33.05576],[71.4674,33.060024],[71.46585,33.064907],[71.46306,33.069636],[71.458564,33.074881],[71.454223,33.076276],[71.450037,33.076173],[71.445851,33.075242],[71.442596,33.074932],[71.43934,33.075087],[71.437635,33.079583],[71.437325,33.088575],[71.447402,33.132655],[71.446161,33.137254],[71.437635,33.146969],[71.429108,33.160689],[71.428333,33.164074],[71.428178,33.16764],[71.428333,33.172678],[71.428023,33.176554],[71.426938,33.18136],[71.425232,33.18459],[71.422132,33.187535],[71.417326,33.19092],[71.41252,33.198827],[71.410763,33.211126],[71.416241,33.233501],[71.418876,33.241382],[71.427248,33.247325],[71.435929,33.242028],[71.439495,33.235672],[71.445696,33.23084],[71.453293,33.226138],[71.48063,33.215363],[71.489621,33.213374],[71.498148,33.213218],[71.538352,33.225543],[71.545328,33.223605],[71.571063,33.209679],[71.583156,33.200454],[71.590494,33.192548],[71.593594,33.186631],[71.594989,33.179629],[71.59623,33.149476],[71.59778,33.142267],[71.59995,33.136298],[71.606462,33.124774],[71.615143,33.113199],[71.632507,33.094156],[71.64279,33.085423],[71.652092,33.079299],[71.700358,33.061626],[71.71214,33.072788],[71.71121,33.09444],[71.713122,33.110951],[71.721132,33.129296],[71.729917,33.139812],[71.74051,33.150096],[71.749864,33.163609],[71.75467,33.183918],[71.751414,33.205493],[71.740924,33.219549],[71.726868,33.231305],[71.71307,33.246007],[71.721132,33.246007],[71.703458,33.256653],[71.699272,33.272698],[71.704905,33.289803],[71.717101,33.303704],[71.725162,33.318793],[71.722682,33.336234],[71.723302,33.355355],[71.740975,33.375715],[71.796993,33.400158],[71.813012,33.403646],[71.842003,33.402328],[71.850839,33.403646],[71.859728,33.408917],[71.863655,33.415403],[71.867996,33.421009],[71.878176,33.423516],[71.87275,33.434652],[71.873835,33.443592],[71.879727,33.451989],[71.888408,33.461369],[71.892749,33.468138],[71.8974,33.481729],[71.902051,33.488706],[71.944994,33.515758],[71.953262,33.526533],[71.955846,33.547307],[71.953262,33.560071],[71.953417,33.570664],[71.971969,33.598311],[71.974346,33.650065],[71.979565,33.664612],[71.999254,33.703576],[72.005094,33.711508],[72.010365,33.716185],[72.022147,33.746261],[72.032017,33.754116],[72.053101,33.761015],[72.063126,33.76613],[72.083177,33.788274],[72.087621,33.790031],[72.114958,33.779799],[72.152837,33.77737],[72.17206,33.773236],[72.186633,33.76613],[72.198415,33.773649],[72.211024,33.776647],[72.223323,33.774399],[72.234434,33.76613],[72.241513,33.804914],[72.226114,33.901368],[72.240635,33.938084],[72.255311,33.944543],[72.348639,33.961131],[72.367035,33.969503],[72.39892,33.993326],[72.430907,34.011464],[72.467804,34.020611],[72.509714,34.022781],[72.525527,34.021231],[72.542012,33.989088],[72.551314,33.965059],[72.5586,33.957256],[72.565576,33.951416],[72.571312,33.949453],[72.615392,33.945008],[72.632135,33.941391],[72.64583,33.936663],[72.651876,33.932503],[72.654821,33.927749],[72.653736,33.924235],[72.650791,33.920953],[72.646863,33.918705],[72.638802,33.915217],[72.632135,33.910902],[72.620508,33.899662],[72.617718,33.895632],[72.616167,33.891368],[72.615857,33.885193],[72.617873,33.881085],[72.622834,33.876486],[72.6449,33.861215],[72.652806,33.857184],[72.659937,33.85535],[72.673735,33.857494],[72.685672,33.860724],[72.690168,33.862585],[72.694354,33.865427],[72.69823,33.869561],[72.703397,33.876589],[72.712079,33.891162],[72.71611,33.896484],[72.720761,33.89974],[72.731923,33.902298],[72.735798,33.903693],[72.737814,33.906096],[72.737969,33.909042],[72.736574,33.915243],[72.736418,33.918085],[72.737814,33.921573],[72.740139,33.924725],[72.760655,33.94351],[72.766701,33.947024],[72.773832,33.949582],[72.778483,33.948212],[72.784529,33.944621],[72.78918,33.940461],[72.794451,33.934932],[72.796932,33.930694],[72.797397,33.927283],[72.790885,33.916121],[72.789335,33.912116],[72.788715,33.908163],[72.7898,33.904339],[72.793676,33.899585],[72.811711,33.883178],[72.833725,33.885064],[72.837291,33.882687],[72.841632,33.877261],[72.842562,33.872145],[72.843027,33.868062],[72.842407,33.85411],[72.841477,33.850234],[72.839616,33.847056],[72.836516,33.844239],[72.828609,33.839589],[72.823958,33.833697],[72.824889,33.830287],[72.828454,33.827186],[72.833105,33.82561],[72.836981,33.824809],[72.841942,33.824551],[72.846283,33.825636],[72.852329,33.828013],[72.85884,33.828375],[72.866126,33.825739],[72.874085,33.821683],[72.87641,33.817729],[72.87641,33.814112],[72.875015,33.810288],[72.872999,33.807291],[72.870002,33.80419],[72.865816,33.801451],[72.85884,33.798067],[72.852639,33.795922],[72.846903,33.791633],[72.842872,33.785018],[72.840391,33.769128],[72.841632,33.76179],[72.844732,33.757061],[72.849538,33.755666],[72.85667,33.755718],[72.879045,33.758095],[72.883851,33.756803],[72.894858,33.750731],[72.900905,33.748948],[72.907106,33.748716],[72.920593,33.749775],[72.927156,33.749051],[72.92912,33.746623],[72.928396,33.742824],[72.926329,33.739905],[72.927466,33.727451],[72.832795,33.686032],[72.810264,33.661925],[72.804993,33.635053],[72.817395,33.60937],[72.83388,33.589552],[72.854809,33.574385],[72.878735,33.571388],[72.901835,33.575083],[72.923074,33.584617],[72.939093,33.595521],[72.973665,33.612781],[73.010304,33.623839],[73.029837,33.627767],[73.046322,33.628025],[73.066321,33.622754],[73.078878,33.613763],[73.09066,33.600275],[73.100944,33.583428],[73.108385,33.564644],[73.10668,33.549529],[73.100169,33.53617],[73.096552,33.524982],[73.1042,33.515474],[73.116602,33.507852],[73.142957,33.496457],[73.163628,33.492271],[73.182541,33.496328],[73.186107,33.498886],[73.187502,33.500384],[73.189362,33.503046],[73.20099,33.515836],[73.231737,33.543302],[73.238558,33.551492],[73.275817,33.62632],[73.287134,33.639652],[73.313179,33.663372],[73.320517,33.675748],[73.320517,33.687091],[73.312404,33.697013],[73.274267,33.721792],[73.242899,33.750705],[73.228792,33.761299],[73.215304,33.768973],[73.134895,33.799643],[73.126214,33.804345],[73.145127,33.810598],[73.192773,33.808531],[73.216389,33.821838],[73.240729,33.839227],[73.271786,33.849562],[73.28915,33.859071],[73.311939,33.867623],[73.316797,33.870801],[73.319897,33.875219],[73.321137,33.879715],[73.321757,33.883979],[73.325013,33.891058],[73.330749,33.899817],[73.36098,33.935087],[73.362065,33.938291],[73.361135,33.941184],[73.358189,33.94506],[73.356019,33.95059],[73.358344,33.960046],[73.36439,33.965576],[73.369817,33.968676],[73.375914,33.969865],[73.382426,33.970123],[73.387852,33.968754],[73.399324,33.962475],[73.403199,33.961338],[73.408936,33.96108],[73.417152,33.962372],[73.424128,33.966351],[73.428831,33.970769],[73.446969,33.996582],[73.452706,34.001284],[73.458287,34.00423],[73.464643,34.005367],[73.484021,34.012756],[73.492135,34.018131],[73.498646,34.018053],[73.504382,34.01503],[73.508878,34.010999],[73.518644,34.00777],[73.579829,33.910464],[73.582516,33.876745],[73.56722,33.803442],[73.576418,33.777138],[73.58851,33.762333],[73.595745,33.745616],[73.599362,33.727477],[73.600293,33.70859],[73.595642,33.695386],[73.577452,33.663244],[73.576418,33.654019],[73.578382,33.64756],[73.573111,33.633659],[73.576418,33.626372],[73.603807,33.605934],[73.614659,33.593119],[73.625201,33.575471],[73.632849,33.556842],[73.635019,33.540796],[73.630988,33.531184],[73.624477,33.528213],[73.618173,33.526172],[73.614659,33.519661],[73.614969,33.510126],[73.622617,33.477157],[73.625924,33.469664],[73.628198,33.461705],[73.627578,33.452068],[73.62241,33.448605],[73.620583,33.448246],[73.613212,33.446797],[73.612732,33.446518],[73.60422,33.441577],[73.594401,33.411734],[73.582826,33.399875],[73.573834,33.387395],[73.576418,33.369541],[73.586857,33.355562],[73.598432,33.342875],[73.603186,33.333031],[73.600293,33.321817],[73.597605,33.315022],[73.593471,33.304299],[73.594918,33.285721],[73.599156,33.26642],[73.600293,33.246706],[73.596882,33.244251],[73.589957,33.241254],[73.588318,33.240746],[73.583033,33.239109],[73.579829,33.239264],[73.57994,33.238427],[73.581172,33.229161],[73.583756,33.227637],[73.587787,33.228464],[73.594428,33.228216],[73.594712,33.228205],[73.599945,33.230359],[73.601429,33.23097],[73.609491,33.232546],[73.614659,33.232443],[73.615382,33.229575],[73.616002,33.22358],[73.617656,33.216888],[73.620756,33.212005],[73.640807,33.20105],[73.649282,33.194848],[73.654863,33.184694],[73.654553,33.173041],[73.649799,33.161853],[73.644424,33.154386],[73.645354,33.143094],[73.622513,33.124491],[73.640497,33.103304],[73.672743,33.084907],[73.731964,33.06266],[73.763487,33.045658],[73.773202,33.030646],[73.786018,33.024652],[73.805861,33.015144],[73.822398,33.013206],[73.829129,33.015386],[73.829736,33.015583],[73.84763,33.02371],[73.849476,33.024549],[73.859502,33.026977],[73.873764,33.028734],[73.907354,33.029949],[73.926061,33.02597],[73.943011,33.018192],[73.951072,33.011449],[73.95624,33.006178],[73.959444,33.001811],[73.960064,33.000519],[73.977014,32.975869],[73.983008,32.969074],[74.316989,32.823067],[74.315939,32.82175],[74.306503,32.809911],[74.316321,32.791075],[74.329344,32.776424],[74.34619,32.76689],[74.367688,32.763531],[74.386394,32.767768],[74.418951,32.784615],[74.438691,32.785984],[74.455331,32.778595],[74.484476,32.753532],[74.500909,32.746013],[74.52096,32.745289],[74.573773,32.75255],[74.59341,32.757872],[74.614081,32.770404],[74.622039,32.785416],[74.626276,32.80265],[74.635888,32.82208],[74.653562,32.837428],[74.671752,32.840581],[74.685291,32.831227],[74.689115,32.808825],[74.682294,32.787328],[74.656972,32.745341],[74.649738,32.723146],[74.650151,32.701235],[74.657282,32.660592],[74.656042,32.64067],[74.647981,32.623617],[74.636922,32.606254],[74.629584,32.588089],[74.632581,32.568168],[74.662553,32.498379],[74.689322,32.471352],[74.724978,32.46081],[74.763529,32.462671],[74.799393,32.47267],[74.83815,32.474866],[74.906983,32.445178],[74.948427,32.44877],[74.990699,32.463368],[75.023668,32.466262],[75.054881,32.455539],[75.092191,32.429339],[75.125988,32.411744],[75.196164,32.3973],[75.230167,32.380195],[75.298403,32.332427]]]}}]}
