{"type":"FeatureCollection","features":[{"type":"Feature","properties":{"id":"IN-PB","country":"IN","name_en":"Punjab"},"geometry":{"type":"Polygon","coordinates":[[[75.294659,32.148892],[75.29807,32.159795],[75.308405,32.193902],[75.31657,32.210748],[75.34861,32.242012],[75.359048,32.261675],[75.35295,32.284387],[75.326906,32.312473],[75.298403,32.332427],[75.327113,32.339964],[75.390365,32.335494],[75.414136,32.34601],[75.422714,32.353994],[75.43677,32.360221],[75.441938,32.359756],[75.444419,32.353193],[75.442041,32.336192],[75.444729,32.330301],[75.451447,32.324022],[75.464779,32.317743],[75.474184,32.312137],[75.480695,32.30746],[75.5024,32.300587],[75.537953,32.345184],[75.5733,32.374639],[75.611954,32.395465],[75.682647,32.399806],[75.698253,32.406033],[75.705695,32.412802],[75.723161,32.424223],[75.729362,32.429623],[75.732566,32.437168],[75.736804,32.4559],[75.743005,32.464375],[75.797679,32.481118],[75.818039,32.494787],[75.828581,32.497887],[75.839123,32.506569],[75.847391,32.516749],[75.85659,32.514579],[75.866305,32.504864],[75.870646,32.499722],[75.911677,32.431354],[75.913847,32.425411],[75.912607,32.419055],[75.905786,32.413319],[75.85752,32.389961],[75.779282,32.336579],[75.742695,32.299347],[75.727605,32.287926],[75.711792,32.279089],[75.692672,32.272268],[75.622909,32.258522],[75.618878,32.256042],[75.613401,32.250926],[75.60844,32.239919],[75.606269,32.225863],[75.608543,32.209998],[75.614641,32.196769],[75.625183,32.190904],[75.632314,32.191033],[75.637895,32.193358],[75.642133,32.19558],[75.647714,32.197622],[75.654018,32.198009],[75.659806,32.195348],[75.661046,32.188785],[75.656189,32.174651],[75.649264,32.161474],[75.639445,32.146849],[75.582188,32.092253],[75.577847,32.083701],[75.580948,32.076699],[75.5918,32.0721],[75.601618,32.068947],[75.66239,32.060446],[75.684301,32.053083],[75.699804,32.056106],[75.706521,32.049827],[75.752927,32.03236],[75.801813,32.005644],[75.861241,31.98257],[75.879741,31.97239],[75.89142,31.953941],[75.92749,31.907923],[75.964283,31.848754],[75.968108,31.841054],[75.968314,31.835215],[75.961906,31.831572],[75.955395,31.831313],[75.942476,31.833122],[75.934931,31.832889],[75.927593,31.829944],[75.922632,31.824699],[75.921599,31.814286],[75.923252,31.806276],[75.943096,31.771756],[76.07053,31.564172],[76.125927,31.430537],[76.141017,31.369584],[76.147011,31.354417],[76.158484,31.338553],[76.179464,31.318476],[76.201065,31.307004],[76.223079,31.315634],[76.231141,31.317494],[76.242819,31.31814],[76.261113,31.310932],[76.268348,31.309226],[76.275376,31.310441],[76.28199,31.31566],[76.287778,31.324471],[76.290879,31.33925],[76.294496,31.347518],[76.30111,31.351782],[76.31434,31.349921],[76.319611,31.353797],[76.322815,31.364158],[76.316923,31.401701],[76.322091,31.412812],[76.345035,31.418186],[76.349583,31.419865],[76.352994,31.422113],[76.356094,31.426299],[76.359918,31.430304],[76.373561,31.419245],[76.412835,31.355115],[76.433505,31.317804],[76.439397,31.299692],[76.447458,31.297056],[76.452832,31.298219],[76.459757,31.302896],[76.463788,31.307133],[76.469369,31.307986],[76.475363,31.303361],[76.483425,31.290674],[76.491693,31.284525],[76.496344,31.283078],[76.499238,31.286282],[76.500995,31.288866],[76.503269,31.290881],[76.506886,31.291114],[76.520529,31.289176],[76.526316,31.285765],[76.531587,31.278737],[76.533758,31.2668],[76.536652,31.259875],[76.542233,31.255689],[76.54647,31.256671],[76.550604,31.259824],[76.554842,31.26543],[76.561146,31.276722],[76.564247,31.280029],[76.567244,31.28052],[76.571895,31.277574],[76.576753,31.272303],[76.584194,31.259927],[76.586984,31.249798],[76.581403,31.231091],[76.582334,31.227422],[76.590085,31.226596],[76.61427,31.228999],[76.623571,31.226492],[76.628429,31.220084],[76.621814,31.208276],[76.606518,31.192799],[76.602797,31.185668],[76.601351,31.177529],[76.5998,31.134896],[76.602487,31.127248],[76.621711,31.116525],[76.623055,31.107275],[76.611582,31.08893],[76.607862,31.08123],[76.605898,31.0726],[76.605691,31.062265],[76.607552,31.052058],[76.610859,31.041206],[76.615303,31.030148],[76.625638,31.016608],[76.645172,30.999271],[76.700259,30.961883],[76.721757,30.941161],[76.768162,30.907597],[76.777774,30.897288],[76.785525,30.885169],[76.796894,30.861992],[76.801855,30.856153],[76.808573,30.852432],[76.822319,30.849073],[76.828727,30.846205],[76.832758,30.842278],[76.835238,30.83587],[76.835858,30.82923],[76.834721,30.82246],[76.829657,30.808766],[76.814567,30.789129],[76.77395,30.799025],[76.75793,30.79856],[76.741497,30.796493],[76.703773,30.781403],[76.696952,30.776339],[76.694368,30.771507],[76.693748,30.763523],[76.695402,30.755875],[76.698089,30.74926],[76.70181,30.744558],[76.730748,30.723164],[76.760101,30.692003],[76.769609,30.684665],[76.775603,30.677404],[76.780564,30.673451],[76.785215,30.672288],[76.794724,30.67973],[76.800305,30.682675],[76.806816,30.683295],[76.811674,30.683218],[76.82728,30.680712],[76.838132,30.6788],[76.841853,30.679678],[76.8464,30.682029],[76.848881,30.682288],[76.851258,30.681564],[76.852808,30.679032],[76.854358,30.675337],[76.860663,30.645236],[76.865934,30.640869],[76.871722,30.638544],[76.879266,30.637536],[76.886604,30.633789],[76.891049,30.62733],[76.896216,30.610535],[76.89942,30.604825],[76.901487,30.598804],[76.901487,30.592629],[76.894459,30.561132],[76.893116,30.543795],[76.89787,30.535191],[76.905518,30.526845],[76.909755,30.520437],[76.910376,30.514158],[76.906035,30.506278],[76.90004,30.498216],[76.898077,30.494056],[76.89601,30.486615],[76.895699,30.455635],[76.897146,30.442096],[76.906345,30.405612],[76.906965,30.395768],[76.904898,30.384089],[76.90035,30.372022],[76.891049,30.361248],[76.880507,30.358302],[76.869241,30.362359],[76.860043,30.376828],[76.851051,30.404734],[76.845263,30.417524],[76.838752,30.424241],[76.82945,30.427084],[76.798444,30.422846],[76.786456,30.422924],[76.767129,30.430598],[76.752866,30.43052],[76.727648,30.420056],[76.724237,30.41649],[76.721447,30.410599],[76.716382,30.381247],[76.717106,30.376751],[76.718966,30.373418],[76.722273,30.371635],[76.734056,30.369206],[76.739017,30.366596],[76.740153,30.362902],[76.736846,30.357088],[76.729715,30.349595],[76.714315,30.337115],[76.649926,30.296807],[76.636904,30.29102],[76.61675,30.27947],[76.605588,30.274431],[76.564557,30.2619],[76.550191,30.25451],[76.539132,30.245131],[76.533138,30.234615],[76.535411,30.225029],[76.539339,30.219887],[76.545333,30.217794],[76.549881,30.218337],[76.556082,30.220895],[76.561146,30.22477],[76.577476,30.243658],[76.582437,30.247275],[76.586364,30.248128],[76.590809,30.246681],[76.594736,30.243865],[76.59763,30.240196],[76.59918,30.236475],[76.60042,30.231359],[76.602487,30.226166],[76.605278,30.221515],[76.609309,30.217639],[76.6152,30.214228],[76.628222,30.210714],[76.63339,30.208441],[76.637421,30.205443],[76.639694,30.202188],[76.641451,30.197976],[76.640831,30.190561],[76.638661,30.18206],[76.630083,30.166893],[76.628532,30.158676],[76.629359,30.147566],[76.624812,30.142837],[76.589775,30.124027],[76.531381,30.083978],[76.497067,30.085218],[76.486526,30.090773],[76.462031,30.097026],[76.454589,30.101625],[76.448698,30.108111],[76.437536,30.12426],[76.429578,30.140357],[76.419346,30.177125],[76.415315,30.182602],[76.409321,30.185884],[76.401983,30.186452],[76.394541,30.184566],[76.387824,30.180044],[76.38617,30.171699],[76.388444,30.165756],[76.392061,30.159529],[76.393921,30.154542],[76.394025,30.149426],[76.392474,30.144698],[76.383173,30.125681],[76.379349,30.119945],[76.373457,30.116973],[76.36829,30.116534],[76.363639,30.118446],[76.357748,30.123717],[76.345966,30.136585],[76.338938,30.141235],[76.333357,30.141623],[76.328086,30.138833],[76.327776,30.130358],[76.329636,30.123355],[76.329946,30.116844],[76.326845,30.111883],[76.317234,30.106561],[76.308138,30.105915],[76.29956,30.106922],[76.286538,30.110514],[76.274239,30.111728],[76.266694,30.113692],[76.257702,30.118601],[76.228763,30.138652],[76.220702,30.139814],[76.213881,30.137489],[76.205819,30.130978],[76.201375,30.125603],[76.202408,30.118162],[76.205819,30.113046],[76.211607,30.108318],[76.217188,30.105217],[76.244783,30.096354],[76.251294,30.092479],[76.252741,30.088577],[76.246333,30.084882],[76.224629,30.081704],[76.219668,30.079224],[76.216568,30.075193],[76.216258,30.068708],[76.216981,30.063695],[76.218738,30.059587],[76.221322,30.054781],[76.223079,30.050673],[76.221942,30.046409],[76.219048,30.042508],[76.21047,30.03349],[76.203339,30.021682],[76.183702,29.973571],[76.178121,29.954684],[76.176984,29.945537],[76.178431,29.935873],[76.181014,29.92807],[76.185355,29.918381],[76.188146,29.909467],[76.193313,29.901069],[76.200135,29.895411],[76.219048,29.885489],[76.226283,29.878202],[76.22556,29.869082],[76.213881,29.858746],[76.184115,29.845414],[76.161274,29.830092],[76.147321,29.82327],[76.125824,29.81849],[76.08438,29.802109],[76.05203,29.764411],[76.043865,29.758158],[76.031773,29.754825],[76.003971,29.75653],[75.991569,29.752732],[75.970588,29.742965],[75.956945,29.738624],[75.939892,29.738547],[75.90806,29.748159],[75.886665,29.749244],[75.875503,29.760561],[75.873126,29.764101],[75.85814,29.796502],[75.851939,29.805029],[75.829821,29.821074],[75.821036,29.824769],[75.806257,29.828645],[75.796955,29.830195],[75.786,29.83097],[75.759231,29.823735],[75.727502,29.810351],[75.720164,29.802626],[75.717477,29.794332],[75.718924,29.786063],[75.717684,29.778028],[75.710862,29.771232],[75.698563,29.768984],[75.663217,29.775315],[75.641926,29.773067],[75.623632,29.767124],[75.604409,29.764669],[75.575367,29.769527],[75.548081,29.784539],[75.539503,29.787484],[75.530201,29.786373],[75.511185,29.787846],[75.477905,29.800533],[75.461162,29.807897],[75.45248,29.809214],[75.445762,29.806191],[75.431499,29.785831],[75.408762,29.761414],[75.384784,29.722269],[75.376722,29.712941],[75.353675,29.695449],[75.345303,29.686974],[75.344166,29.679248],[75.344786,29.670954],[75.342823,29.662841],[75.335795,29.660903],[75.329904,29.662763],[75.321532,29.662583],[75.31161,29.656175],[75.296727,29.633954],[75.29063,29.621526],[75.289906,29.611526],[75.293627,29.60517],[75.299518,29.597677],[75.303549,29.589176],[75.301792,29.580494],[75.29528,29.574862],[75.267995,29.569642],[75.248565,29.559824],[75.234612,29.561788],[75.228618,29.58468],[75.226447,29.590701],[75.220763,29.601243],[75.219523,29.605041],[75.219109,29.609924],[75.217869,29.614678],[75.213632,29.621345],[75.20681,29.628373],[75.194305,29.63863],[75.190274,29.64447],[75.189344,29.648346],[75.192858,29.653307],[75.193995,29.655994],[75.193995,29.659508],[75.192548,29.663254],[75.174461,29.679868],[75.17229,29.684933],[75.172084,29.688214],[75.174254,29.690126],[75.179835,29.692477],[75.184073,29.693718],[75.199576,29.70134],[75.20557,29.705319],[75.20712,29.707644],[75.207327,29.710926],[75.20712,29.718212],[75.204847,29.734077],[75.205157,29.74095],[75.206087,29.744619],[75.207947,29.746841],[75.210531,29.747384],[75.214252,29.747073],[75.218283,29.746298],[75.221693,29.745962],[75.227171,29.745962],[75.232442,29.746479],[75.236059,29.747487],[75.23823,29.748779],[75.238333,29.751879],[75.236163,29.756995],[75.230892,29.765806],[75.212598,29.787407],[75.203606,29.8003],[75.200196,29.807018],[75.197819,29.814408],[75.196268,29.827637],[75.193168,29.832675],[75.187897,29.834743],[75.179732,29.833192],[75.165262,29.827404],[75.160095,29.824278],[75.156994,29.820687],[75.155134,29.817121],[75.15131,29.796373],[75.149863,29.793866],[75.147692,29.792833],[75.144799,29.793866],[75.140251,29.798078],[75.13405,29.80583],[75.128676,29.810687],[75.105214,29.821384],[75.100254,29.826914],[75.098186,29.833967],[75.101184,29.850659],[75.100667,29.85562],[75.099013,29.859418],[75.093432,29.867221],[75.092605,29.869314],[75.093226,29.872105],[75.095396,29.874146],[75.098807,29.8766],[75.101804,29.879598],[75.104388,29.885282],[75.106145,29.89293],[75.106765,29.902077],[75.106558,29.910423],[75.105628,29.918071],[75.102114,29.923807],[75.095293,29.92776],[75.085784,29.924324],[75.081753,29.919931],[75.079893,29.91311],[75.07979,29.907606],[75.078239,29.900992],[75.076379,29.896082],[75.072762,29.891147],[75.067801,29.888357],[75.059739,29.885876],[75.04744,29.883887],[75.019535,29.875619],[75.004549,29.872751],[74.99566,29.872983],[74.984602,29.878745],[74.979847,29.882776],[74.974576,29.888124],[74.969099,29.892543],[74.945741,29.905643],[74.941297,29.909725],[74.937473,29.915384],[74.935302,29.921481],[74.932822,29.93285],[74.931272,29.936623],[74.927551,29.941351],[74.918663,29.948379],[74.913392,29.951273],[74.90347,29.954839],[74.852413,29.962693],[74.841458,29.965587],[74.83691,29.968585],[74.832776,29.972925],[74.826782,29.981297],[74.823371,29.984992],[74.81624,29.98631],[74.806215,29.98525],[74.767251,29.974708],[74.745236,29.972383],[74.726013,29.972693],[74.719295,29.971453],[74.710717,29.968378],[74.678057,29.948379],[74.672166,29.943444],[74.667205,29.937656],[74.65935,29.923859],[74.654389,29.917089],[74.650669,29.914066],[74.632685,29.914815],[74.577805,29.933832],[74.516517,29.94719],[74.385568,29.963081],[74.290587,29.962461],[73.915933,29.979902],[73.887098,29.984242],[73.884617,29.999539],[73.884617,30.000004],[73.886684,30.007135],[73.898466,30.034911],[73.969677,30.137437],[73.97133,30.141856],[73.975981,30.161157],[73.977118,30.178055],[73.9704,30.196323],[73.946831,30.204077],[73.948902,30.217278],[73.934639,30.261048],[73.911901,30.303784],[73.891644,30.329778],[73.842345,30.35298],[73.845239,30.35696],[73.85175,30.372669],[73.867666,30.387449],[73.887614,30.396544],[73.906114,30.394838],[73.904253,30.401453],[73.902083,30.415612],[73.899913,30.422124],[73.916656,30.417163],[73.929265,30.419075],[73.939083,30.426051],[73.98983,30.487804],[73.996031,30.500982],[74.004402,30.50894],[74.04409,30.518655],[74.057526,30.531367],[74.061453,30.555604],[74.058249,30.574466],[74.057112,30.591571],[74.067448,30.610536],[74.082227,30.625884],[74.09587,30.637149],[74.111476,30.646244],[74.132663,30.655494],[74.155711,30.659577],[74.163669,30.664899],[74.16677,30.67911],[74.170077,30.687172],[74.18465,30.696835],[74.191161,30.717041],[74.198809,30.724999],[74.215139,30.737453],[74.235706,30.764118],[74.244078,30.771249],[74.259167,30.781016],[74.266712,30.788354],[74.265782,30.795434],[74.256687,30.815278],[74.260201,30.819412],[74.279941,30.824683],[74.300198,30.83817],[74.31136,30.855947],[74.304022,30.874034],[74.31074,30.884473],[74.319215,30.893413],[74.329757,30.899614],[74.34247,30.901939],[74.353632,30.901112],[74.379677,30.894498],[74.401277,30.893103],[74.409132,30.901009],[74.41337,30.915065],[74.424325,30.932325],[74.441585,30.946174],[74.458535,30.953409],[74.477242,30.956096],[74.499463,30.95651],[74.519306,30.962452],[74.534809,30.97625],[74.548762,30.992166],[74.564058,31.004362],[74.564265,31.025032],[74.579458,31.042706],[74.600955,31.056607],[74.658833,31.083789],[74.650254,31.093142],[74.631961,31.107508],[74.616975,31.11526],[74.596924,31.115776],[74.553103,31.108955],[74.536773,31.115156],[74.523544,31.129315],[74.514862,31.141821],[74.509591,31.156084],[74.506387,31.175411],[74.509074,31.195668],[74.525094,31.235407],[74.525301,31.280211],[74.532225,31.303207],[74.571603,31.389248],[74.583695,31.40656],[74.600025,31.42413],[74.61191,31.440201],[74.617181,31.458908],[74.614598,31.477821],[74.584522,31.517509],[74.555583,31.612232],[74.499463,31.699875],[74.489437,31.711192],[74.492641,31.714551],[74.503287,31.730571],[74.505457,31.732018],[74.513312,31.735118],[74.516206,31.737392],[74.518273,31.741836],[74.521167,31.753773],[74.523027,31.758476],[74.530778,31.767829],[74.535119,31.771137],[74.53698,31.775736],[74.537393,31.788913],[74.540804,31.810876],[74.550415,31.826999],[74.565608,31.840538],[74.641056,31.890561],[74.657179,31.895677],[74.669995,31.904152],[74.698417,31.950247],[74.763012,31.938982],[74.783683,31.942858],[74.802493,31.968851],[74.811278,32.003732],[74.828641,32.025437],[74.873186,32.011691],[74.889103,32.028899],[74.908843,32.031896],[74.931374,32.029829],[74.955662,32.032206],[74.967858,32.037891],[74.974059,32.04497],[74.978503,32.053393],[74.986151,32.063212],[74.995556,32.067398],[75.020154,32.065847],[75.030179,32.066416],[75.022635,32.094683],[75.040825,32.09799],[75.102113,32.078095],[75.110278,32.07763],[75.11896,32.08104],[75.129812,32.090239],[75.13839,32.093494],[75.161334,32.087965],[75.17415,32.086828],[75.173116,32.109721],[75.195751,32.128634],[75.226447,32.14207],[75.249908,32.148892],[75.263344,32.150907],[75.294659,32.148892]]]}}]}
