{"type":"FeatureCollection","features":[{"type":"Feature","properties":{"id":"PK-KP","country":"PK","name_en":"Khyber Pakhtunkhwa"},"geometry":{"type":"Polygon","coordinates":[[[73.640083,36.896638],[73.709483,36.894221],[73.711128,36.894164],[73.711335,36.894157],[73.711842,36.894139],[73.711707,36.893201],[73.708916,36.873823],[73.711558,36.861788],[73.711657,36.861339],[73.711707,36.86111],[73.714498,36.856459],[73.720285,36.851137],[73.723021,36.849412],[73.72504,36.84814],[73.730207,36.845762],[73.737752,36.843437],[73.774752,36.838114],[73.785501,36.834445],[73.797768,36.828548],[73.798937,36.827986],[73.812187,36.816392],[73.812993,36.815687],[73.868081,36.7855],[73.86901,36.784991],[73.880999,36.776464],[73.886979,36.770828],[73.887235,36.770586],[73.887304,36.770522],[73.888976,36.764383],[73.891119,36.756516],[73.891231,36.756104],[73.892058,36.751505],[73.891438,36.74675],[73.887304,36.737965],[73.886373,36.734038],[73.88658,36.730162],[73.88782,36.725563],[73.88813,36.71993],[73.885753,36.714194],[73.879345,36.71161],[73.873971,36.711042],[73.854231,36.714763],[73.833353,36.721429],[73.801934,36.728457],[73.790875,36.72918],[73.787155,36.728405],[73.767414,36.717605],[73.761626,36.716055],[73.756252,36.716416],[73.736305,36.724374],[73.728554,36.726545],[73.721215,36.727113],[73.715118,36.724995],[73.695377,36.71037],[73.684112,36.704892],[73.678634,36.703962],[73.673363,36.704531],[73.661994,36.70913],[73.654863,36.710577],[73.628301,36.70975],[73.622307,36.710163],[73.617863,36.712179],[73.617121,36.712762],[73.613522,36.715589],[73.607631,36.721687],[73.599156,36.732643],[73.595125,36.735485],[73.594812,36.735459],[73.590681,36.735123],[73.576728,36.729232],[73.571044,36.727733],[73.565359,36.72794],[73.557505,36.731247],[73.553164,36.732333],[73.541381,36.732798],[73.519884,36.730731],[73.513993,36.731351],[73.453842,36.747215],[73.429657,36.751091],[73.416014,36.752073],[73.314109,36.721119],[73.296332,36.71745],[73.287547,36.717243],[73.270804,36.718483],[73.243105,36.71652],[73.217887,36.712386],[73.213443,36.712902],[73.208482,36.715228],[73.207906,36.715693],[73.192359,36.72825],[73.182082,36.733891],[73.176546,36.734865],[73.171585,36.733004],[73.142026,36.713988],[73.130554,36.709388],[73.097274,36.702825],[73.078154,36.70081],[73.0734,36.698536],[73.071333,36.694971],[73.071539,36.691095],[73.072676,36.685876],[73.0734,36.663603],[73.077534,36.651149],[73.093037,36.617714],[73.095517,36.609498],[73.095517,36.606604],[73.094484,36.603297],[73.085389,36.590067],[73.072159,36.573634],[73.069369,36.568673],[73.066165,36.556116],[73.063064,36.548985],[73.055003,36.539631],[73.048905,36.535135],[73.042187,36.531156],[72.989167,36.514465],[72.982966,36.511261],[72.979865,36.507799],[72.979865,36.504285],[72.981829,36.50015],[72.98493,36.495603],[72.988547,36.489092],[72.989581,36.483769],[72.98834,36.476173],[72.98493,36.472762],[72.980796,36.47085],[72.955991,36.468111],[72.926019,36.468369],[72.906485,36.465631],[72.895736,36.461548],[72.889948,36.457104],[72.888501,36.452505],[72.885918,36.438914],[72.886124,36.413954],[72.887365,36.402327],[72.886538,36.397056],[72.883644,36.391992],[72.876926,36.384292],[72.869278,36.379693],[72.838375,36.373957],[72.83021,36.370391],[72.821632,36.364603],[72.784528,36.328791],[72.77378,36.322694],[72.767269,36.320006],[72.752696,36.316544],[72.73771,36.310963],[72.718796,36.300111],[72.713938,36.296184],[72.692441,36.271069],[72.686963,36.269157],[72.680866,36.269312],[72.654511,36.278097],[72.642935,36.278975],[72.633427,36.278562],[72.621851,36.27665],[72.607485,36.272722],[72.594256,36.264248],[72.585988,36.25784],[72.578029,36.249881],[72.572035,36.242698],[72.568004,36.236756],[72.564904,36.230141],[72.553845,36.18911],[72.551364,36.173555],[72.551364,36.170041],[72.553121,36.166527],[72.560563,36.155727],[72.562113,36.149991],[72.560253,36.143893],[72.534415,36.116505],[72.531727,36.112319],[72.53028,36.108081],[72.529247,36.102604],[72.529144,36.097539],[72.531211,36.09108],[72.535241,36.08307],[72.536275,36.079659],[72.538032,36.076404],[72.541236,36.072528],[72.572655,36.050049],[72.579166,36.042762],[72.580717,36.034804],[72.588365,36.018681],[72.589088,36.016149],[72.588158,36.01279],[72.515604,35.903959],[72.55675,35.889345],[72.653888,35.854842],[72.655854,35.854143],[72.750009,35.844842],[72.792383,35.837555],[72.798481,35.83771],[72.806129,35.838692],[72.80892,35.841328],[72.814604,35.848097],[72.818015,35.851198],[72.856152,35.870215],[72.864627,35.872799],[72.872172,35.874297],[72.971597,35.878121],[72.977798,35.877191],[72.982509,35.875827],[72.985653,35.874917],[73.000383,35.86878],[73.000536,35.868716],[73.007168,35.86511],[73.008804,35.86422],[73.015744,35.861407],[73.016452,35.86112],[73.031645,35.856831],[73.042187,35.856055],[73.052729,35.85652],[73.05955,35.857761],[73.064305,35.859518],[73.068129,35.861636],[73.07247,35.864892],[73.080634,35.873419],[73.085285,35.876519],[73.086359,35.876304],[73.087966,35.875983],[73.088161,35.875944],[73.088386,35.875899],[73.090556,35.874142],[73.09221,35.871145],[73.094277,35.868354],[73.108333,35.856159],[73.119097,35.848624],[73.119527,35.848323],[73.119702,35.848201],[73.129359,35.842938],[73.148816,35.832334],[73.149571,35.831923],[73.152981,35.828098],[73.154738,35.824895],[73.154118,35.821329],[73.151328,35.817453],[73.132621,35.802415],[73.129934,35.799418],[73.128487,35.796317],[73.123112,35.744486],[73.123112,35.73689],[73.123836,35.730327],[73.125593,35.724797],[73.12921,35.72025],[73.135308,35.714979],[73.227809,35.663664],[73.240315,35.654311],[73.243725,35.650952],[73.25158,35.645061],[73.282267,35.627514],[73.289964,35.623112],[73.290441,35.62284],[73.296849,35.617104],[73.299226,35.613228],[73.30398,35.602376],[73.306737,35.600538],[73.306835,35.600472],[73.307081,35.600309],[73.309872,35.599301],[73.310801,35.598965],[73.325064,35.595865],[73.329198,35.595451],[73.348938,35.597156],[73.354726,35.596846],[73.365678,35.595021],[73.366198,35.594934],[73.373846,35.592402],[73.374308,35.59218],[73.382177,35.588386],[73.382528,35.588216],[73.388316,35.583979],[73.392347,35.580155],[73.39493,35.574832],[73.396687,35.56982],[73.408941,35.549056],[73.409415,35.548253],[73.409477,35.548149],[73.40971,35.547754],[73.442576,35.561758],[73.46393,35.557897],[73.465465,35.55762],[73.465646,35.557587],[73.465727,35.557572],[73.503554,35.534606],[73.504273,35.534169],[73.504369,35.534111],[73.504795,35.533853],[73.566083,35.541811],[73.629541,35.543],[73.757803,35.527108],[73.758422,35.527032],[73.771637,35.522126],[73.77185,35.522047],[73.772065,35.521967],[73.777853,35.505689],[73.778473,35.50233],[73.781677,35.460886],[73.782607,35.456855],[73.784054,35.452928],[73.784674,35.449879],[73.784157,35.44714],[73.78147,35.444659],[73.776923,35.442437],[73.767518,35.439337],[73.742506,35.427761],[73.72752,35.417633],[73.725866,35.415152],[73.724419,35.412465],[73.722869,35.408486],[73.717185,35.397996],[73.69424,35.36637],[73.691553,35.361099],[73.69021,35.35743],[73.6899,35.354536],[73.690623,35.348541],[73.69083,35.345182],[73.687316,35.31769],[73.687109,35.313608],[73.687419,35.310146],[73.688866,35.306735],[73.718425,35.264102],[73.719975,35.258883],[73.720285,35.254645],[73.717598,35.239297],[73.715118,35.234026],[73.714808,35.23015],[73.715531,35.225138],[73.722146,35.215733],[73.72783,35.211547],[73.731514,35.209748],[73.732109,35.209457],[73.732193,35.209416],[73.732274,35.209377],[73.735685,35.209273],[73.738682,35.20979],[73.741886,35.211237],[73.745813,35.213769],[73.766587,35.231236],[73.769895,35.233199],[73.773099,35.234491],[73.776303,35.23506],[73.801211,35.234905],[73.808439,35.233715],[73.809618,35.233521],[73.812991,35.232533],[73.821054,35.23015],[73.839348,35.221831],[73.858881,35.204622],[73.863374,35.202715],[73.86423,35.202352],[73.864346,35.202302],[73.86994,35.202555],[73.88782,35.208085],[73.897661,35.206927],[73.898362,35.206844],[73.910072,35.203252],[73.914988,35.201744],[73.924304,35.198886],[73.949212,35.172583],[73.954069,35.170723],[73.958101,35.169778],[73.95848,35.169689],[73.958794,35.169615],[73.960684,35.169172],[73.968436,35.17248],[73.976704,35.17434],[73.992275,35.175268],[73.994657,35.174759],[73.994821,35.174723],[73.998718,35.173875],[74.002645,35.171291],[74.003989,35.168242],[74.006356,35.165154],[74.008534,35.163384],[74.025486,35.149639],[74.031481,35.146796],[74.036188,35.145358],[74.037035,35.145099],[74.051612,35.143899],[74.079143,35.141644],[74.079333,35.141629],[74.097268,35.141924],[74.097986,35.141936],[74.098143,35.141939],[74.100368,35.141074],[74.101864,35.140492],[74.102193,35.139999],[74.103518,35.138011],[74.103001,35.134911],[74.101657,35.130622],[74.102381,35.126488],[74.105171,35.121372],[74.119331,35.111243],[74.123051,35.107471],[74.124395,35.105093],[74.124401,35.104971],[74.124701,35.099201],[74.099384,35.092743],[74.088428,35.085043],[74.081172,35.078349],[74.08109,35.078273],[74.076543,35.072021],[74.067551,35.055381],[74.066001,35.049696],[74.066207,35.045511],[74.067551,35.042255],[74.069079,35.039924],[74.069618,35.039103],[74.070788,35.03803],[74.072719,35.03626],[74.074926,35.03495],[74.076026,35.034297],[74.088118,35.029646],[74.092666,35.0267],[74.09773,35.021429],[74.101347,35.013936],[74.100413,35.010059],[74.100314,35.009647],[74.097523,35.006598],[74.09192,35.003393],[74.085518,34.999731],[74.085328,34.999622],[74.075612,34.991095],[74.066931,34.981794],[74.06445,34.9743],[74.063003,34.965464],[74.064037,34.950168],[74.061453,34.941693],[74.056802,34.932908],[74.054237,34.930843],[74.052565,34.929497],[74.041731,34.922865],[74.041506,34.922727],[74.036658,34.917299],[74.034307,34.914666],[74.034168,34.914511],[74.02993,34.905054],[74.024246,34.888104],[74.02248,34.886053],[74.017955,34.880798],[74.017838,34.880663],[74.015709,34.878979],[74.012362,34.876331],[74.012143,34.876163],[74.000505,34.872432],[73.989106,34.868777],[73.983858,34.867713],[73.978151,34.866555],[73.962234,34.865211],[73.954618,34.862756],[73.95438,34.862679],[73.947662,34.85808],[73.947421,34.85788],[73.942499,34.853786],[73.937223,34.849398],[73.930092,34.839373],[73.930018,34.839305],[73.92872,34.838102],[73.925262,34.8349],[73.923787,34.833534],[73.916242,34.828573],[73.911016,34.826092],[73.908077,34.824697],[73.889871,34.812899],[73.889577,34.812708],[73.887435,34.811935],[73.883996,34.810693],[73.883843,34.810705],[73.841105,34.814103],[73.819504,34.810486],[73.81564,34.809118],[73.797443,34.798052],[73.79656,34.797515],[73.789118,34.794105],[73.783744,34.792451],[73.777233,34.791624],[73.758422,34.792503],[73.750568,34.789971],[73.75042,34.789896],[73.740232,34.784751],[73.718838,34.771315],[73.70871,34.763306],[73.701268,34.755657],[73.69424,34.744599],[73.685559,34.723256],[73.680804,34.715298],[73.650832,34.676696],[73.648972,34.672458],[73.647938,34.667808],[73.649179,34.663053],[73.651246,34.659023],[73.65786,34.649462],[73.65972,34.643985],[73.660341,34.638972],[73.659514,34.633649],[73.638947,34.585487],[73.629231,34.569416],[73.624931,34.565384],[73.623444,34.56399],[73.623285,34.56399],[73.618437,34.56404],[73.616006,34.566769],[73.613832,34.569209],[73.610111,34.575617],[73.607899,34.580745],[73.607835,34.580892],[73.606521,34.583027],[73.605346,34.584924],[73.600396,34.587296],[73.593161,34.588329],[73.591243,34.588339],[73.583239,34.588381],[73.574558,34.587192],[73.565773,34.584919],[73.552826,34.579499],[73.534043,34.571638],[73.533067,34.57153],[73.528876,34.571069],[73.526929,34.571118],[73.524742,34.571173],[73.503864,34.574583],[73.498903,34.574997],[73.497532,34.574982],[73.494149,34.574945],[73.464074,34.570552],[73.463568,34.570332],[73.454462,34.566367],[73.450121,34.562594],[73.447124,34.558047],[73.446193,34.553809],[73.445677,34.549158],[73.445573,34.540373],[73.444953,34.536859],[73.443196,34.533449],[73.438132,34.525956],[73.436685,34.522157],[73.436065,34.517326],[73.437822,34.491126],[73.437512,34.487715],[73.436582,34.48464],[73.435341,34.481798],[73.429037,34.472936],[73.42775,34.470533],[73.427484,34.470029],[73.426763,34.466011],[73.426866,34.435729],[73.425923,34.43033],[73.425374,34.428327],[73.420252,34.409632],[73.415084,34.397643],[73.403831,34.38092],[73.400201,34.375526],[73.407126,34.355036],[73.447227,34.305969],[73.455495,34.292172],[73.459526,34.282405],[73.474099,34.269176],[73.474138,34.269005],[73.490429,34.198353],[73.491359,34.181274],[73.489571,34.149642],[73.489395,34.146522],[73.489787,34.14006],[73.490429,34.129494],[73.490811,34.128201],[73.508515,34.068387],[73.518437,34.009424],[73.518557,34.008467],[73.518576,34.008316],[73.518644,34.00777],[73.508878,34.010999],[73.504382,34.01503],[73.498646,34.018053],[73.492135,34.018131],[73.484021,34.012756],[73.464643,34.005367],[73.458287,34.00423],[73.452706,34.001284],[73.446969,33.996582],[73.428831,33.970769],[73.424128,33.966351],[73.417152,33.962372],[73.408936,33.96108],[73.403199,33.961338],[73.399324,33.962475],[73.387852,33.968754],[73.382426,33.970123],[73.375914,33.969865],[73.369817,33.968676],[73.36439,33.965576],[73.358344,33.960046],[73.356019,33.95059],[73.358189,33.94506],[73.361135,33.941184],[73.362065,33.938291],[73.36098,33.935087],[73.330749,33.899817],[73.325013,33.891058],[73.321757,33.883979],[73.321137,33.879715],[73.319897,33.875219],[73.316797,33.870801],[73.311939,33.867623],[73.28915,33.859071],[73.271786,33.849562],[73.240729,33.839227],[73.216389,33.821838],[73.192773,33.808531],[73.145127,33.810598],[73.126214,33.804345],[73.118307,33.795664],[73.115517,33.793209],[73.110091,33.789488],[73.08849,33.781504],[73.051128,33.777112],[73.043376,33.775303],[73.031388,33.771143],[73.016195,33.76179],[73.007358,33.754684],[72.996971,33.744814],[72.975525,33.735486],[72.927466,33.727451],[72.926329,33.739905],[72.928396,33.742824],[72.92912,33.746623],[72.927156,33.749051],[72.920593,33.749775],[72.907106,33.748716],[72.900905,33.748948],[72.894858,33.750731],[72.883851,33.756803],[72.879045,33.758095],[72.85667,33.755718],[72.849538,33.755666],[72.844732,33.757061],[72.841632,33.76179],[72.840391,33.769128],[72.842872,33.785018],[72.846903,33.791633],[72.852639,33.795922],[72.85884,33.798067],[72.865816,33.801451],[72.870002,33.80419],[72.872999,33.807291],[72.875015,33.810288],[72.87641,33.814112],[72.87641,33.817729],[72.874085,33.821683],[72.866126,33.825739],[72.85884,33.828375],[72.852329,33.828013],[72.846283,33.825636],[72.841942,33.824551],[72.836981,33.824809],[72.833105,33.82561],[72.828454,33.827186],[72.824889,33.830287],[72.823958,33.833697],[72.828609,33.839589],[72.836516,33.844239],[72.839616,33.847056],[72.841477,33.850234],[72.842407,33.85411],[72.843027,33.868062],[72.842562,33.872145],[72.841632,33.877261],[72.837291,33.882687],[72.833725,33.885064],[72.811711,33.883178],[72.793676,33.899585],[72.7898,33.904339],[72.788715,33.908163],[72.789335,33.912116],[72.790885,33.916121],[72.797397,33.927283],[72.796932,33.930694],[72.794451,33.934932],[72.78918,33.940461],[72.784529,33.944621],[72.778483,33.948212],[72.773832,33.949582],[72.766701,33.947024],[72.760655,33.94351],[72.740139,33.924725],[72.737814,33.921573],[72.736418,33.918085],[72.736574,33.915243],[72.737969,33.909042],[72.737814,33.906096],[72.735798,33.903693],[72.731923,33.902298],[72.720761,33.89974],[72.71611,33.896484],[72.712079,33.891162],[72.703397,33.876589],[72.69823,33.869561],[72.694354,33.865427],[72.690168,33.862585],[72.685672,33.860724],[72.673735,33.857494],[72.659937,33.85535],[72.652806,33.857184],[72.6449,33.861215],[72.622834,33.876486],[72.617873,33.881085],[72.615857,33.885193],[72.616167,33.891368],[72.617718,33.895632],[72.620508,33.899662],[72.632135,33.910902],[72.638802,33.915217],[72.646863,33.918705],[72.650791,33.920953],[72.653736,33.924235],[72.654821,33.927749],[72.651876,33.932503],[72.64583,33.936663],[72.632135,33.941391],[72.615392,33.945008],[72.571312,33.949453],[72.565576,33.951416],[72.5586,33.957256],[72.551314,33.965059],[72.542012,33.989088],[72.525527,34.021231],[72.509714,34.022781],[72.467804,34.020611],[72.430907,34.011464],[72.39892,33.993326],[72.367035,33.969503],[72.348639,33.961131],[72.255311,33.944543],[72.240635,33.938084],[72.226114,33.901368],[72.241513,33.804914],[72.234434,33.76613],[72.223323,33.774399],[72.211024,33.776647],[72.198415,33.773649],[72.186633,33.76613],[72.17206,33.773236],[72.152837,33.77737],[72.114958,33.779799],[72.087621,33.790031],[72.083177,33.788274],[72.063126,33.76613],[72.053101,33.761015],[72.032017,33.754116],[72.022147,33.746261],[72.010365,33.716185],[72.005094,33.711508],[71.999254,33.703576],[71.979565,33.664612],[71.974346,33.650065],[71.971969,33.598311],[71.953417,33.570664],[71.953262,33.560071],[71.955846,33.547307],[71.953262,33.526533],[71.944994,33.515758],[71.902051,33.488706],[71.8974,33.481729],[71.892749,33.468138],[71.888408,33.461369],[71.879727,33.451989],[71.873835,33.443592],[71.87275,33.434652],[71.878176,33.423516],[71.867996,33.421009],[71.863655,33.415403],[71.859728,33.408917],[71.850839,33.403646],[71.842003,33.402328],[71.813012,33.403646],[71.796993,33.400158],[71.740975,33.375715],[71.723302,33.355355],[71.722682,33.336234],[71.725162,33.318793],[71.717101,33.303704],[71.704905,33.289803],[71.699272,33.272698],[71.703458,33.256653],[71.721132,33.246007],[71.71307,33.246007],[71.726868,33.231305],[71.740924,33.219549],[71.751414,33.205493],[71.75467,33.183918],[71.749864,33.163609],[71.74051,33.150096],[71.729917,33.139812],[71.721132,33.129296],[71.713122,33.110951],[71.71121,33.09444],[71.71214,33.072788],[71.700358,33.061626],[71.652092,33.079299],[71.64279,33.085423],[71.632507,33.094156],[71.615143,33.113199],[71.606462,33.124774],[71.59995,33.136298],[71.59778,33.142267],[71.59623,33.149476],[71.594989,33.179629],[71.593594,33.186631],[71.590494,33.192548],[71.583156,33.200454],[71.571063,33.209679],[71.545328,33.223605],[71.538352,33.225543],[71.498148,33.213218],[71.489621,33.213374],[71.48063,33.215363],[71.453293,33.226138],[71.445696,33.23084],[71.439495,33.235672],[71.435929,33.242028],[71.427248,33.247325],[71.418876,33.241382],[71.416241,33.233501],[71.410763,33.211126],[71.41252,33.198827],[71.417326,33.19092],[71.422132,33.187535],[71.425232,33.18459],[71.426938,33.18136],[71.428023,33.176554],[71.428333,33.172678],[71.428178,33.16764],[71.428333,33.164074],[71.429108,33.160689],[71.437635,33.146969],[71.446161,33.137254],[71.447402,33.132655],[71.437325,33.088575],[71.437635,33.079583],[71.43934,33.075087],[71.442596,33.074932],[71.445851,33.075242],[71.450037,33.076173],[71.454223,33.076276],[71.458564,33.074881],[71.46306,33.069636],[71.46585,33.064907],[71.4674,33.060024],[71.4674,33.05576],[71.46554,33.0485],[71.461199,33.040929],[71.448797,33.024444],[71.442906,33.019406],[71.435464,33.016176],[71.423062,33.013386],[71.411383,33.013127],[71.401926,33.01075],[71.388284,33.005014],[71.380377,33.003851],[71.372006,33.004317],[71.365339,33.003567],[71.357123,33.000906],[71.346064,32.9961],[71.338003,32.997495],[71.333662,32.999201],[71.330871,33.001681],[71.327461,33.003257],[71.315523,33.006177],[71.310717,33.008166],[71.303896,33.012843],[71.300589,33.013747],[71.297075,33.013463],[71.232789,32.991527],[71.222867,32.985687],[71.20752,32.978763],[71.195737,32.97468],[71.188141,32.969874],[71.179563,32.963053],[71.155378,32.929747],[71.149177,32.916415],[71.144836,32.899698],[71.137395,32.826343],[71.133777,32.811098],[71.12246,32.801616],[71.112693,32.798257],[71.109438,32.795931],[71.106337,32.791487],[71.109128,32.781798],[71.144061,32.718494],[71.148402,32.698935],[71.148092,32.679375],[71.149022,32.671081],[71.159719,32.635321],[71.16437,32.607157],[71.168245,32.598321],[71.173982,32.592171],[71.186281,32.587029],[71.193877,32.585815],[71.201473,32.585582],[71.245502,32.593101],[71.249739,32.593411],[71.254855,32.592326],[71.258421,32.589923],[71.261676,32.584265],[71.260281,32.566643],[71.245708,32.524527],[71.249119,32.510987],[71.25439,32.501608],[71.259816,32.496208],[71.264002,32.493443],[71.268808,32.492875],[71.272994,32.494761],[71.277489,32.499825],[71.27997,32.503546],[71.283536,32.510781],[71.286016,32.514295],[71.289582,32.516775],[71.295008,32.518015],[71.299245,32.519798],[71.302036,32.521762],[71.303586,32.524372],[71.304826,32.527111],[71.308547,32.53388],[71.312423,32.536852],[71.317694,32.537911],[71.3256,32.537497],[71.333197,32.534759],[71.336762,32.531012],[71.337848,32.526258],[71.338003,32.519333],[71.339863,32.515561],[71.343894,32.513029],[71.34994,32.501789],[71.346839,32.432439],[71.340793,32.415231],[71.331646,32.399418],[71.294078,32.356242],[71.283691,32.340016],[71.278885,32.322446],[71.278523,32.302163],[71.276714,32.292732],[71.272063,32.282991],[71.252116,32.254647],[71.247362,32.243691],[71.23682,32.201988],[71.229017,32.181912],[71.215891,32.16566],[71.206951,32.15982],[71.177857,32.147263],[71.168194,32.140933],[71.132434,32.105948],[71.1237,32.094243],[71.117499,32.081246],[71.114864,32.066648],[71.114554,32.047631],[71.112538,32.039156],[71.107112,32.030655],[71.070422,31.999236],[71.054971,31.982338],[71.037194,31.940299],[71.023293,31.926036],[71.00748,31.913039],[70.993062,31.898027],[70.983606,31.879398],[70.974149,31.838806],[70.967172,31.81904],[70.923868,31.7446],[70.905988,31.721552],[70.899476,31.709719],[70.899476,31.695275],[70.904437,31.678945],[70.904954,31.673054],[70.903507,31.663856],[70.85457,31.552441],[70.86382,31.536241],[70.868626,31.52991],[70.881493,31.516862],[70.885214,31.511514],[70.885369,31.507405],[70.880408,31.504434],[70.872656,31.501824],[70.868315,31.497354],[70.8663,31.490455],[70.875602,31.467537],[70.876377,31.461387],[70.873586,31.436686],[70.870641,31.424671],[70.86723,31.419917],[70.861184,31.414336],[70.8478,31.407644],[70.832607,31.403484],[70.827956,31.399221],[70.824856,31.395578],[70.816329,31.364572],[70.82005,31.356381],[70.820825,31.35235],[70.819585,31.346537],[70.815709,31.340361],[70.79292,31.319872],[70.77814,31.294163],[70.758761,31.302302],[70.751165,31.30734],[70.739693,31.318063],[70.73499,31.321163],[70.729564,31.323179],[70.722743,31.324316],[70.714371,31.323308],[70.700729,31.320414],[70.656029,31.303929],[70.646572,31.302844],[70.632619,31.30486],[70.622336,31.307573],[70.588849,31.321163],[70.570504,31.325711],[70.559807,31.324807],[70.54911,31.321396],[70.525546,31.304627],[70.517277,31.300286],[70.509371,31.297935],[70.494488,31.295945],[70.486117,31.29579],[70.470304,31.298038],[70.46188,31.296023],[70.453974,31.290778],[70.442037,31.277316],[70.436611,31.269565],[70.433665,31.263312],[70.43134,31.256852],[70.429014,31.252201],[70.427309,31.250289],[70.417232,31.245277],[70.400592,31.247059],[70.235848,31.7238],[70.220293,31.746099],[70.217502,31.75199],[70.207581,31.809557],[70.208046,31.813097],[70.211456,31.825474],[70.214247,31.841158],[70.214557,31.84847],[70.213007,31.875677],[70.210991,31.885651],[70.172802,31.993836],[70.13358,32.022568],[70.123193,32.040939],[70.114615,32.077319],[70.098957,32.111529],[70.071517,32.14765],[70.068416,32.152586],[70.067796,32.155376],[70.068106,32.158554],[70.071206,32.17367],[70.074307,32.181447],[70.086244,32.19602],[70.096631,32.205347],[70.120092,32.222452],[70.15885,32.244234],[70.163811,32.247929],[70.171407,32.255447],[70.183241,32.270976],[70.194403,32.291699],[70.199829,32.296892],[70.204945,32.300613],[70.210991,32.303558],[70.214557,32.304798],[70.218123,32.305548],[70.24949,32.308442],[70.253211,32.307951],[70.265303,32.304488],[70.270419,32.303765],[70.274915,32.303868],[70.279566,32.304488],[70.283597,32.305341],[70.293725,32.309579],[70.315894,32.322033],[70.342094,32.341618],[70.347055,32.346734],[70.367416,32.375828],[70.371757,32.379988],[70.404519,32.403604],[70.426534,32.425437],[70.43258,32.435178],[70.437541,32.446289],[70.442347,32.461688],[70.451803,32.484142],[70.458676,32.495924],[70.463637,32.502022],[70.467823,32.504476],[70.471234,32.505355],[70.474644,32.505897],[70.478055,32.505975],[70.485186,32.505277],[70.493713,32.502874],[70.560272,32.470473],[70.566318,32.46944],[70.573191,32.469982],[70.583578,32.47515],[70.587609,32.478948],[70.589159,32.483392],[70.588694,32.486803],[70.586679,32.493883],[70.578617,32.512951],[70.407465,32.695989],[70.392065,32.716711],[70.387105,32.718107],[70.377958,32.719424],[70.375322,32.720897],[70.374547,32.723558],[70.378578,32.739397],[70.379043,32.746115],[70.380128,32.752678],[70.376563,32.781565],[70.376718,32.829624],[70.378423,32.83518],[70.381523,32.841665],[70.385864,32.842698],[70.389585,32.842931],[70.392996,32.842698],[70.399559,32.849132],[70.40886,32.861095],[70.439246,32.909361],[70.466738,32.941788],[70.472474,32.952769],[70.495573,33.018605],[70.498519,33.021706],[70.507821,33.025039],[70.515004,33.028785],[70.528336,33.040309],[70.543064,33.04974],[70.5488,33.051575],[70.553606,33.052195],[70.578152,33.045348],[70.584043,33.044702],[70.589159,33.044702],[70.597531,33.045658],[70.618925,33.042867],[70.623731,33.043022],[70.627968,33.04248],[70.632464,33.04248],[70.643161,33.044392],[70.648897,33.0462],[70.66409,33.048784],[70.683779,33.054856],[70.706775,33.058551],[70.716077,33.060928],[70.728789,33.066147],[70.737006,33.072581],[70.753025,33.089712],[70.760157,33.094311],[70.768218,33.097489],[70.791473,33.102037],[70.855603,33.162601],[70.870951,33.182445],[70.872036,33.188595],[70.871106,33.193013],[70.868315,33.197302],[70.86382,33.201462],[70.859014,33.203917],[70.834467,33.211281],[70.814624,33.215234],[70.800981,33.219652],[70.79571,33.220867],[70.790232,33.221254],[70.780155,33.220737],[70.776435,33.221254],[70.763567,33.224665],[70.759692,33.225207],[70.737626,33.224768],[70.705845,33.227765],[70.694683,33.230013],[70.691892,33.232029],[70.690342,33.234432],[70.689877,33.2373],[70.690187,33.240323],[70.696078,33.256472],[70.693908,33.258487],[70.689412,33.260037],[70.682849,33.2612],[70.670601,33.26182],[70.66533,33.262673],[70.632929,33.273241],[70.627762,33.274171],[70.615979,33.274248],[70.607453,33.275489],[70.599081,33.277814],[70.584508,33.283395],[70.559962,33.313264],[70.55097,33.350084],[70.544614,33.35998],[70.533762,33.363287],[70.500534,33.380185],[70.487822,33.389125],[70.482861,33.394267],[70.480691,33.398582],[70.481001,33.402018],[70.482706,33.409331],[70.483791,33.413077],[70.485651,33.416204],[70.488442,33.419976],[70.50193,33.427779],[70.507821,33.430311],[70.52384,33.433412],[70.538103,33.434755],[70.54911,33.437029],[70.560427,33.437598],[70.574742,33.437029],[70.580478,33.437288],[70.585439,33.438166],[70.59102,33.440336],[70.600942,33.446641],[70.629519,33.474055],[70.63696,33.479378],[70.640681,33.480644],[70.644867,33.481161],[70.666571,33.481936],[70.684296,33.484494],[70.712666,33.494028],[70.717317,33.494312],[70.722743,33.494132],[70.730339,33.495682],[70.734525,33.499428],[70.737316,33.504829],[70.737936,33.508963],[70.737212,33.517489],[70.73499,33.527747],[70.734835,33.530874],[70.73499,33.534336],[70.73561,33.537695],[70.739693,33.552474],[70.7538,33.581206],[70.759227,33.587304],[70.764963,33.590818],[70.782481,33.592627],[70.815554,33.574023],[70.831832,33.569011],[70.992132,33.555885],[71.000039,33.556867],[71.021329,33.564618],[71.032026,33.571233],[71.041638,33.578623],[71.04877,33.582343],[71.061172,33.586167],[71.100136,33.594203],[71.105252,33.596838],[71.106492,33.599552],[71.104787,33.603091],[71.101221,33.605391],[71.096105,33.607716],[71.091919,33.60906],[71.088044,33.610869],[71.085408,33.612987],[71.083858,33.615855],[71.083548,33.618568],[71.084478,33.621824],[71.086338,33.624615],[71.092229,33.630144],[71.095795,33.632728],[71.108197,33.638851],[71.144991,33.650453],[71.144216,33.662493],[71.130057,33.690399],[71.128713,33.695515],[71.129643,33.736391],[71.131193,33.741817],[71.135224,33.743109],[71.13972,33.742954],[71.157548,33.738509],[71.16499,33.735305],[71.180183,33.725642],[71.184834,33.724118],[71.191035,33.72466],[71.196047,33.724428],[71.201008,33.723265],[71.204574,33.720707],[71.207365,33.716909],[71.212325,33.705385],[71.214341,33.702594],[71.230464,33.688383],[71.253925,33.674947],[71.302139,33.653863],[71.318934,33.644768],[71.326995,33.637637],[71.333042,33.633658],[71.345289,33.629214],[71.35211,33.628904],[71.357536,33.630144],[71.364564,33.6365],[71.372471,33.640247],[71.383168,33.642908],[71.425697,33.64544],[71.447867,33.650608],[71.454843,33.650866],[71.460579,33.650453],[71.475048,33.64774],[71.602896,33.640117],[71.612663,33.643425],[71.62429,33.645879],[71.631421,33.645879],[71.636279,33.644794],[71.63938,33.64265],[71.64248,33.639601],[71.64434,33.636655],[71.646666,33.632108],[71.647441,33.627948],[71.647441,33.623607],[71.646046,33.620067],[71.643255,33.616631],[71.638759,33.613142],[71.629406,33.608052],[71.619484,33.603944],[71.585223,33.594332],[71.574009,33.58994],[71.568893,33.586322],[71.565637,33.582447],[71.564397,33.578674],[71.565172,33.575419],[71.571838,33.568675],[71.578505,33.564954],[71.587858,33.560923],[71.611268,33.553766],[71.652712,33.549529],[71.673796,33.551699],[71.700978,33.562034],[71.75839,33.591102],[71.771568,33.599758],[71.782885,33.604822],[71.817818,33.614538],[71.82743,33.618362],[71.831771,33.620687],[71.835492,33.623271],[71.837972,33.626372],[71.839367,33.629705],[71.839677,33.63309],[71.838437,33.635777],[71.836267,33.637895],[71.825725,33.64513],[71.791102,33.664535],[71.788156,33.666886],[71.787071,33.669521],[71.786606,33.672493],[71.787846,33.675671],[71.790171,33.679469],[71.811462,33.700269],[71.817043,33.70771],[71.822159,33.715901],[71.852855,33.753237],[71.856265,33.758922],[71.859728,33.767061],[71.858488,33.771066],[71.855955,33.776853],[71.852855,33.779541],[71.849134,33.781091],[71.823089,33.781685],[71.790326,33.786517],[71.783195,33.788713],[71.775444,33.792124],[71.763816,33.800676],[71.7587,33.805999],[71.75467,33.813492],[71.745833,33.835248],[71.740665,33.840622],[71.736324,33.843154],[71.732449,33.842172],[71.729038,33.83995],[71.724077,33.832896],[71.719426,33.821243],[71.699272,33.791219],[71.685888,33.779541],[71.654417,33.761299],[71.59809,33.736597],[71.551685,33.729466],[71.542538,33.729259],[71.531376,33.730086],[71.525175,33.731223],[71.520782,33.732541],[71.517371,33.734479],[71.514891,33.737812],[71.509,33.748276],[71.500628,33.775458],[71.499543,33.78091],[71.498923,33.788713],[71.500783,33.805999],[71.500473,33.811373],[71.498923,33.816076],[71.496132,33.8199],[71.493187,33.82331],[71.482955,33.831346],[71.445851,33.854084],[71.432364,33.864238],[71.429108,33.868269],[71.427093,33.87199],[71.426938,33.874884],[71.426938,33.878036],[71.429883,33.898112],[71.429573,33.904339],[71.424612,33.926276],[71.416861,33.939479],[71.409419,33.948057],[71.401616,33.955215],[71.392935,33.960615],[71.386423,33.966351],[71.379292,33.979528],[71.377122,33.986711],[71.376346,33.991569],[71.377277,34.000767],[71.377122,34.001853],[71.377742,34.011309],[71.378207,34.013247],[71.379137,34.015573],[71.383943,34.024435],[71.386423,34.03074],[71.385338,34.040636],[71.380687,34.061151],[71.379447,34.064691],[71.36689,34.078075],[71.36596,34.079858],[71.366735,34.084431],[71.3672,34.085775],[71.36782,34.086809],[71.36999,34.089134],[71.373556,34.091925],[71.377277,34.094172],[71.378362,34.095025],[71.379447,34.098177],[71.379602,34.102518],[71.378827,34.112698],[71.377897,34.116833],[71.376501,34.119391],[71.371541,34.121638],[71.363324,34.127297],[71.360689,34.128537],[71.355883,34.129907],[71.352885,34.130398],[71.350095,34.131328],[71.346994,34.132594],[71.342188,34.135384],[71.340793,34.136831],[71.340173,34.138072],[71.342653,34.143601],[71.342808,34.144531],[71.342808,34.145926],[71.342653,34.147477],[71.341413,34.15205],[71.341258,34.153575],[71.341568,34.154453],[71.342033,34.155435],[71.344049,34.158225],[71.347924,34.161714],[71.424612,34.179516],[71.427093,34.181609],[71.429418,34.184322],[71.429728,34.185149],[71.429573,34.185924],[71.434844,34.190213],[71.451897,34.199799],[71.452673,34.2006],[71.454533,34.201892],[71.460734,34.205199],[71.492877,34.226903],[71.501869,34.241011],[71.530601,34.260803],[71.534166,34.26424],[71.537577,34.274497],[71.537732,34.275944],[71.537577,34.277133],[71.537267,34.278115],[71.536647,34.278838],[71.536027,34.279097],[71.534166,34.279613],[71.533081,34.28013],[71.532151,34.28075],[71.531221,34.281732],[71.530601,34.282456],[71.530911,34.2846],[71.537267,34.301111],[71.537112,34.301757],[71.536647,34.302532],[71.535251,34.304392],[71.534476,34.30602],[71.533081,34.309844],[71.533081,34.311808],[71.533391,34.313151],[71.535251,34.314857],[71.554165,34.328603],[71.557111,34.3316],[71.558506,34.333977],[71.558506,34.336302],[71.558351,34.340747],[71.559126,34.343175],[71.559901,34.344777],[71.560986,34.345785],[71.564087,34.347645],[71.566257,34.348576],[71.573544,34.353924],[71.586463,34.366301],[71.587393,34.366791],[71.588478,34.36705],[71.589408,34.36705],[71.593439,34.365345],[71.595144,34.364931],[71.597935,34.36475],[71.59902,34.364776],[71.600105,34.364569],[71.601656,34.363846],[71.605221,34.361262],[71.609562,34.357076],[71.610492,34.356405],[71.612198,34.355629],[71.614833,34.354751],[71.618864,34.353769],[71.620724,34.354027],[71.621654,34.354854],[71.621965,34.356327],[71.621965,34.359789],[71.620414,34.36705],[71.620569,34.36829],[71.620724,34.369065],[71.621499,34.370771],[71.62305,34.380072],[71.62367,34.382243],[71.62429,34.383483],[71.630491,34.385266],[71.632817,34.38555],[71.638243,34.385111],[71.641395,34.385757],[71.644961,34.387023],[71.652557,34.390666],[71.655348,34.392475],[71.656743,34.394128],[71.656433,34.3948],[71.655968,34.395575],[71.653487,34.398056],[71.652867,34.398831],[71.652557,34.399942],[71.652402,34.401363],[71.652402,34.402707],[71.652712,34.40374],[71.654417,34.406789],[71.656278,34.416091],[71.656898,34.418106],[71.658293,34.419812],[71.660308,34.421103],[71.66713,34.427046],[71.66899,34.428028],[71.669765,34.428261],[71.674106,34.429113],[71.675656,34.429888],[71.677207,34.43087],[71.680152,34.433144],[71.684338,34.435392],[71.692606,34.437562],[71.683873,34.458879],[71.679842,34.463556],[71.678912,34.463633],[71.678292,34.463581],[71.677827,34.463478],[71.675501,34.46247],[71.673176,34.462186],[71.66992,34.462315],[71.662789,34.463375],[71.659998,34.464331],[71.658448,34.465287],[71.657673,34.467896],[71.657518,34.469292],[71.657518,34.470454],[71.657673,34.472134],[71.659068,34.477017],[71.659068,34.478154],[71.657828,34.482986],[71.653332,34.492985],[71.653332,34.493916],[71.654727,34.496913],[71.654882,34.497791],[71.64031,34.536859],[71.660308,34.555204],[71.664494,34.56032],[71.663254,34.570035],[71.664184,34.576546],[71.673176,34.607965],[71.676587,34.616363],[71.679222,34.621143],[71.682478,34.621815],[71.685268,34.623572],[71.686043,34.624166],[71.686974,34.624709],[71.688059,34.625096],[71.690229,34.625535],[71.69612,34.629876],[71.71121,34.643674],[71.713535,34.645069],[71.721287,34.651219],[71.722217,34.651322],[71.723147,34.651322],[71.724077,34.651167],[71.725317,34.650598],[71.730123,34.647446],[71.731829,34.646671],[71.732914,34.646413],[71.735549,34.646258],[71.757305,34.66021],[71.763351,34.69088],[71.763506,34.702327],[71.762421,34.71106],[71.761026,34.717261],[71.760561,34.717959],[71.760251,34.71876],[71.758855,34.720672],[71.75746,34.723281],[71.755445,34.728785],[71.75684,34.731188],[71.760251,34.732919],[71.766917,34.733642],[71.769863,34.734676],[71.772808,34.737467],[71.782575,34.749688],[71.787071,34.752091],[71.792652,34.753305],[71.798078,34.755812],[71.798698,34.758395],[71.792342,34.765604],[71.788621,34.77085],[71.78366,34.781004],[71.779009,34.784492],[71.775289,34.786042],[71.769552,34.785112],[71.764902,34.784906],[71.759631,34.785371],[71.746246,34.788885],[71.73958,34.791546],[71.732914,34.793535],[71.697102,34.798264],[71.691366,34.797928],[71.685268,34.796791],[71.670075,34.792502],[71.627081,34.772658],[71.620104,34.77165],[71.612198,34.773511],[71.59902,34.778756],[71.581295,34.791985],[71.579331,34.795086],[71.579331,34.797334],[71.580055,34.802682],[71.580055,34.806506],[71.579952,34.807436],[71.577109,34.816221],[71.573699,34.821467],[71.571373,34.826272],[71.571063,34.827229],[71.570753,34.828469],[71.570288,34.833326],[71.569823,34.83529],[71.568738,34.838132],[71.567808,34.839838],[71.565017,34.843687],[71.563932,34.845832],[71.563622,34.846555],[71.561762,34.855961],[71.560211,34.858596],[71.558816,34.860198],[71.557576,34.860663],[71.550444,34.86149],[71.540057,34.86472],[71.518147,34.868466],[71.498613,34.877251],[71.495977,34.879034],[71.462439,34.914252],[71.447867,34.935129],[71.445239,34.937757],[71.459958,34.942674],[71.46957,34.949702],[71.476701,34.960296],[71.485383,34.983499],[71.493341,34.994041],[71.493341,34.994144],[71.493444,34.994144],[71.504297,35.000604],[71.511325,35.008717],[71.512978,35.018122],[71.5075,35.028199],[71.508947,35.072021],[71.534992,35.098582],[71.604135,35.138166],[71.62925,35.170102],[71.637932,35.189688],[71.633694,35.203124],[71.603205,35.223381],[71.547808,35.275626],[71.529825,35.300895],[71.531582,35.327922],[71.562277,35.360582],[71.61106,35.395463],[71.620879,35.410139],[71.622429,35.429621],[71.613954,35.443212],[71.600725,35.45546],[71.593422,35.464194],[71.587806,35.470911],[71.581708,35.493132],[71.586049,35.512097],[71.59287,35.530184],[71.59349,35.549356],[71.584188,35.564187],[71.567859,35.574212],[71.512771,35.596278],[71.492721,35.609559],[71.483316,35.62656],[71.495925,35.646611],[71.514012,35.665576],[71.519799,35.683766],[71.515355,35.701491],[71.502746,35.719061],[71.496132,35.724591],[71.481352,35.734099],[71.475564,35.741024],[71.47112,35.752289],[71.471017,35.761333],[71.47205,35.769962],[71.470914,35.779936],[71.464402,35.794715],[71.431019,35.843705],[71.416705,35.858846],[71.371333,35.885149],[71.360688,35.90029],[71.356399,35.933053],[71.341567,35.947264],[71.312525,35.957393],[71.28431,35.962457],[71.257438,35.971552],[71.23191,35.99398],[71.217854,36.002713],[71.181887,36.018836],[71.170932,36.027001],[71.169913,36.030802],[71.165919,36.045708],[71.175376,36.061159],[71.207622,36.087617],[71.212635,36.096816],[71.217699,36.118055],[71.223073,36.125393],[71.262296,36.146115],[71.292682,36.157897],[71.302087,36.163323],[71.309011,36.172729],[71.313972,36.194019],[71.31914,36.200582],[71.382443,36.218566],[71.402752,36.231381],[71.479078,36.300524],[71.495822,36.309619],[71.514632,36.315201],[71.53892,36.319283],[71.55835,36.327861],[71.552666,36.340987],[71.542227,36.356387],[71.547188,36.371631],[71.572303,36.391682],[71.580364,36.402327],[71.588736,36.41845],[71.600725,36.449301],[71.61044,36.457931],[71.629147,36.459533],[71.649301,36.452763],[71.706868,36.421447],[71.736324,36.395919],[71.751,36.391113],[71.766916,36.391837],[71.782626,36.396539],[71.794408,36.407598],[71.791514,36.421292],[71.774564,36.448422],[71.773221,36.480048],[71.793788,36.490745],[71.85859,36.494156],[71.874713,36.499065],[71.887632,36.508005],[71.899725,36.518341],[71.913471,36.527591],[71.960909,36.549605],[71.977033,36.563041],[71.997806,36.572446],[72.038838,36.580456],[72.054961,36.592858],[72.056304,36.601901],[72.05217,36.610376],[72.050413,36.618645],[72.059095,36.627119],[72.070877,36.632287],[72.096095,36.638902],[72.154179,36.645465],[72.171646,36.653629],[72.164618,36.670063],[72.149632,36.689338],[72.153456,36.702102],[72.169682,36.711352],[72.213607,36.726442],[72.301974,36.74272],[72.346209,36.74489],[72.387343,36.755794],[72.433129,36.753417],[72.454109,36.757964],[72.516741,36.800597],[72.565214,36.820596],[72.629602,36.832947],[72.695852,36.836719],[72.779361,36.826797],[72.867727,36.830415],[72.896873,36.836977],[72.921058,36.847364],[72.945862,36.852222],[72.976765,36.842093],[72.990511,36.841577],[73.002293,36.846124],[73.026271,36.859457],[73.042497,36.864263],[73.191842,36.877027],[73.223468,36.874339],[73.252717,36.868035],[73.267496,36.866536],[73.281862,36.867983],[73.331782,36.882091],[73.379738,36.879249],[73.445883,36.886483],[73.476889,36.882866],[73.509342,36.87868],[73.640083,36.896638]]]}},{"type":"Feature","properties":{"id":"PK-TA","country":"PK","name_en":"Federally Administered Tribal Areas"},"geometry":{"type":"Polygon","coordinates":[[[71.047529,34.551122],[71.065822,34.55846],[71.076571,34.578511],[71.079878,34.602902],[71.076261,34.623624],[71.068768,34.645948],[71.070163,34.661245],[71.080601,34.672923],[71.150933,34.720311],[71.189535,34.737054],[71.203075,34.748164],[71.25563,34.810228],[71.270822,34.844283],[71.289478,34.87503],[71.324928,34.897561],[71.445239,34.937757],[71.447867,34.935129],[71.462439,34.914252],[71.495977,34.879034],[71.498613,34.877251],[71.518147,34.868466],[71.540057,34.86472],[71.550444,34.86149],[71.557576,34.860663],[71.558816,34.860198],[71.560211,34.858596],[71.561762,34.855961],[71.563622,34.846555],[71.563932,34.845832],[71.565017,34.843687],[71.567808,34.839838],[71.568738,34.838132],[71.569823,34.83529],[71.570288,34.833326],[71.570753,34.828469],[71.571063,34.827229],[71.571373,34.826272],[71.573699,34.821467],[71.577109,34.816221],[71.579952,34.807436],[71.580055,34.806506],[71.580055,34.802682],[71.579331,34.797334],[71.579331,34.795086],[71.581295,34.791985],[71.59902,34.778756],[71.612198,34.773511],[71.620104,34.77165],[71.627081,34.772658],[71.670075,34.792502],[71.685268,34.796791],[71.691366,34.797928],[71.697102,34.798264],[71.732914,34.793535],[71.73958,34.791546],[71.746246,34.788885],[71.759631,34.785371],[71.764902,34.784906],[71.769552,34.785112],[71.775289,34.786042],[71.779009,34.784492],[71.78366,34.781004],[71.788621,34.77085],[71.792342,34.765604],[71.798698,34.758395],[71.798078,34.755812],[71.792652,34.753305],[71.787071,34.752091],[71.782575,34.749688],[71.772808,34.737467],[71.769863,34.734676],[71.766917,34.733642],[71.760251,34.732919],[71.75684,34.731188],[71.755445,34.728785],[71.75746,34.723281],[71.758855,34.720672],[71.760251,34.71876],[71.760561,34.717959],[71.761026,34.717261],[71.762421,34.71106],[71.763506,34.702327],[71.763351,34.69088],[71.757305,34.66021],[71.735549,34.646258],[71.732914,34.646413],[71.731829,34.646671],[71.730123,34.647446],[71.725317,34.650598],[71.724077,34.651167],[71.723147,34.651322],[71.722217,34.651322],[71.721287,34.651219],[71.713535,34.645069],[71.71121,34.643674],[71.69612,34.629876],[71.690229,34.625535],[71.688059,34.625096],[71.686974,34.624709],[71.686043,34.624166],[71.685268,34.623572],[71.682478,34.621815],[71.679222,34.621143],[71.676587,34.616363],[71.673176,34.607965],[71.664184,34.576546],[71.663254,34.570035],[71.664494,34.56032],[71.660308,34.555204],[71.64031,34.536859],[71.654882,34.497791],[71.654727,34.496913],[71.653332,34.493916],[71.653332,34.492985],[71.657828,34.482986],[71.659068,34.478154],[71.659068,34.477017],[71.657673,34.472134],[71.657518,34.470454],[71.657518,34.469292],[71.657673,34.467896],[71.658448,34.465287],[71.659998,34.464331],[71.662789,34.463375],[71.66992,34.462315],[71.673176,34.462186],[71.675501,34.46247],[71.677827,34.463478],[71.678292,34.463581],[71.678912,34.463633],[71.679842,34.463556],[71.683873,34.458879],[71.692606,34.437562],[71.684338,34.435392],[71.680152,34.433144],[71.677207,34.43087],[71.675656,34.429888],[71.674106,34.429113],[71.669765,34.428261],[71.66899,34.428028],[71.66713,34.427046],[71.660308,34.421103],[71.658293,34.419812],[71.656898,34.418106],[71.656278,34.416091],[71.654417,34.406789],[71.652712,34.40374],[71.652402,34.402707],[71.652402,34.401363],[71.652557,34.399942],[71.652867,34.398831],[71.653487,34.398056],[71.655968,34.395575],[71.656433,34.3948],[71.656743,34.394128],[71.655348,34.392475],[71.652557,34.390666],[71.644961,34.387023],[71.641395,34.385757],[71.638243,34.385111],[71.632817,34.38555],[71.630491,34.385266],[71.62429,34.383483],[71.62367,34.382243],[71.62305,34.380072],[71.621499,34.370771],[71.620724,34.369065],[71.620569,34.36829],[71.620414,34.36705],[71.621965,34.359789],[71.621965,34.356327],[71.621654,34.354854],[71.620724,34.354027],[71.618864,34.353769],[71.614833,34.354751],[71.612198,34.355629],[71.610492,34.356405],[71.609562,34.357076],[71.605221,34.361262],[71.601656,34.363846],[71.600105,34.364569],[71.59902,34.364776],[71.597935,34.36475],[71.595144,34.364931],[71.593439,34.365345],[71.589408,34.36705],[71.588478,34.36705],[71.587393,34.366791],[71.586463,34.366301],[71.573544,34.353924],[71.566257,34.348576],[71.564087,34.347645],[71.560986,34.345785],[71.559901,34.344777],[71.559126,34.343175],[71.558351,34.340747],[71.558506,34.336302],[71.558506,34.333977],[71.557111,34.3316],[71.554165,34.328603],[71.535251,34.314857],[71.533391,34.313151],[71.533081,34.311808],[71.533081,34.309844],[71.534476,34.30602],[71.535251,34.304392],[71.536647,34.302532],[71.537112,34.301757],[71.537267,34.301111],[71.530911,34.2846],[71.530601,34.282456],[71.531221,34.281732],[71.532151,34.28075],[71.533081,34.28013],[71.534166,34.279613],[71.536027,34.279097],[71.536647,34.278838],[71.537267,34.278115],[71.537577,34.277133],[71.537732,34.275944],[71.537577,34.274497],[71.534166,34.26424],[71.530601,34.260803],[71.501869,34.241011],[71.492877,34.226903],[71.460734,34.205199],[71.454533,34.201892],[71.452673,34.2006],[71.451897,34.199799],[71.434844,34.190213],[71.429573,34.185924],[71.429728,34.185149],[71.429418,34.184322],[71.427093,34.181609],[71.424612,34.179516],[71.347924,34.161714],[71.344049,34.158225],[71.342033,34.155435],[71.341568,34.154453],[71.341258,34.153575],[71.341413,34.15205],[71.342653,34.147477],[71.342808,34.145926],[71.342808,34.144531],[71.342653,34.143601],[71.340173,34.138072],[71.340793,34.136831],[71.342188,34.135384],[71.346994,34.132594],[71.350095,34.131328],[71.352885,34.130398],[71.355883,34.129907],[71.360689,34.128537],[71.363324,34.127297],[71.371541,34.121638],[71.376501,34.119391],[71.377897,34.116833],[71.378827,34.112698],[71.379602,34.102518],[71.379447,34.098177],[71.378362,34.095025],[71.377277,34.094172],[71.373556,34.091925],[71.36999,34.089134],[71.36782,34.086809],[71.3672,34.085775],[71.366735,34.084431],[71.36596,34.079858],[71.36689,34.078075],[71.379447,34.064691],[71.380687,34.061151],[71.385338,34.040636],[71.386423,34.03074],[71.383943,34.024435],[71.379137,34.015573],[71.378207,34.013247],[71.377742,34.011309],[71.377122,34.001853],[71.377277,34.000767],[71.376346,33.991569],[71.377122,33.986711],[71.379292,33.979528],[71.386423,33.966351],[71.392935,33.960615],[71.401616,33.955215],[71.409419,33.948057],[71.416861,33.939479],[71.424612,33.926276],[71.429573,33.904339],[71.429883,33.898112],[71.426938,33.878036],[71.426938,33.874884],[71.427093,33.87199],[71.429108,33.868269],[71.432364,33.864238],[71.445851,33.854084],[71.482955,33.831346],[71.493187,33.82331],[71.496132,33.8199],[71.498923,33.816076],[71.500473,33.811373],[71.500783,33.805999],[71.498923,33.788713],[71.499543,33.78091],[71.500628,33.775458],[71.509,33.748276],[71.514891,33.737812],[71.517371,33.734479],[71.520782,33.732541],[71.525175,33.731223],[71.531376,33.730086],[71.542538,33.729259],[71.551685,33.729466],[71.59809,33.736597],[71.654417,33.761299],[71.685888,33.779541],[71.699272,33.791219],[71.719426,33.821243],[71.724077,33.832896],[71.729038,33.83995],[71.732449,33.842172],[71.736324,33.843154],[71.740665,33.840622],[71.745833,33.835248],[71.75467,33.813492],[71.7587,33.805999],[71.763816,33.800676],[71.775444,33.792124],[71.783195,33.788713],[71.790326,33.786517],[71.823089,33.781685],[71.849134,33.781091],[71.852855,33.779541],[71.855955,33.776853],[71.858488,33.771066],[71.859728,33.767061],[71.856265,33.758922],[71.852855,33.753237],[71.822159,33.715901],[71.817043,33.70771],[71.811462,33.700269],[71.790171,33.679469],[71.787846,33.675671],[71.786606,33.672493],[71.787071,33.669521],[71.788156,33.666886],[71.791102,33.664535],[71.825725,33.64513],[71.836267,33.637895],[71.838437,33.635777],[71.839677,33.63309],[71.839367,33.629705],[71.837972,33.626372],[71.835492,33.623271],[71.831771,33.620687],[71.82743,33.618362],[71.817818,33.614538],[71.782885,33.604822],[71.771568,33.599758],[71.75839,33.591102],[71.700978,33.562034],[71.673796,33.551699],[71.652712,33.549529],[71.611268,33.553766],[71.587858,33.560923],[71.578505,33.564954],[71.571838,33.568675],[71.565172,33.575419],[71.564397,33.578674],[71.565637,33.582447],[71.568893,33.586322],[71.574009,33.58994],[71.585223,33.594332],[71.619484,33.603944],[71.629406,33.608052],[71.638759,33.613142],[71.643255,33.616631],[71.646046,33.620067],[71.647441,33.623607],[71.647441,33.627948],[71.646666,33.632108],[71.64434,33.636655],[71.64248,33.639601],[71.63938,33.64265],[71.636279,33.644794],[71.631421,33.645879],[71.62429,33.645879],[71.612663,33.643425],[71.602896,33.640117],[71.475048,33.64774],[71.460579,33.650453],[71.454843,33.650866],[71.447867,33.650608],[71.425697,33.64544],[71.383168,33.642908],[71.372471,33.640247],[71.364564,33.6365],[71.357536,33.630144],[71.35211,33.628904],[71.345289,33.629214],[71.333042,33.633658],[71.326995,33.637637],[71.318934,33.644768],[71.302139,33.653863],[71.253925,33.674947],[71.230464,33.688383],[71.214341,33.702594],[71.212325,33.705385],[71.207365,33.716909],[71.204574,33.720707],[71.201008,33.723265],[71.196047,33.724428],[71.191035,33.72466],[71.184834,33.724118],[71.180183,33.725642],[71.16499,33.735305],[71.157548,33.738509],[71.13972,33.742954],[71.135224,33.743109],[71.131193,33.741817],[71.129643,33.736391],[71.128713,33.695515],[71.130057,33.690399],[71.144216,33.662493],[71.144991,33.650453],[71.108197,33.638851],[71.095795,33.632728],[71.092229,33.630144],[71.086338,33.624615],[71.084478,33.621824],[71.083548,33.618568],[71.083858,33.615855],[71.085408,33.612987],[71.088044,33.610869],[71.091919,33.60906],[71.096105,33.607716],[71.101221,33.605391],[71.104787,33.603091],[71.106492,33.599552],[71.105252,33.596838],[71.100136,33.594203],[71.061172,33.586167],[71.04877,33.582343],[71.041638,33.578623],[71.032026,33.571233],[71.021329,33.564618],[71.000039,33.556867],[70.992132,33.555885],[70.831832,33.569011],[70.815554,33.574023],[70.782481,33.592627],[70.764963,33.590818],[70.759227,33.587304],[70.7538,33.581206],[70.739693,33.552474],[70.73561,33.537695],[70.73499,33.534336],[70.734835,33.530874],[70.73499,33.527747],[70.737212,33.517489],[70.737936,33.508963],[70.737316,33.504829],[70.734525,33.499428],[70.730339,33.495682],[70.722743,33.494132],[70.717317,33.494312],[70.712666,33.494028],[70.684296,33.484494],[70.666571,33.481936],[70.644867,33.481161],[70.640681,33.480644],[70.63696,33.479378],[70.629519,33.474055],[70.600942,33.446641],[70.59102,33.440336],[70.585439,33.438166],[70.580478,33.437288],[70.574742,33.437029],[70.560427,33.437598],[70.54911,33.437029],[70.538103,33.434755],[70.52384,33.433412],[70.507821,33.430311],[70.50193,33.427779],[70.488442,33.419976],[70.485651,33.416204],[70.483791,33.413077],[70.482706,33.409331],[70.481001,33.402018],[70.480691,33.398582],[70.482861,33.394267],[70.487822,33.389125],[70.500534,33.380185],[70.533762,33.363287],[70.544614,33.35998],[70.55097,33.350084],[70.559962,33.313264],[70.584508,33.283395],[70.599081,33.277814],[70.607453,33.275489],[70.615979,33.274248],[70.627762,33.274171],[70.632929,33.273241],[70.66533,33.262673],[70.670601,33.26182],[70.682849,33.2612],[70.689412,33.260037],[70.693908,33.258487],[70.696078,33.256472],[70.690187,33.240323],[70.689877,33.2373],[70.690342,33.234432],[70.691892,33.232029],[70.694683,33.230013],[70.705845,33.227765],[70.737626,33.224768],[70.759692,33.225207],[70.763567,33.224665],[70.776435,33.221254],[70.780155,33.220737],[70.790232,33.221254],[70.79571,33.220867],[70.800981,33.219652],[70.814624,33.215234],[70.834467,33.211281],[70.859014,33.203917],[70.86382,33.201462],[70.868315,33.197302],[70.871106,33.193013],[70.872036,33.188595],[70.870951,33.182445],[70.855603,33.162601],[70.791473,33.102037],[70.768218,33.097489],[70.760157,33.094311],[70.753025,33.089712],[70.737006,33.072581],[70.728789,33.066147],[70.716077,33.060928],[70.706775,33.058551],[70.683779,33.054856],[70.66409,33.048784],[70.648897,33.0462],[70.643161,33.044392],[70.632464,33.04248],[70.627968,33.04248],[70.623731,33.043022],[70.618925,33.042867],[70.597531,33.045658],[70.589159,33.044702],[70.584043,33.044702],[70.578152,33.045348],[70.553606,33.052195],[70.5488,33.051575],[70.543064,33.04974],[70.528336,33.040309],[70.515004,33.028785],[70.507821,33.025039],[70.498519,33.021706],[70.495573,33.018605],[70.472474,32.952769],[70.466738,32.941788],[70.439246,32.909361],[70.40886,32.861095],[70.399559,32.849132],[70.392996,32.842698],[70.389585,32.842931],[70.385864,32.842698],[70.381523,32.841665],[70.378423,32.83518],[70.376718,32.829624],[70.376563,32.781565],[70.380128,32.752678],[70.379043,32.746115],[70.378578,32.739397],[70.374547,32.723558],[70.375322,32.720897],[70.377958,32.719424],[70.387105,32.718107],[70.392065,32.716711],[70.407465,32.695989],[70.578617,32.512951],[70.586679,32.493883],[70.588694,32.486803],[70.589159,32.483392],[70.587609,32.478948],[70.583578,32.47515],[70.573191,32.469982],[70.566318,32.46944],[70.560272,32.470473],[70.493713,32.502874],[70.485186,32.505277],[70.478055,32.505975],[70.474644,32.505897],[70.471234,32.505355],[70.467823,32.504476],[70.463637,32.502022],[70.458676,32.495924],[70.451803,32.484142],[70.442347,32.461688],[70.437541,32.446289],[70.43258,32.435178],[70.426534,32.425437],[70.404519,32.403604],[70.371757,32.379988],[70.367416,32.375828],[70.347055,32.346734],[70.342094,32.341618],[70.315894,32.322033],[70.293725,32.309579],[70.283597,32.305341],[70.279566,32.304488],[70.274915,32.303868],[70.270419,32.303765],[70.265303,32.304488],[70.253211,32.307951],[70.24949,32.308442],[70.218123,32.305548],[70.214557,32.304798],[70.210991,32.303558],[70.204945,32.300613],[70.199829,32.296892],[70.194403,32.291699],[70.183241,32.270976],[70.171407,32.255447],[70.163811,32.247929],[70.15885,32.244234],[70.120092,32.222452],[70.096631,32.205347],[70.086244,32.19602],[70.074307,32.181447],[70.071206,32.17367],[70.068106,32.158554],[70.067796,32.155376],[70.068416,32.152586],[70.071517,32.14765],[70.098957,32.111529],[70.114615,32.077319],[70.123193,32.040939],[70.13358,32.022568],[70.172802,31.993836],[70.210991,31.885651],[70.213007,31.875677],[70.214557,31.84847],[70.214247,31.841158],[70.211456,31.825474],[70.208046,31.813097],[70.207581,31.809557],[70.217502,31.75199],[70.220293,31.746099],[70.235848,31.7238],[70.400592,31.247059],[70.40855,31.203315],[70.403899,31.19174],[70.398732,31.190551],[70.355324,31.188329],[70.348812,31.187166],[70.340389,31.184815],[70.31729,31.175074],[70.299616,31.171043],[70.264218,31.15505],[70.258792,31.149856],[70.256622,31.144921],[70.256467,31.140322],[70.258947,31.124405],[70.265613,31.104303],[70.266543,31.096087],[70.266388,31.088826],[70.264838,31.084305],[70.256311,31.069112],[70.251351,31.065753],[70.245925,31.066321],[70.242979,31.068001],[70.239103,31.072807],[70.230525,31.106086],[70.22882,31.129599],[70.230525,31.169881],[70.24608,31.254759],[70.243444,31.321887],[70.245149,31.331886],[70.257552,31.374881],[70.258172,31.385681],[70.257707,31.392477],[70.255381,31.398006],[70.252126,31.403329],[70.241119,31.417282],[70.237811,31.42617],[70.234711,31.439787],[70.236158,31.454463],[70.235538,31.464669],[70.23254,31.475237],[70.22913,31.480534],[70.225099,31.484874],[70.222308,31.485985],[70.219518,31.485727],[70.217192,31.483143],[70.213782,31.478828],[70.207891,31.472653],[70.196574,31.456814],[70.192543,31.454334],[70.188512,31.453326],[70.183861,31.452835],[70.17983,31.451517],[70.17642,31.449424],[70.170322,31.44157],[70.164741,31.431673],[70.15823,31.423276],[70.153269,31.419452],[70.147998,31.416558],[70.143812,31.415034],[70.139936,31.414414],[70.123193,31.417256],[70.11601,31.417204],[70.111979,31.415344],[70.108569,31.41276],[70.105933,31.409918],[70.102988,31.40736],[70.098647,31.407127],[70.092756,31.408652],[70.084539,31.41555],[70.079423,31.417359],[70.075392,31.416868],[70.073067,31.414],[70.071827,31.410977],[70.070121,31.405112],[70.065419,31.394751],[70.063248,31.384984],[70.061543,31.382219],[70.052086,31.37408],[70.048055,31.369352],[70.04542,31.362944],[70.042784,31.352402],[70.041854,31.344004],[70.042784,31.326564],[70.042319,31.322869],[70.040459,31.321086],[70.036738,31.320776],[70.028677,31.325194],[70.024956,31.330078],[70.022631,31.336072],[70.022166,31.346872],[70.004286,31.45423],[69.989558,31.478389],[69.979326,31.483479],[69.972505,31.483479],[69.962583,31.484823],[69.929665,31.496786],[69.922068,31.501152],[69.918348,31.505132],[69.914782,31.515389],[69.914007,31.521074],[69.914317,31.527921],[69.916177,31.538876],[69.924239,31.561381],[69.926564,31.573706],[69.93044,31.637372],[69.934161,31.660032],[69.93044,31.728012],[69.93137,31.742404],[69.92951,31.798008],[69.9323,31.819996],[69.939122,31.838109],[69.944703,31.890379],[69.943617,31.894953],[69.940362,31.898648],[69.936176,31.8995],[69.931835,31.899113],[69.927649,31.89702],[69.924859,31.894333],[69.911681,31.872964],[69.901915,31.861906],[69.897264,31.857952],[69.892871,31.854852],[69.88698,31.851958],[69.881399,31.849839],[69.877213,31.848987],[69.873182,31.849167],[69.868687,31.850563],[69.86295,31.853405],[69.856904,31.857358],[69.851013,31.862862],[69.84445,31.871182],[69.84135,31.877951],[69.839799,31.883196],[69.839386,31.888364],[69.840109,31.892731],[69.842177,31.897743],[69.86233,31.92769],[69.866361,31.935105],[69.868066,31.944691],[69.867136,31.949833],[69.864036,31.953993],[69.86016,31.956706],[69.84073,31.966215],[69.827707,31.974276],[69.8167,31.983139],[69.807863,31.992905],[69.805693,32.000192],[69.807088,32.007452],[69.81391,32.019235],[69.823366,32.039776],[69.824917,32.053418],[69.821661,32.057604],[69.792671,32.061144],[69.717223,32.047372],[69.708076,32.046856],[69.662291,32.031378],[69.645703,32.019674],[69.619968,31.987712],[69.604258,31.972622],[69.587205,31.959393],[69.569997,31.94867],[69.535994,31.940919],[69.518475,31.943632],[69.368717,31.934175],[69.348873,31.92986],[69.334714,31.930299],[69.328358,31.939575],[69.301157,31.941282],[69.304793,31.94694],[69.302157,31.959911],[69.270634,32.035978],[69.251049,32.13065],[69.251876,32.15225],[69.259524,32.194522],[69.259989,32.236819],[69.266965,32.279581],[69.268102,32.301337],[69.264433,32.322369],[69.238543,32.378283],[69.228001,32.421304],[69.232859,32.462671],[69.251566,32.50055],[69.281952,32.532796],[69.302105,32.543777],[69.34355,32.55605],[69.361223,32.568478],[69.413933,32.635477],[69.426025,32.655088],[69.429126,32.667361],[69.419101,32.70046],[69.41724,32.718004],[69.414657,32.725575],[69.407732,32.729941],[69.399154,32.732964],[69.39042,32.737899],[69.383237,32.744462],[69.37807,32.752317],[69.376313,32.771877],[69.387165,32.785338],[69.421064,32.80681],[69.445559,32.835671],[69.471449,32.852234],[69.477288,32.856833],[69.48721,32.885875],[69.468503,32.994292],[69.478125,33.01135],[69.487727,33.028373],[69.514185,33.056691],[69.547517,33.075011],[69.587773,33.079532],[69.60834,33.079067],[69.640689,33.084235],[69.650198,33.081858],[69.658776,33.078421],[69.667768,33.077],[69.68601,33.080773],[69.732983,33.109298],[69.771844,33.114776],[69.838713,33.086664],[69.880933,33.089248],[69.955812,33.127695],[69.965734,33.1294],[69.994725,33.127333],[70.006869,33.131803],[70.014517,33.140769],[70.048003,33.194073],[70.059785,33.198052],[70.08366,33.191283],[70.105364,33.18981],[70.124794,33.199034],[70.294448,33.318949],[70.301579,33.35179],[70.285715,33.382873],[70.233005,33.432612],[70.227837,33.43995],[70.220447,33.456021],[70.213368,33.461344],[70.185462,33.468966],[70.177607,33.47341],[70.163758,33.488655],[70.154973,33.506612],[70.151356,33.525862],[70.153009,33.544749],[70.173473,33.607872],[70.174093,33.632108],[70.170218,33.638671],[70.162518,33.643245],[70.145981,33.649885],[70.136886,33.656293],[70.132546,33.661435],[70.126551,33.676964],[70.118128,33.716522],[70.108154,33.727296],[70.065573,33.721018],[70.011829,33.740319],[69.996478,33.742091],[69.972659,33.744841],[69.957518,33.752695],[69.947234,33.771971],[69.940103,33.791479],[69.931318,33.806439],[69.907546,33.83561],[69.898761,33.851501],[69.885429,33.889457],[69.876489,33.902557],[69.847188,33.926948],[69.841091,33.941805],[69.854216,33.956352],[69.871993,33.971519],[69.873853,33.986325],[69.870443,34.001337],[69.872613,34.017227],[69.889253,34.031206],[69.905445,34.035848],[69.916021,34.038879],[69.969093,34.045727],[70.002838,34.043789],[70.218845,33.980692],[70.275586,33.97617],[70.309899,33.961675],[70.328193,33.957282],[70.408963,33.954414],[70.49149,33.939609],[70.521979,33.938705],[70.656183,33.95475],[70.791317,33.953562],[70.862217,33.964775],[70.879994,33.994257],[70.884334,34.007047],[70.894308,34.009372],[70.921231,34.002241],[70.939731,34.000923],[70.953994,34.004825],[70.965725,34.013816],[70.977145,34.027407],[70.997712,34.033324],[71.046702,34.041877],[71.062618,34.054253],[71.067269,34.073012],[71.063858,34.088928],[71.062773,34.10531],[71.073884,34.125257],[71.101789,34.151818],[71.108093,34.165228],[71.109489,34.189206],[71.106543,34.209386],[71.09688,34.244345],[71.097086,34.262458],[71.126387,34.332221],[71.122046,34.356819],[71.050939,34.389788],[71.01983,34.414438],[70.991511,34.443067],[70.970841,34.468879],[70.961229,34.487612],[70.955648,34.510014],[70.956991,34.532002],[70.96867,34.549727],[70.983356,34.555256],[70.985827,34.556186],[71.006963,34.556341],[71.047529,34.551122]]]}}]}
