{"type":"FeatureCollection","features":[{"type":"Feature","properties":{"id":"IN-JH","country":"IN","name_en":"Jharkhand"},"geometry":{"type":"Polygon","coordinates":[[[83.337063,24.140232],[83.360214,24.198342],[83.366726,24.210667],[83.380575,24.232165],[83.407653,24.260716],[83.412098,24.26808],[83.415302,24.276736],[83.415818,24.288931],[83.415508,24.296786],[83.416232,24.305364],[83.420469,24.313917],[83.446824,24.345956],[83.451578,24.353682],[83.453956,24.361588],[83.452405,24.371278],[83.448685,24.380424],[83.436075,24.398046],[83.421709,24.413652],[83.415198,24.422334],[83.408584,24.432876],[83.397938,24.457215],[83.395251,24.466905],[83.394218,24.474424],[83.394528,24.481452],[83.395871,24.487705],[83.398352,24.493311],[83.401659,24.498298],[83.40693,24.502794],[83.421193,24.512096],[83.437832,24.520933],[83.523099,24.529666],[83.538705,24.531268],[83.6372,24.517212],[83.695905,24.506282],[83.750165,24.508375],[83.767735,24.513775],[83.787889,24.537314],[83.808869,24.542507],[83.819411,24.541319],[83.840599,24.536229],[83.849797,24.535066],[83.860546,24.53628],[83.879769,24.541345],[83.918423,24.543799],[83.938267,24.548683],[83.953873,24.558889],[83.965862,24.57602],[83.979091,24.582014],[83.988703,24.587905],[83.992424,24.591419],[83.995318,24.595424],[83.997798,24.599765],[84.011648,24.632812],[84.015368,24.636714],[84.021673,24.639039],[84.029631,24.634853],[84.043894,24.623898],[84.075726,24.562144],[84.09557,24.504138],[84.107042,24.484552],[84.119651,24.474165],[84.130503,24.469773],[84.139392,24.471168],[84.145386,24.476646],[84.149004,24.484862],[84.150244,24.493673],[84.150347,24.501657],[84.152104,24.507755],[84.156858,24.510985],[84.164817,24.510287],[84.169157,24.505507],[84.170501,24.497756],[84.170191,24.488557],[84.174118,24.47954],[84.181973,24.475741],[84.190241,24.476594],[84.196339,24.481917],[84.197993,24.490288],[84.196132,24.510365],[84.197373,24.518142],[84.202954,24.52132],[84.212152,24.522586],[84.224968,24.52039],[84.233856,24.521992],[84.240057,24.525403],[84.246879,24.526875],[84.254527,24.524136],[84.262072,24.519072],[84.26879,24.517651],[84.275714,24.520312],[84.285843,24.531578],[84.293284,24.533981],[84.305376,24.530803],[84.314058,24.522896],[84.3246,24.502949],[84.32522,24.470445],[84.318399,24.463365],[84.311888,24.451144],[84.314368,24.443134],[84.338759,24.420629],[84.352815,24.401069],[84.366355,24.388124],[84.380927,24.377789],[84.409659,24.36425],[84.434464,24.346499],[84.440975,24.33823],[84.447177,24.328179],[84.454618,24.320376],[84.471981,24.307354],[84.484487,24.302858],[84.496683,24.301695],[84.507535,24.303168],[84.519213,24.307509],[84.539884,24.325983],[84.542675,24.332908],[84.544948,24.341925],[84.549599,24.352261],[84.573164,24.37182],[84.579572,24.382181],[84.584222,24.39231],[84.588253,24.394429],[84.594144,24.391612],[84.602723,24.385747],[84.612334,24.380734],[84.623807,24.380192],[84.644891,24.375231],[84.657603,24.37505],[84.664734,24.382104],[84.675276,24.41143],[84.688195,24.430705],[84.704318,24.443289],[84.747623,24.465148],[84.761783,24.474656],[84.776976,24.482304],[84.786897,24.489823],[84.798473,24.496593],[84.813149,24.495353],[84.825551,24.484914],[84.835163,24.43794],[84.843845,24.433496],[84.859451,24.436338],[84.868546,24.440111],[84.876298,24.436442],[84.879192,24.426752],[84.88901,24.372828],[84.895625,24.362079],[84.908854,24.353682],[84.96146,24.348385],[84.981821,24.352803],[84.998874,24.361046],[85.015411,24.371794],[85.080626,24.393318],[85.087137,24.390915],[85.088481,24.383318],[85.0829,24.35872],[85.082487,24.34854],[85.088998,24.341951],[85.097576,24.344199],[85.135507,24.378254],[85.149356,24.387969],[85.157727,24.395643],[85.160208,24.403084],[85.157934,24.412283],[85.160208,24.421326],[85.170957,24.430912],[85.260977,24.461789],[85.271312,24.467034],[85.27617,24.473416],[85.277513,24.480909],[85.280614,24.487265],[85.295187,24.491141],[85.374562,24.499642],[85.391408,24.50946],[85.438951,24.505197],[85.462515,24.506205],[85.482359,24.509305],[85.495278,24.508065],[85.50551,24.503208],[85.517085,24.499461],[85.526387,24.501554],[85.556566,24.527935],[85.56008,24.533283],[85.569899,24.541241],[85.573929,24.54566],[85.578374,24.557804],[85.587572,24.557571],[85.602352,24.553308],[85.619818,24.549923],[85.643693,24.55013],[85.656818,24.557649],[85.6624,24.568888],[85.6624,24.605734],[85.660332,24.61718],[85.657439,24.626456],[85.651341,24.635422],[85.647413,24.643251],[85.64731,24.648573],[85.655268,24.651829],[85.680796,24.658547],[85.688858,24.66883],[85.693715,24.682163],[85.696919,24.711541],[85.70095,24.724538],[85.708288,24.738645],[85.71852,24.753787],[85.731853,24.766551],[85.746012,24.770039],[85.830865,24.770917],[85.849158,24.764458],[85.865901,24.751719],[85.911583,24.698467],[85.959332,24.703221],[86.001604,24.729111],[86.01814,24.742986],[86.040154,24.749988],[86.046872,24.739601],[86.044082,24.731436],[86.03788,24.722367],[86.03292,24.712394],[86.037674,24.708363],[86.048733,24.707071],[86.064546,24.706658],[86.081495,24.701102],[86.097722,24.690483],[86.107747,24.671647],[86.117669,24.597026],[86.12573,24.580696],[86.136686,24.569586],[86.154876,24.556098],[86.17441,24.552378],[86.191359,24.553024],[86.213684,24.565607],[86.223606,24.567932],[86.26226,24.553799],[86.290475,24.551551],[86.296573,24.542507],[86.300293,24.532611],[86.304634,24.500314],[86.303497,24.491064],[86.298433,24.481607],[86.272491,24.454451],[86.270941,24.445924],[86.276419,24.434814],[86.35507,24.395281],[86.416359,24.351873],[86.438683,24.340375],[86.449742,24.343114],[86.456873,24.352312],[86.461937,24.363139],[86.463384,24.373525],[86.461214,24.383473],[86.462557,24.391767],[86.467518,24.399906],[86.475166,24.403136],[86.486019,24.410474],[86.485192,24.445227],[86.49439,24.479798],[86.503588,24.49065],[86.536248,24.515636],[86.585651,24.561447],[86.607355,24.561292],[86.628956,24.55292],[86.649213,24.542662],[86.666679,24.542404],[86.689727,24.547778],[86.702336,24.547778],[86.727968,24.560129],[86.737889,24.580851],[86.745021,24.586846],[86.755356,24.588138],[86.768068,24.584675],[86.781504,24.577492],[86.813234,24.55416],[86.889922,24.531604],[86.891989,24.536926],[86.889818,24.556796],[86.890748,24.564547],[86.90005,24.576407],[86.915346,24.597259],[86.917827,24.612684],[86.925475,24.613588],[86.961132,24.605191],[87.013118,24.586045],[87.029758,24.584029],[87.042264,24.588396],[87.050015,24.597026],[87.051875,24.618084],[87.055699,24.632011],[87.069445,24.668055],[87.066655,24.699475],[87.077507,24.745337],[87.075957,24.760453],[87.071202,24.770452],[87.068102,24.778488],[87.071202,24.782751],[87.077714,24.788771],[87.085568,24.797892],[87.102622,24.827477],[87.112027,24.839156],[87.119158,24.851145],[87.121742,24.863754],[87.117298,24.970879],[87.121329,24.986279],[87.12815,25.001627],[87.150887,25.031625],[87.174039,25.053872],[87.185511,25.061985],[87.216723,25.072553],[87.230573,25.071777],[87.25424,25.062915],[87.261372,25.063974],[87.265919,25.072165],[87.280699,25.13074],[87.282972,25.149706],[87.291861,25.174252],[87.302506,25.183915],[87.315219,25.187223],[87.337439,25.18823],[87.34209,25.189961],[87.348602,25.193889],[87.35563,25.197067],[87.363794,25.196499],[87.376507,25.189961],[87.392216,25.183993],[87.406686,25.181047],[87.423429,25.18854],[87.42994,25.20226],[87.436141,25.228796],[87.441412,25.235824],[87.454745,25.243317],[87.455675,25.251663],[87.459706,25.265926],[87.470765,25.284168],[87.509109,25.314993],[87.523475,25.323778],[87.535877,25.320031],[87.539804,25.316517],[87.549726,25.315199],[87.558098,25.311892],[87.57019,25.303469],[87.581559,25.289904],[87.58869,25.27683],[87.598715,25.266701],[87.65959,25.255074],[87.681191,25.245436],[87.72615,25.251611],[87.749611,25.248227],[87.759946,25.243498],[87.770178,25.236987],[87.778756,25.227556],[87.783717,25.214094],[87.78351,25.200297],[87.779066,25.191977],[87.773278,25.18451],[87.769454,25.173141],[87.768731,25.15924],[87.770385,25.147949],[87.776276,25.12472],[87.776482,25.117925],[87.775139,25.1033],[87.776276,25.096789],[87.78103,25.08989],[87.786921,25.087539],[87.792605,25.086583],[87.79736,25.083741],[87.8356,25.047102],[87.844075,25.041547],[87.849553,25.030643],[87.858855,25.008887],[87.877458,24.938866],[87.880869,24.915508],[87.881902,24.891969],[87.879112,24.878688],[87.866709,24.86241],[87.861955,24.851532],[87.857924,24.800528],[87.856684,24.796058],[87.854204,24.789702],[87.848623,24.787092],[87.841181,24.788306],[87.830743,24.794818],[87.823715,24.796885],[87.81586,24.794663],[87.811002,24.785542],[87.812449,24.775697],[87.81741,24.767352],[87.823301,24.763605],[87.830433,24.761383],[87.853274,24.758437],[87.857924,24.755285],[87.861128,24.750996],[87.86795,24.736862],[87.874771,24.726088],[87.876838,24.716192],[87.877458,24.702963],[87.879008,24.694384],[87.883039,24.687124],[87.88893,24.680974],[87.895442,24.670303],[87.895338,24.661828],[87.890791,24.65586],[87.880662,24.65002],[87.873427,24.644258],[87.87012,24.634698],[87.873841,24.629789],[87.881592,24.626998],[87.888,24.626921],[87.899989,24.620952],[87.894821,24.604416],[87.888,24.597362],[87.877251,24.58868],[87.864229,24.582712],[87.849243,24.579534],[87.834877,24.579146],[87.822991,24.581394],[87.811932,24.586536],[87.803147,24.591858],[87.792915,24.596587],[87.782167,24.599817],[87.767697,24.601599],[87.757465,24.5993],[87.750851,24.593331],[87.752401,24.587233],[87.759843,24.581497],[87.771728,24.578293],[87.782373,24.574288],[87.788988,24.56956],[87.790848,24.562455],[87.787128,24.533826],[87.788575,24.52641],[87.797256,24.515041],[87.800047,24.50822],[87.80046,24.500779],[87.798497,24.494526],[87.794156,24.485767],[87.789298,24.479901],[87.78041,24.471788],[87.776276,24.464295],[87.775345,24.45551],[87.778446,24.446002],[87.77979,24.435486],[87.775759,24.419311],[87.733798,24.334691],[87.720568,24.317792],[87.691836,24.296553],[87.666102,24.280198],[87.652872,24.276891],[87.631478,24.269372],[87.623727,24.260483],[87.621866,24.250665],[87.623313,24.239994],[87.623313,24.230227],[87.624554,24.22294],[87.628998,24.219607],[87.634889,24.220537],[87.6414,24.223431],[87.645948,24.223483],[87.652769,24.21891],[87.663414,24.200409],[87.661554,24.186198],[87.650909,24.17948],[87.636129,24.178163],[87.605433,24.18209],[87.594065,24.178447],[87.58931,24.170825],[87.58683,24.149224],[87.581869,24.136537],[87.57205,24.117572],[87.563265,24.112069],[87.55169,24.1138],[87.529676,24.132972],[87.517273,24.138914],[87.506628,24.140232],[87.49774,24.13832],[87.488541,24.132429],[87.486888,24.124135],[87.492572,24.097909],[87.489988,24.081579],[87.491228,24.055922],[87.488748,24.046853],[87.48172,24.040187],[87.472005,24.034063],[87.458156,24.019826],[87.44658,24.0167],[87.417641,24.023934],[87.397177,24.023392],[87.33806,24.001843],[87.332168,24.002747],[87.328138,24.007605],[87.32545,24.017527],[87.32452,24.030782],[87.32173,24.042667],[87.316149,24.05109],[87.309017,24.056206],[87.301576,24.056852],[87.254757,24.046672],[87.235533,24.040419],[87.227162,24.033701],[87.225715,24.027345],[87.231296,24.019206],[87.247109,24.00577],[87.25145,24.000499],[87.25145,23.993213],[87.25238,23.987063],[87.256721,23.980707],[87.276151,23.966134],[87.282972,23.954869],[87.285143,23.940684],[87.282662,23.927945],[87.275634,23.915543],[87.267263,23.909833],[87.255791,23.909988],[87.250416,23.905544],[87.247626,23.897508],[87.248246,23.875959],[87.246489,23.864952],[87.241218,23.850844],[87.232536,23.845832],[87.225095,23.846297],[87.213003,23.862911],[87.205354,23.868879],[87.196673,23.871282],[87.186027,23.872781],[87.165047,23.878465],[87.154298,23.879938],[87.144686,23.878129],[87.139312,23.873323],[87.137245,23.867742],[87.139415,23.859939],[87.146133,23.852705],[87.16329,23.83777],[87.168457,23.829424],[87.170318,23.823533],[87.166287,23.810227],[87.131871,23.803121],[87.079677,23.815213],[87.056733,23.825549],[87.036993,23.839114],[87.015599,23.859603],[87.007847,23.861877],[86.996272,23.862084],[86.979942,23.863867],[86.958961,23.873091],[86.907285,23.905776],[86.889818,23.912003],[86.877209,23.913063],[86.869768,23.908386],[86.8646,23.902159],[86.861396,23.895441],[86.859639,23.888155],[86.857675,23.882909],[86.855505,23.878956],[86.846307,23.868104],[86.827186,23.855831],[86.821915,23.848932],[86.815094,23.836685],[86.80972,23.818081],[86.81003,23.812552],[86.811373,23.806532],[86.815921,23.796377],[86.822432,23.776895],[86.817885,23.750127],[86.799798,23.725529],[86.764038,23.71478],[86.646112,23.6969],[86.58317,23.677392],[86.542449,23.66021],[86.458527,23.638609],[86.410468,23.616569],[86.379875,23.598017],[86.360962,23.582075],[86.348352,23.567942],[86.342461,23.554144],[86.340911,23.542388],[86.341221,23.529908],[86.340188,23.518332],[86.336467,23.508436],[86.332436,23.502674],[86.330679,23.500607],[86.329749,23.49991],[86.328095,23.497843],[86.323548,23.494096],[86.313729,23.484562],[86.302464,23.478076],[86.273008,23.453737],[86.242829,23.443582],[86.227946,23.443246],[86.214304,23.449163],[86.203865,23.461204],[86.184848,23.472263],[86.157666,23.483812],[86.149088,23.486577],[86.134205,23.488282],[86.126454,23.492468],[86.122423,23.497197],[86.1217,23.499264],[86.121493,23.500891],[86.12356,23.514224],[86.134515,23.558872],[86.129141,23.578354],[86.098342,23.578742],[86.056381,23.602513],[86.039121,23.607164],[86.024651,23.606751],[86.015556,23.60179],[86.007288,23.593625],[86.002224,23.585641],[86.000363,23.579517],[86.001397,23.572334],[86.014419,23.538434],[86.015866,23.529313],[86.010595,23.518565],[86.004808,23.514224],[85.996436,23.511511],[85.942486,23.502855],[85.919025,23.501796],[85.903005,23.502674],[85.849468,23.493192],[85.828901,23.483063],[85.82549,23.479317],[85.82239,23.470196],[85.823113,23.453866],[85.830658,23.448388],[85.836963,23.439241],[85.84151,23.430095],[85.847194,23.425883],[85.87851,23.428053],[85.885022,23.425883],[85.89484,23.416478],[85.89422,23.409838],[85.889052,23.402577],[85.885022,23.391131],[85.883368,23.36785],[85.880681,23.356301],[85.87479,23.346766],[85.85939,23.3293],[85.843991,23.307027],[85.832725,23.283127],[85.829831,23.260803],[85.839133,23.240623],[85.871172,23.210702],[85.8782,23.188792],[85.880267,23.177009],[85.885538,23.166338],[85.888432,23.163083],[85.900111,23.166364],[85.942486,23.180343],[85.959952,23.179128],[85.982587,23.175046],[86.001914,23.165098],[86.020207,23.152592],[86.142474,23.028259],[86.163558,23.011051],[86.178027,23.005728],[86.19291,23.007743],[86.207586,23.013841],[86.218025,23.019887],[86.260503,23.01981],[86.314039,23.008596],[86.450465,23.004203],[86.459043,23.00255],[86.462144,23.000844],[86.462867,23.00025],[86.464004,22.99932],[86.468345,22.998467],[86.47775,22.995522],[86.49501,22.994979],[86.503072,22.992034],[86.506482,22.988339],[86.505862,22.98405],[86.501108,22.97927],[86.495217,22.976944],[86.483021,22.974179],[86.467208,22.972474],[86.452842,22.968908],[86.441473,22.964025],[86.414808,22.943458],[86.410468,22.935784],[86.410261,22.926249],[86.413878,22.915423],[86.414808,22.905941],[86.411398,22.894882],[86.401889,22.872868],[86.400649,22.862998],[86.400236,22.839356],[86.395585,22.812665],[86.394758,22.799306],[86.399099,22.784966],[86.452325,22.745356],[86.469585,22.742824],[86.482608,22.742411],[86.490773,22.744064],[86.498731,22.743134],[86.524362,22.729414],[86.586891,22.680683],[86.594642,22.632546],[86.601257,22.619033],[86.611386,22.604254],[86.625028,22.595753],[86.639601,22.591541],[86.685386,22.590792],[86.702336,22.585883],[86.726521,22.571568],[86.74006,22.55821],[86.749362,22.5448],[86.757216,22.526429],[86.758973,22.518677],[86.759387,22.512089],[86.757113,22.505836],[86.750912,22.502684],[86.7413,22.502374],[86.721766,22.505888],[86.716289,22.505578],[86.713498,22.502167],[86.712568,22.500823],[86.712258,22.499816],[86.712051,22.498162],[86.712258,22.492762],[86.713602,22.482943],[86.718149,22.469404],[86.72311,22.461963],[86.729828,22.456097],[86.760937,22.44124],[86.773753,22.432352],[86.789876,22.415635],[86.79587,22.398659],[86.797731,22.365379],[86.803312,22.348378],[86.816644,22.336389],[86.831114,22.325692],[86.848374,22.310086],[86.852508,22.302024],[86.849614,22.294428],[86.833904,22.28833],[86.795767,22.285229],[86.780264,22.286702],[86.772306,22.283911],[86.767758,22.277349],[86.769205,22.257376],[86.767035,22.246704],[86.761867,22.240607],[86.750602,22.240503],[86.733859,22.24673],[86.728691,22.246472],[86.723937,22.242157],[86.706677,22.23301],[86.693344,22.224329],[86.686523,22.218024],[86.646629,22.234871],[86.602187,22.272853],[86.506069,22.330834],[86.497181,22.334684],[86.486639,22.336854],[86.471756,22.335071],[86.433722,22.323134],[86.419149,22.320834],[86.401579,22.320007],[86.383492,22.323237],[86.366026,22.330058],[86.346079,22.343959],[86.332746,22.356672],[86.322721,22.368738],[86.304738,22.397057],[86.289545,22.409046],[86.268047,22.422404],[86.102476,22.500126],[86.064752,22.545885],[86.057414,22.552164],[86.049973,22.555807],[86.039844,22.556737],[86.030232,22.552965],[86.020621,22.547926],[86.005324,22.524414],[85.997676,22.519143],[85.994266,22.517928],[85.988271,22.516636],[85.973595,22.514957],[85.965533,22.513096],[85.945586,22.505603],[85.938765,22.500513],[85.938248,22.499945],[85.937835,22.49917],[85.937318,22.495061],[85.937008,22.486018],[85.940625,22.468138],[85.950237,22.452842],[85.974835,22.424601],[85.982483,22.410829],[85.986514,22.393621],[85.993232,22.3352],[85.993025,22.316364],[85.989925,22.300784],[85.971425,22.275178],[85.965223,22.263189],[85.964603,22.24487],[85.971321,22.22854],[85.986824,22.201694],[85.988271,22.187535],[85.984654,22.172058],[85.976592,22.149785],[85.972561,22.133507],[85.972975,22.118883],[85.974112,22.111441],[85.974112,22.104594],[85.971321,22.097695],[85.963983,22.085603],[85.916234,22.022119],[85.897321,22.007623],[85.877477,21.9961],[85.834275,21.986126],[85.784666,22.011887],[85.780635,22.022196],[85.777638,22.039663],[85.778775,22.053512],[85.778465,22.063822],[85.779085,22.071935],[85.782599,22.079764],[85.796552,22.096817],[85.800582,22.106222],[85.801719,22.117022],[85.798309,22.126014],[85.792211,22.129089],[85.780429,22.125136],[85.766683,22.116712],[85.755934,22.107152],[85.746425,22.101158],[85.734333,22.096145],[85.717797,22.091882],[85.705808,22.087463],[85.685344,22.077051],[85.679143,22.075862],[85.655888,22.084699],[85.609586,22.09214],[85.550675,22.107591],[85.461068,22.158131],[85.448562,22.162524],[85.43678,22.164229],[85.425205,22.164487],[85.410012,22.162007],[85.396059,22.157873],[85.379006,22.146969],[85.335081,22.132448],[85.324126,22.126686],[85.277824,22.085319],[85.232038,22.035322],[85.225527,22.030516],[85.220153,22.029147],[85.214882,22.031059],[85.20806,22.036743],[85.18708,22.05961],[85.109152,22.108496],[85.097886,22.113457],[85.079489,22.119038],[85.062023,22.121234],[85.050344,22.120898],[85.042592,22.119735],[85.003215,22.106196],[84.991123,22.104026],[84.986265,22.106661],[84.985232,22.112785],[84.992466,22.127642],[84.999288,22.136556],[85.008899,22.151542],[85.040009,22.21637],[85.087758,22.280165],[85.093339,22.290216],[85.09892,22.304685],[85.104707,22.330834],[85.104707,22.357499],[85.100367,22.393956],[85.087758,22.446615],[85.065537,22.5032],[85.038252,22.482401],[84.988022,22.452222],[84.983371,22.450335],[84.952469,22.447416],[84.944097,22.445245],[84.937586,22.441059],[84.921463,22.424885],[84.916295,22.423205],[84.908337,22.421965],[84.878571,22.434031],[84.817593,22.448113],[84.80085,22.45018],[84.778526,22.448346],[84.768914,22.445581],[84.761886,22.440775],[84.757442,22.435427],[84.748243,22.430698],[84.733671,22.427288],[84.530066,22.423024],[84.516733,22.421422],[84.508155,22.417004],[84.505054,22.41057],[84.504434,22.402535],[84.504951,22.392535],[84.503814,22.384655],[84.50092,22.376619],[84.497303,22.372201],[84.490998,22.366568],[84.48459,22.362279],[84.420822,22.330989],[84.408213,22.328741],[84.310957,22.324012],[84.292767,22.328172],[84.230859,22.357344],[84.217423,22.360548],[84.195822,22.359772],[84.188794,22.360599],[84.178562,22.364372],[84.147763,22.386773],[84.137015,22.400933],[84.130607,22.412147],[84.124302,22.426745],[84.067045,22.499583],[84.036039,22.51829],[84.00741,22.531519],[83.970203,22.539348],[83.976404,22.55374],[83.982605,22.574075],[83.985293,22.579888],[83.988703,22.585934],[83.991907,22.589681],[83.996248,22.592704],[84.013301,22.59999],[84.019502,22.603789],[84.026427,22.609189],[84.043584,22.628671],[84.056503,22.639316],[84.061877,22.641021],[84.092159,22.639988],[84.103322,22.641228],[84.11128,22.643941],[84.119031,22.648127],[84.139082,22.667015],[84.190965,22.70094],[84.197373,22.707529],[84.20254,22.715978],[84.218663,22.766569],[84.223108,22.775639],[84.228275,22.78308],[84.2352,22.789695],[84.242538,22.793648],[84.260521,22.799436],[84.266722,22.804784],[84.277574,22.817238],[84.285223,22.823439],[84.324497,22.849691],[84.336899,22.861887],[84.346511,22.873824],[84.352195,22.88558],[84.353332,22.896484],[84.350955,22.908421],[84.346201,22.920229],[84.336589,22.938574],[84.332972,22.950279],[84.331008,22.970304],[84.32677,22.97821],[84.318399,22.985393],[84.291734,22.997227],[84.282225,23.000095],[84.27251,23.001232],[84.263519,23.001258],[84.25277,23.00025],[84.250909,22.999708],[84.243778,22.996452],[84.23582,22.993971],[84.226415,22.993868],[84.217113,22.995212],[84.200473,23.000173],[84.193652,23.003196],[84.160166,23.023117],[84.151587,23.024357],[84.147557,23.021076],[84.147247,23.015701],[84.149624,23.000173],[84.149417,22.998907],[84.148383,22.996607],[84.145386,22.993351],[84.139082,22.991181],[84.132054,22.990793],[84.124716,22.993119],[84.119341,22.995677],[84.115,22.998855],[84.1119,23.003661],[84.107869,23.012756],[84.102081,23.032651],[84.097637,23.060918],[84.094537,23.072649],[84.089059,23.084819],[84.07831,23.096549],[84.044824,23.123266],[84.028908,23.146107],[84.020019,23.187086],[84.031491,23.230133],[84.038623,23.309404],[84.028287,23.358394],[84.0225,23.37214],[84.015368,23.382604],[84.00431,23.388495],[83.998935,23.3894],[83.991804,23.386454],[83.967102,23.362554],[83.960901,23.358704],[83.956354,23.358678],[83.950773,23.362657],[83.946949,23.370021],[83.943951,23.382914],[83.943951,23.395316],[83.945088,23.405213],[83.9516,23.431955],[83.952323,23.441644],[83.95222,23.450481],[83.951083,23.459292],[83.950979,23.467276],[83.95222,23.474924],[83.95625,23.482908],[83.961935,23.490091],[83.992837,23.520503],[84.00431,23.534662],[84.010097,23.54417],[84.014541,23.553989],[84.015782,23.561818],[84.014852,23.567089],[83.997488,23.59887],[83.994594,23.610471],[83.993354,23.621168],[83.991184,23.631762],[83.986326,23.639023],[83.976301,23.643596],[83.969273,23.643518],[83.962555,23.6414],[83.949843,23.633777],[83.943538,23.631194],[83.933306,23.628481],[83.928655,23.626646],[83.923694,23.623494],[83.921007,23.619696],[83.919147,23.615665],[83.918113,23.609774],[83.918113,23.597991],[83.922764,23.576029],[83.921834,23.57006],[83.919664,23.566753],[83.916253,23.563756],[83.912325,23.563601],[83.906434,23.564686],[83.844629,23.588741],[83.835638,23.590369],[83.826956,23.590731],[83.819411,23.590111],[83.79626,23.58577],[83.788199,23.58546],[83.780861,23.586493],[83.771869,23.589594],[83.761534,23.596519],[83.752542,23.605769],[83.743344,23.622538],[83.731355,23.654887],[83.720813,23.676152],[83.719262,23.685299],[83.719779,23.69274],[83.722053,23.700673],[83.733215,23.729069],[83.735282,23.738345],[83.733835,23.7493],[83.729804,23.761263],[83.711821,23.800976],[83.696628,23.818701],[83.556792,23.9358],[83.540359,23.956729],[83.532504,23.97125],[83.526923,23.984505],[83.523822,23.999491],[83.522582,24.012566],[83.523305,24.052563],[83.521755,24.065896],[83.517518,24.075223],[83.510696,24.082897],[83.475246,24.10132],[83.459227,24.114627],[83.451475,24.119355],[83.442277,24.12181],[83.3906,24.124781],[83.337063,24.140232]]]}},{"type":"Feature","properties":{"id":"IN-WB","country":"IN","name_en":"West Bengal"},"geometry":{"type":"MultiPolygon","coordinates":[[[[88.733082,27.148972],[88.742572,27.142737],[88.805256,27.113023],[88.827632,27.097882],[88.840809,27.075248],[88.845615,27.049565],[88.845615,26.994943],[88.845615,26.994839],[88.851713,26.945437],[88.867113,26.964247],[88.88644,26.978975],[88.906645,26.981093],[88.924474,26.961663],[88.926954,26.949416],[88.925404,26.939029],[88.9253,26.929365],[88.932328,26.919237],[88.942767,26.913707],[88.954549,26.912622],[88.965815,26.915464],[88.975323,26.921717],[88.996614,26.922751],[89.021574,26.912674],[89.04488,26.897119],[89.060693,26.881461],[89.074335,26.856398],[89.082448,26.836037],[89.096504,26.821413],[89.128079,26.813455],[89.184613,26.810561],[89.212828,26.813041],[89.240837,26.819759],[89.252619,26.826787],[89.262954,26.836348],[89.273599,26.843892],[89.286364,26.844978],[89.300161,26.844409],[89.341657,26.854331],[89.368895,26.837359],[89.407338,26.813403],[89.442891,26.797022],[89.50542,26.803688],[89.546503,26.797539],[89.586087,26.784051],[89.611357,26.765964],[89.613475,26.748549],[89.597507,26.720954],[89.609806,26.712221],[89.628307,26.712531],[89.66324,26.725502],[89.685151,26.724571],[89.738739,26.703281],[89.75467,26.700989],[89.760288,26.70018],[89.800079,26.70049],[89.804058,26.699767],[89.81367,26.696149],[89.817287,26.696201],[89.822093,26.701007],[89.825245,26.707673],[89.826796,26.713513],[89.826744,26.715683],[89.827261,26.717905],[89.827674,26.722453],[89.829741,26.72762],[89.834961,26.731548],[89.839043,26.731238],[89.847001,26.72483],[89.850774,26.723176],[89.858701,26.722057],[89.853978,26.709429],[89.874649,26.654446],[89.87899,26.636979],[89.888498,26.532903],[89.873409,26.510372],[89.871858,26.507039],[89.870825,26.503938],[89.869895,26.500062],[89.858526,26.471046],[89.853565,26.451797],[89.843436,26.382163],[89.841576,26.379295],[89.839302,26.376995],[89.82659,26.369967],[89.818218,26.364205],[89.815221,26.360975],[89.814808,26.356247],[89.815118,26.347901],[89.825453,26.340382],[89.829794,26.334207],[89.828864,26.327851],[89.822042,26.324595],[89.806539,26.320409],[89.781528,26.308679],[89.778634,26.305578],[89.774293,26.297362],[89.75879,26.263178],[89.743184,26.253566],[89.732642,26.250646],[89.730368,26.244057],[89.732642,26.237546],[89.737913,26.230389],[89.738843,26.218503],[89.735329,26.211708],[89.727268,26.206204],[89.708354,26.201037],[89.687063,26.193001],[89.657829,26.187174],[89.658382,26.207859],[89.653008,26.22269],[89.634921,26.225842],[89.61332,26.219383],[89.606396,26.211011],[89.608463,26.180677],[89.615284,26.169101],[89.614406,26.164192],[89.593993,26.169722],[89.586759,26.169205],[89.579937,26.166104],[89.573426,26.16073],[89.562781,26.142591],[89.569395,26.130086],[89.585777,26.122903],[89.604225,26.120732],[89.592546,26.113963],[89.57787,26.107245],[89.566915,26.098977],[89.567018,26.087091],[89.57694,26.082647],[89.590789,26.085024],[89.603864,26.084662],[89.611357,26.072208],[89.602882,26.055258],[89.559163,26.022237],[89.550689,25.995055],[89.551825,25.981516],[89.549087,25.968855],[89.541697,25.959709],[89.528416,25.957125],[89.518184,25.962086],[89.509451,25.972628],[89.495343,25.995055],[89.490641,25.997329],[89.485628,25.998724],[89.480615,25.999241],[89.426407,25.995055],[89.426355,25.994952],[89.421187,25.993195],[89.416123,25.992626],[89.411266,25.993195],[89.406615,25.995055],[89.391422,26.015467],[89.379743,26.015312],[89.367754,26.005442],[89.351476,25.996864],[89.335301,25.998569],[89.315147,26.006786],[89.296906,26.018155],[89.272979,26.043476],[89.237633,26.0581],[89.229261,26.067196],[89.22306,26.086574],[89.212621,26.098977],[89.197842,26.10771],[89.131593,26.133755],[89.11919,26.146622],[89.111697,26.164502],[89.103377,26.22517],[89.095884,26.241035],[89.075885,26.271059],[89.069426,26.287389],[89.068857,26.314261],[89.08033,26.315604],[89.094799,26.309506],[89.103532,26.313692],[89.102912,26.327335],[89.095729,26.334518],[89.071855,26.340616],[89.055215,26.347023],[89.054078,26.353948],[89.057282,26.36263],[89.052631,26.374619],[89.043743,26.381078],[89.02178,26.386246],[89.010877,26.390173],[89.001781,26.39715],[88.986537,26.412704],[88.975323,26.417872],[88.959303,26.428569],[88.950157,26.43694],[88.94101,26.439421],[88.924577,26.432135],[88.911968,26.421231],[88.899462,26.404488],[88.891246,26.385781],[88.891866,26.368779],[88.912433,26.348935],[88.941217,26.340099],[88.966021,26.328472],[88.975323,26.299946],[88.981731,26.291833],[88.989689,26.289404],[88.998629,26.291523],[89.007983,26.297156],[89.004365,26.27571],[89.0116,26.269199],[89.023537,26.268837],[89.034338,26.265788],[89.039712,26.247185],[89.019455,26.234472],[88.975323,26.224344],[88.946849,26.232922],[88.902718,26.272919],[88.875794,26.277364],[88.855641,26.265116],[88.840654,26.232043],[88.824841,26.226566],[88.807995,26.233439],[88.798486,26.24765],[88.792027,26.2646],[88.784017,26.279947],[88.747947,26.292505],[88.663404,26.264444],[88.645834,26.27602],[88.653276,26.2831],[88.690121,26.299843],[88.702988,26.309661],[88.712238,26.328265],[88.709706,26.340616],[88.69627,26.350279],[88.673378,26.360718],[88.667435,26.368159],[88.66852,26.385729],[88.661079,26.388881],[88.652242,26.391517],[88.649865,26.39839],[88.651932,26.407071],[88.656273,26.415133],[88.633018,26.420094],[88.622373,26.424538],[88.611521,26.430843],[88.603563,26.440196],[88.597878,26.451461],[88.591161,26.461228],[88.579172,26.466034],[88.557984,26.465724],[88.549768,26.466654],[88.526823,26.475388],[88.506825,26.487635],[88.49866,26.49487],[88.487911,26.505773],[88.475405,26.514972],[88.462383,26.528821],[88.446467,26.535539],[88.411016,26.545099],[88.397891,26.55869],[88.394997,26.578379],[88.395927,26.599566],[88.394377,26.618015],[88.385282,26.623544],[88.372518,26.611607],[88.36027,26.593107],[88.352829,26.578689],[88.332365,26.514662],[88.319342,26.49487],[88.313865,26.481537],[88.315105,26.465052],[88.322546,26.451772],[88.335621,26.448206],[88.34022,26.454149],[88.34301,26.477196],[88.346524,26.484018],[88.353552,26.484586],[88.37691,26.475336],[88.434581,26.465156],[88.461143,26.45389],[88.475405,26.432031],[88.495456,26.378081],[88.497626,26.352708],[88.475405,26.355808],[88.467912,26.354051],[88.45799,26.353018],[88.448637,26.353431],[88.442022,26.356118],[88.431687,26.362216],[88.426003,26.357927],[88.421197,26.348729],[88.413807,26.340202],[88.366781,26.313434],[88.351692,26.30098],[88.336602,26.281808],[88.332933,26.267235],[88.334535,26.230803],[88.326267,26.21592],[88.308697,26.206102],[88.250303,26.188015],[88.229787,26.184036],[88.218884,26.18016],[88.211959,26.173752],[88.205654,26.166414],[88.196921,26.159645],[88.163796,26.140473],[88.155632,26.128484],[88.144469,26.095876],[88.141369,26.090502],[88.139922,26.085334],[88.141162,26.075464],[88.14478,26.070503],[88.150981,26.066989],[88.156407,26.061408],[88.157905,26.050452],[88.151032,26.031332],[88.125866,26.0134],[88.106539,25.979966],[88.088039,25.923225],[88.082664,25.915939],[88.077393,25.912786],[88.074396,25.908135],[88.082044,25.863849],[88.088969,25.848656],[88.087574,25.839974],[88.087574,25.830983],[88.103335,25.814808],[88.108038,25.806281],[88.114911,25.787264],[88.127726,25.774914],[88.146433,25.77574],[88.166225,25.783647],[88.18271,25.792432],[88.227462,25.804266],[88.259915,25.789021],[88.320273,25.725253],[88.392981,25.680759],[88.41944,25.653784],[88.423781,25.592237],[88.437785,25.579835],[88.475405,25.562575],[88.485586,25.542628],[88.512767,25.523714],[88.520467,25.509297],[88.530286,25.500202],[88.550956,25.496481],[88.593589,25.495086],[88.613175,25.486404],[88.645421,25.467336],[88.66635,25.462891],[88.67808,25.465889],[88.687072,25.473898],[88.69565,25.483614],[88.706192,25.491675],[88.71415,25.492812],[88.723142,25.491417],[88.732651,25.491003],[88.742572,25.495189],[88.741952,25.512759],[88.772338,25.501959],[88.780968,25.495189],[88.793112,25.48196],[88.805824,25.471676],[88.814919,25.458602],[88.816315,25.437208],[88.799313,25.401706],[88.799623,25.395609],[88.810372,25.388426],[88.813266,25.380054],[88.814041,25.370391],[88.81833,25.359642],[88.841998,25.332822],[88.849026,25.327189],[88.859258,25.324709],[88.880187,25.323468],[88.88613,25.319076],[88.902873,25.303418],[88.926489,25.300472],[88.975323,25.302643],[88.982713,25.294478],[88.984935,25.284969],[88.982351,25.274892],[88.975323,25.265229],[88.937754,25.240166],[88.929073,25.229417],[88.927988,25.21593],[88.930778,25.202649],[88.927884,25.192727],[88.909642,25.189161],[88.924163,25.167871],[88.898635,25.169318],[88.830216,25.191332],[88.823601,25.194846],[88.81709,25.196809],[88.809132,25.195259],[88.802517,25.188128],[88.792337,25.166579],[88.784224,25.160946],[88.724537,25.166475],[88.664593,25.186888],[88.634259,25.192262],[88.599119,25.19314],[88.590127,25.190143],[88.577725,25.177482],[88.570697,25.173245],[88.55938,25.170764],[88.554677,25.171126],[88.550026,25.173142],[88.523154,25.179808],[88.491838,25.191125],[88.475405,25.195104],[88.441299,25.18973],[88.43148,25.173038],[88.434168,25.116659],[88.425796,25.051056],[88.414117,25.021523],[88.391018,24.99509],[88.387865,24.968761],[88.37567,24.94561],[88.340892,24.90414],[88.322753,24.874684],[88.313606,24.868302],[88.296812,24.869698],[88.25485,24.879955],[88.242758,24.880601],[88.24188,24.898766],[88.232836,24.918273],[88.21878,24.935146],[88.20245,24.9453],[88.18302,24.94698],[88.16452,24.941114],[88.114911,24.916413],[88.114911,24.912021],[88.120337,24.906775],[88.124936,24.898145],[88.138062,24.863496],[88.140955,24.844583],[88.13124,24.831767],[88.117391,24.819261],[88.107779,24.801097],[88.094808,24.803112],[88.088245,24.796136],[88.085352,24.784018],[88.084008,24.770453],[88.07698,24.761177],[88.064268,24.759162],[88.053209,24.754976],[88.048455,24.711206],[88.035432,24.693817],[88.027164,24.67573],[88.02179,24.645603],[88.04091,24.640435],[88.05724,24.634105],[88.067265,24.613667],[88.081838,24.599869],[88.08499,24.593875],[88.08499,24.541733],[88.086023,24.53672],[88.090002,24.533],[88.098787,24.522484],[88.107934,24.507963],[88.10995,24.500986],[88.138785,24.49525],[88.401301,24.369418],[88.475405,24.315468],[88.49835,24.310972],[88.5631,24.308207],[88.612451,24.292885],[88.634517,24.294125],[88.649503,24.315364],[88.660149,24.338257],[88.681801,24.33389],[88.714564,24.315416],[88.737508,24.287097],[88.743038,24.247539],[88.74495,24.243379],[88.747482,24.226972],[88.749807,24.223251],[88.746397,24.214079],[88.734821,24.198421],[88.731617,24.189842],[88.731456,24.189771],[88.715907,24.182918],[88.69379,24.175321],[88.683765,24.166536],[88.67808,24.154289],[88.678287,24.144651],[88.68299,24.124291],[88.681801,24.112664],[88.675393,24.091838],[88.674101,24.08264],[88.67901,24.071219],[88.697821,24.056259],[88.700921,24.04365],[88.725002,24.038379],[88.725468,24.028896],[88.71384,24.014685],[88.701593,23.995281],[88.708363,23.98355],[88.714357,23.964404],[88.717148,23.943139],[88.71415,23.925156],[88.704435,23.913709],[88.666505,23.8795],[88.653121,23.869784],[88.633949,23.866141],[88.613175,23.867847],[88.593589,23.866916],[88.577621,23.85516],[88.574366,23.845626],[88.575451,23.836556],[88.577621,23.827616],[88.577518,23.818521],[88.57235,23.806894],[88.557674,23.785681],[88.552713,23.774984],[88.552507,23.765424],[88.559741,23.750283],[88.561188,23.741007],[88.540104,23.649953],[88.541551,23.638765],[88.550956,23.634424],[88.56124,23.632486],[88.566356,23.62874],[88.564392,23.616208],[88.561085,23.608612],[88.561705,23.602023],[88.57142,23.592334],[88.581549,23.588329],[88.601289,23.590344],[88.609247,23.588794],[88.624233,23.573859],[88.647643,23.535076],[88.664489,23.518307],[88.69379,23.499807],[88.704642,23.495182],[88.719421,23.468104],[88.731927,23.472625],[88.743709,23.489317],[88.756835,23.498799],[88.770168,23.488826],[88.767894,23.467277],[88.719266,23.348292],[88.69503,23.312609],[88.685935,23.293308],[88.686607,23.271604],[88.69658,23.252354],[88.710016,23.241218],[88.775697,23.221633],[88.786187,23.221529],[88.794197,23.224966],[88.800967,23.230754],[88.809545,23.236051],[88.822671,23.237963],[88.839621,23.23481],[88.909642,23.212434],[88.918066,23.208584],[88.926954,23.206517],[88.954239,23.207422],[88.959975,23.202693],[88.95982,23.194451],[88.954704,23.183806],[88.945868,23.174349],[88.919099,23.153859],[88.864787,23.100271],[88.8513,23.07513],[88.848716,23.023841],[88.839414,22.995368],[88.838794,22.975808],[88.842773,22.964568],[88.861738,22.942399],[88.872177,22.926767],[88.893468,22.879638],[88.905147,22.866435],[88.933103,22.858115],[88.944524,22.848012],[88.946798,22.834525],[88.945144,22.815094],[88.941217,22.795664],[88.936876,22.782331],[88.926231,22.767035],[88.914965,22.7544],[88.908144,22.740784],[88.910573,22.722593],[88.92251,22.693706],[88.92592,22.680839],[88.930003,22.658618],[88.942354,22.637482],[88.952017,22.611903],[88.95641,22.584979],[88.950312,22.561983],[88.927988,22.548134],[88.959045,22.536817],[88.970982,22.527928],[88.979974,22.490928],[88.998371,22.451241],[89.002505,22.427986],[89.000748,22.420131],[88.99217,22.406954],[88.989482,22.39667],[88.989586,22.386903],[89.001523,22.333677],[89.006949,22.321429],[89.023537,22.294816],[89.00912,22.285618],[89.018628,22.264689],[89.062295,22.211565],[89.070718,22.194822],[89.076196,22.17503],[89.078159,22.150845],[89.060693,22.130485],[89.060395,22.129869],[89.060313,22.130601],[89.043712,22.137397],[89.048595,22.122952],[89.045665,22.112047],[89.039887,22.100898],[89.036876,22.085598],[89.04005,22.069525],[89.054047,22.043647],[89.057384,22.031236],[89.065603,21.967108],[89.060883,21.938463],[89.036876,21.925116],[89.023123,21.931098],[89.013031,21.929429],[89.008067,21.920559],[89.009532,21.904608],[88.993012,21.912665],[88.96046,21.934312],[88.944672,21.938788],[88.937836,21.948717],[88.934581,21.969306],[88.928722,21.986558],[88.91391,21.986558],[88.90504,21.969428],[88.910818,21.946479],[88.924083,21.926337],[88.937836,21.91767],[88.951915,21.913886],[88.968272,21.904731],[88.99586,21.884182],[89.01588,21.853339],[89.030935,21.770453],[89.043712,21.733344],[89.047862,21.728013],[89.067882,21.709133],[89.082774,21.678209],[89.085216,21.674709],[89.088227,21.633734],[89.082693,21.617336],[89.06422,21.609198],[89.053233,21.609809],[89.044688,21.613511],[89.038829,21.619452],[89.036876,21.626899],[89.033946,21.633246],[89.027599,21.624579],[89.021658,21.611802],[89.019786,21.606106],[89.000255,21.60342],[88.975759,21.615912],[88.933849,21.643948],[88.896983,21.650133],[88.891612,21.65351],[88.886078,21.661811],[88.881602,21.672024],[88.872081,21.74901],[88.866059,21.766832],[88.858653,21.766832],[88.855724,21.748847],[88.841563,21.716254],[88.838227,21.701972],[88.842947,21.684149],[88.859874,21.652574],[88.858653,21.636542],[88.844249,21.622219],[88.823985,21.617255],[88.805837,21.62287],[88.797862,21.640204],[88.814789,21.653876],[88.81837,21.65762],[88.818533,21.665839],[88.816661,21.675035],[88.810883,21.691718],[88.804942,21.671861],[88.800466,21.661851],[88.7942,21.65762],[88.784028,21.655951],[88.779063,21.65119],[88.77711,21.643541],[88.776866,21.63345],[88.781749,21.614244],[88.791026,21.598863],[88.796641,21.584418],[88.790538,21.568264],[88.762462,21.555854],[88.727875,21.559882],[88.70753,21.578315],[88.722179,21.609198],[88.687999,21.678127],[88.684906,21.697211],[88.703624,21.810614],[88.698009,21.825507],[88.694509,21.83983],[88.714692,21.897854],[88.71697,21.951972],[88.722179,21.966132],[88.733165,21.9772],[88.746837,21.987128],[88.758311,21.999457],[88.763031,22.017279],[88.754649,22.037584],[88.717052,22.058051],[88.708507,22.072211],[88.714854,22.086982],[88.730154,22.103583],[88.763031,22.130561],[88.743907,22.12934],[88.726573,22.121161],[88.712169,22.109036],[88.701671,22.095852],[88.694835,22.081529],[88.692882,22.065863],[88.699474,22.053209],[88.718516,22.048041],[88.730724,22.037177],[88.723318,22.013088],[88.701671,21.97602],[88.698416,21.962592],[88.689952,21.94599],[88.678722,21.936672],[88.667003,21.945014],[88.656261,21.941067],[88.642589,21.940904],[88.63087,21.945461],[88.625987,21.955512],[88.627452,21.970404],[88.631684,21.979804],[88.646332,22.00023],[88.653494,22.018012],[88.652599,22.031806],[88.648774,22.046047],[88.64503,22.075141],[88.639496,22.097235],[88.639496,22.109524],[88.656993,22.151068],[88.674001,22.162055],[88.683116,22.184963],[88.679942,22.204413],[88.660167,22.205024],[88.661143,22.198961],[88.656016,22.183254],[88.649669,22.169094],[88.646332,22.167792],[88.644298,22.162299],[88.634939,22.144965],[88.63087,22.1258],[88.622081,22.116034],[88.619151,22.109524],[88.618337,22.102973],[88.619965,22.078315],[88.625499,22.059272],[88.625987,22.048041],[88.620372,22.029975],[88.60255,22.006415],[88.598643,21.990302],[88.600271,21.947211],[88.598399,21.929348],[88.567068,21.850816],[88.564626,21.832343],[88.56544,21.771186],[88.564626,21.766832],[88.581309,21.769436],[88.604177,21.778754],[88.624034,21.778022],[88.632823,21.750067],[88.630219,21.731757],[88.623383,21.710273],[88.612641,21.697496],[88.598643,21.70539],[88.591807,21.70539],[88.59962,21.637274],[88.595063,21.612128],[88.578136,21.62344],[88.578136,21.571682],[88.572276,21.557929],[88.55893,21.555569],[88.54477,21.561998],[88.536469,21.5751],[88.530284,21.564399],[88.529633,21.553371],[88.534434,21.542914],[88.543956,21.534084],[88.51295,21.524644],[88.493907,21.534817],[88.487966,21.556545],[88.495616,21.581855],[88.502126,21.589342],[88.5088,21.594387],[88.514008,21.600816],[88.516124,21.612616],[88.516612,21.62641],[88.518809,21.639146],[88.52296,21.649888],[88.529633,21.65762],[88.509532,21.712307],[88.504893,21.741523],[88.512706,21.763414],[88.532888,21.795315],[88.531016,21.824123],[88.51588,21.850816],[88.495616,21.876695],[88.514659,21.916205],[88.514985,21.937201],[88.495616,21.951809],[88.499848,21.933661],[88.492361,21.922024],[88.481212,21.909898],[88.474457,21.890326],[88.477061,21.871812],[88.492035,21.837144],[88.495616,21.818671],[88.4935,21.805162],[88.488292,21.803656],[88.481456,21.805162],[88.474457,21.800971],[88.468272,21.777248],[88.457693,21.758857],[88.45338,21.741767],[88.452159,21.722805],[88.454763,21.70539],[88.468598,21.677151],[88.472179,21.663275],[88.468272,21.643948],[88.456309,21.62401],[88.441905,21.616156],[88.426117,21.611029],[88.409679,21.59927],[88.393077,21.600246],[88.383556,21.631415],[88.382823,21.671332],[88.392589,21.698554],[88.380626,21.696194],[88.364513,21.686957],[88.355724,21.684963],[88.346202,21.688625],[88.340668,21.697496],[88.336436,21.708726],[88.331228,21.719062],[88.326345,21.711086],[88.324718,21.701361],[88.327403,21.691107],[88.345714,21.6706],[88.349457,21.660956],[88.348806,21.650295],[88.34547,21.636542],[88.33546,21.61579],[88.321788,21.605658],[88.309744,21.610175],[88.304454,21.63345],[88.302013,21.745185],[88.298188,21.764106],[88.289806,21.780219],[88.273123,21.797919],[88.261567,21.798651],[88.264171,21.775295],[88.295421,21.676581],[88.297048,21.653876],[88.294444,21.642808],[88.28419,21.621243],[88.283376,21.609198],[88.287608,21.600287],[88.300629,21.589342],[88.304454,21.581855],[88.305837,21.571682],[88.303722,21.568793],[88.297862,21.566555],[88.28712,21.558295],[88.278982,21.555162],[88.266124,21.55386],[88.254405,21.554674],[88.249278,21.558295],[88.245942,21.579901],[88.237478,21.601711],[88.224376,21.613023],[88.208263,21.602973],[88.189464,21.641791],[88.181895,21.665229],[88.180919,21.684963],[88.19044,21.704088],[88.203461,21.724351],[88.21046,21.74726],[88.201427,21.774319],[88.209727,21.78856],[88.203787,21.805406],[88.154063,21.888088],[88.156423,21.897854],[88.159434,21.906155],[88.146739,21.959215],[88.149913,21.976386],[88.156261,21.990871],[88.164317,22.003119],[88.206798,22.053371],[88.222423,22.077948],[88.212738,22.100043],[88.20338,22.15176],[88.198009,22.167792],[88.165294,22.185004],[88.118419,22.200181],[88.081309,22.217353],[88.077322,22.240424],[88.059744,22.229478],[88.043468,22.224758],[88.027029,22.227851],[88.009044,22.240424],[87.985118,22.265937],[87.972667,22.283189],[87.967459,22.298489],[87.964203,22.319281],[87.950694,22.356187],[87.94752,22.373847],[87.946137,22.394924],[87.94044,22.413031],[87.927989,22.424221],[87.906586,22.42475],[87.906586,22.418606],[87.922862,22.397773],[87.935802,22.35517],[87.94752,22.277655],[87.95281,22.262437],[87.965343,22.244818],[87.991954,22.215888],[88.008474,22.204901],[88.025401,22.200914],[88.057384,22.198879],[88.09547,22.19123],[88.132579,22.179145],[88.160981,22.156562],[88.173513,22.116889],[88.164317,22.089789],[88.140636,22.060126],[88.111176,22.034857],[88.084727,22.020697],[88.048595,22.020738],[88.043142,22.017279],[88.045177,22.006537],[88.049001,21.995429],[88.050792,21.985012],[88.046886,21.97602],[88.0324,21.95718],[87.983653,21.854193],[87.97047,21.836493],[87.957774,21.828925],[87.948009,21.825385],[87.909028,21.798814],[87.902192,21.79682],[87.899181,21.794827],[87.895681,21.789374],[87.894786,21.778754],[87.892914,21.774319],[87.867198,21.7508],[87.833995,21.729315],[87.755707,21.691718],[87.703787,21.655504],[87.683849,21.650133],[87.6421,21.652086],[87.621349,21.650621],[87.477387,21.613593],[87.468284,21.63005],[87.436555,21.675628],[87.43087,21.689322],[87.427873,21.703663],[87.42746,21.718184],[87.431284,21.746451],[87.431594,21.761592],[87.424463,21.774744],[87.408546,21.786138],[87.275014,21.813966],[87.251967,21.822105],[87.239668,21.832595],[87.231503,21.848098],[87.225612,21.863575],[87.219617,21.884995],[87.214656,21.92414],[87.206801,21.941426],[87.190678,21.956205],[87.155435,21.972096],[87.136625,21.977238],[87.120812,21.976928],[87.112957,21.971398],[87.106239,21.961735],[87.100761,21.951296],[87.094147,21.942201],[87.085155,21.93662],[87.076163,21.932899],[87.069135,21.927577],[87.063451,21.918171],[87.059213,21.90719],[87.047845,21.902178],[87.031412,21.907991],[87.004953,21.936982],[86.995858,21.957032],[86.993688,21.972483],[87.004747,22.000053],[87.005573,22.004833],[87.005677,22.01398],[87.004747,22.02571],[87.000922,22.045218],[86.999372,22.049895],[86.996272,22.055476],[86.987383,22.066586],[86.97126,22.079531],[86.943768,22.096404],[86.892712,22.116583],[86.876589,22.119813],[86.861396,22.120511],[86.848167,22.119296],[86.833904,22.121751],[86.781608,22.155185],[86.766725,22.167717],[86.749052,22.174306],[86.732102,22.178156],[86.715462,22.183504],[86.70461,22.188698],[86.686523,22.218024],[86.693344,22.224329],[86.706677,22.23301],[86.723937,22.242157],[86.728691,22.246472],[86.733859,22.24673],[86.750602,22.240503],[86.761867,22.240607],[86.767035,22.246704],[86.769205,22.257376],[86.767758,22.277349],[86.772306,22.283911],[86.780264,22.286702],[86.795767,22.285229],[86.833904,22.28833],[86.849614,22.294428],[86.852508,22.302024],[86.848374,22.310086],[86.831114,22.325692],[86.816644,22.336389],[86.803312,22.348378],[86.797731,22.365379],[86.79587,22.398659],[86.789876,22.415635],[86.773753,22.432352],[86.760937,22.44124],[86.729828,22.456097],[86.72311,22.461963],[86.718149,22.469404],[86.713602,22.482943],[86.712258,22.492762],[86.712051,22.498162],[86.712258,22.499816],[86.712568,22.500823],[86.713498,22.502167],[86.716289,22.505578],[86.721766,22.505888],[86.7413,22.502374],[86.750912,22.502684],[86.757113,22.505836],[86.759387,22.512089],[86.758973,22.518677],[86.757216,22.526429],[86.749362,22.5448],[86.74006,22.55821],[86.726521,22.571568],[86.702336,22.585883],[86.685386,22.590792],[86.639601,22.591541],[86.625028,22.595753],[86.611386,22.604254],[86.601257,22.619033],[86.594642,22.632546],[86.586891,22.680683],[86.524362,22.729414],[86.498731,22.743134],[86.490773,22.744064],[86.482608,22.742411],[86.469585,22.742824],[86.452325,22.745356],[86.399099,22.784966],[86.394758,22.799306],[86.395585,22.812665],[86.400236,22.839356],[86.400649,22.862998],[86.401889,22.872868],[86.411398,22.894882],[86.414808,22.905941],[86.413878,22.915423],[86.410261,22.926249],[86.410468,22.935784],[86.414808,22.943458],[86.441473,22.964025],[86.452842,22.968908],[86.467208,22.972474],[86.483021,22.974179],[86.495217,22.976944],[86.501108,22.97927],[86.505862,22.98405],[86.506482,22.988339],[86.503072,22.992034],[86.49501,22.994979],[86.47775,22.995522],[86.468345,22.998467],[86.464004,22.99932],[86.462867,23.00025],[86.462144,23.000844],[86.459043,23.00255],[86.450465,23.004203],[86.314039,23.008596],[86.260503,23.01981],[86.218025,23.019887],[86.207586,23.013841],[86.19291,23.007743],[86.178027,23.005728],[86.163558,23.011051],[86.142474,23.028259],[86.020207,23.152592],[86.001914,23.165098],[85.982587,23.175046],[85.959952,23.179128],[85.942486,23.180343],[85.900111,23.166364],[85.888432,23.163083],[85.885538,23.166338],[85.880267,23.177009],[85.8782,23.188792],[85.871172,23.210702],[85.839133,23.240623],[85.829831,23.260803],[85.832725,23.283127],[85.843991,23.307027],[85.85939,23.3293],[85.87479,23.346766],[85.880681,23.356301],[85.883368,23.36785],[85.885022,23.391131],[85.889052,23.402577],[85.89422,23.409838],[85.89484,23.416478],[85.885022,23.425883],[85.87851,23.428053],[85.847194,23.425883],[85.84151,23.430095],[85.836963,23.439241],[85.830658,23.448388],[85.823113,23.453866],[85.82239,23.470196],[85.82549,23.479317],[85.828901,23.483063],[85.849468,23.493192],[85.903005,23.502674],[85.919025,23.501796],[85.942486,23.502855],[85.996436,23.511511],[86.004808,23.514224],[86.010595,23.518565],[86.015866,23.529313],[86.014419,23.538434],[86.001397,23.572334],[86.000363,23.579517],[86.002224,23.585641],[86.007288,23.593625],[86.015556,23.60179],[86.024651,23.606751],[86.039121,23.607164],[86.056381,23.602513],[86.098342,23.578742],[86.129141,23.578354],[86.134515,23.558872],[86.12356,23.514224],[86.121493,23.500891],[86.1217,23.499264],[86.122423,23.497197],[86.126454,23.492468],[86.134205,23.488282],[86.149088,23.486577],[86.157666,23.483812],[86.184848,23.472263],[86.203865,23.461204],[86.214304,23.449163],[86.227946,23.443246],[86.242829,23.443582],[86.273008,23.453737],[86.302464,23.478076],[86.313729,23.484562],[86.323548,23.494096],[86.328095,23.497843],[86.329749,23.49991],[86.330679,23.500607],[86.332436,23.502674],[86.336467,23.508436],[86.340188,23.518332],[86.341221,23.529908],[86.340911,23.542388],[86.342461,23.554144],[86.348352,23.567942],[86.360962,23.582075],[86.379875,23.598017],[86.410468,23.616569],[86.458527,23.638609],[86.542449,23.66021],[86.58317,23.677392],[86.646112,23.6969],[86.764038,23.71478],[86.799798,23.725529],[86.817885,23.750127],[86.822432,23.776895],[86.815921,23.796377],[86.811373,23.806532],[86.81003,23.812552],[86.80972,23.818081],[86.815094,23.836685],[86.821915,23.848932],[86.827186,23.855831],[86.846307,23.868104],[86.855505,23.878956],[86.857675,23.882909],[86.859639,23.888155],[86.861396,23.895441],[86.8646,23.902159],[86.869768,23.908386],[86.877209,23.913063],[86.889818,23.912003],[86.907285,23.905776],[86.958961,23.873091],[86.979942,23.863867],[86.996272,23.862084],[87.007847,23.861877],[87.015599,23.859603],[87.036993,23.839114],[87.056733,23.825549],[87.079677,23.815213],[87.131871,23.803121],[87.166287,23.810227],[87.170318,23.823533],[87.168457,23.829424],[87.16329,23.83777],[87.146133,23.852705],[87.139415,23.859939],[87.137245,23.867742],[87.139312,23.873323],[87.144686,23.878129],[87.154298,23.879938],[87.165047,23.878465],[87.186027,23.872781],[87.196673,23.871282],[87.205354,23.868879],[87.213003,23.862911],[87.225095,23.846297],[87.232536,23.845832],[87.241218,23.850844],[87.246489,23.864952],[87.248246,23.875959],[87.247626,23.897508],[87.250416,23.905544],[87.255791,23.909988],[87.267263,23.909833],[87.275634,23.915543],[87.282662,23.927945],[87.285143,23.940684],[87.282972,23.954869],[87.276151,23.966134],[87.256721,23.980707],[87.25238,23.987063],[87.25145,23.993213],[87.25145,24.000499],[87.247109,24.00577],[87.231296,24.019206],[87.225715,24.027345],[87.227162,24.033701],[87.235533,24.040419],[87.254757,24.046672],[87.301576,24.056852],[87.309017,24.056206],[87.316149,24.05109],[87.32173,24.042667],[87.32452,24.030782],[87.32545,24.017527],[87.328138,24.007605],[87.332168,24.002747],[87.33806,24.001843],[87.397177,24.023392],[87.417641,24.023934],[87.44658,24.0167],[87.458156,24.019826],[87.472005,24.034063],[87.48172,24.040187],[87.488748,24.046853],[87.491228,24.055922],[87.489988,24.081579],[87.492572,24.097909],[87.486888,24.124135],[87.488541,24.132429],[87.49774,24.13832],[87.506628,24.140232],[87.517273,24.138914],[87.529676,24.132972],[87.55169,24.1138],[87.563265,24.112069],[87.57205,24.117572],[87.581869,24.136537],[87.58683,24.149224],[87.58931,24.170825],[87.594065,24.178447],[87.605433,24.18209],[87.636129,24.178163],[87.650909,24.17948],[87.661554,24.186198],[87.663414,24.200409],[87.652769,24.21891],[87.645948,24.223483],[87.6414,24.223431],[87.634889,24.220537],[87.628998,24.219607],[87.624554,24.22294],[87.623313,24.230227],[87.623313,24.239994],[87.621866,24.250665],[87.623727,24.260483],[87.631478,24.269372],[87.652872,24.276891],[87.666102,24.280198],[87.691836,24.296553],[87.720568,24.317792],[87.733798,24.334691],[87.775759,24.419311],[87.77979,24.435486],[87.778446,24.446002],[87.775345,24.45551],[87.776276,24.464295],[87.78041,24.471788],[87.789298,24.479901],[87.794156,24.485767],[87.798497,24.494526],[87.80046,24.500779],[87.800047,24.50822],[87.797256,24.515041],[87.788575,24.52641],[87.787128,24.533826],[87.790848,24.562455],[87.788988,24.56956],[87.782373,24.574288],[87.771728,24.578293],[87.759843,24.581497],[87.752401,24.587233],[87.750851,24.593331],[87.757465,24.5993],[87.767697,24.601599],[87.782167,24.599817],[87.792915,24.596587],[87.803147,24.591858],[87.811932,24.586536],[87.822991,24.581394],[87.834877,24.579146],[87.849243,24.579534],[87.864229,24.582712],[87.877251,24.58868],[87.888,24.597362],[87.894821,24.604416],[87.899989,24.620952],[87.888,24.626921],[87.881592,24.626998],[87.873841,24.629789],[87.87012,24.634698],[87.873427,24.644258],[87.880662,24.65002],[87.890791,24.65586],[87.895338,24.661828],[87.895442,24.670303],[87.88893,24.680974],[87.883039,24.687124],[87.879008,24.694384],[87.877458,24.702963],[87.876838,24.716192],[87.874771,24.726088],[87.86795,24.736862],[87.861128,24.750996],[87.857924,24.755285],[87.853274,24.758437],[87.830433,24.761383],[87.823301,24.763605],[87.81741,24.767352],[87.812449,24.775697],[87.811002,24.785542],[87.81586,24.794663],[87.823715,24.796885],[87.830743,24.794818],[87.841181,24.788306],[87.848623,24.787092],[87.854204,24.789702],[87.856684,24.796058],[87.857924,24.800528],[87.861955,24.851532],[87.866709,24.86241],[87.879112,24.878688],[87.881902,24.891969],[87.880869,24.915508],[87.877458,24.938866],[87.858855,25.008887],[87.849553,25.030643],[87.844075,25.041547],[87.8356,25.047102],[87.79736,25.083741],[87.792605,25.086583],[87.786921,25.087539],[87.78103,25.08989],[87.776276,25.096789],[87.775139,25.1033],[87.776482,25.117925],[87.776276,25.12472],[87.770385,25.147949],[87.768731,25.15924],[87.769454,25.173141],[87.773278,25.18451],[87.779066,25.191977],[87.78351,25.200297],[87.783717,25.214094],[87.8171,25.246676],[87.838081,25.27776],[87.839011,25.288302],[87.829192,25.302151],[87.821234,25.322873],[87.81679,25.341115],[87.813689,25.347342],[87.806868,25.35499],[87.798807,25.365946],[87.796326,25.368116],[87.792709,25.369124],[87.788885,25.368917],[87.782063,25.366721],[87.778239,25.366204],[87.774829,25.366979],[87.772038,25.368969],[87.770385,25.371682],[87.766664,25.381965],[87.763357,25.388735],[87.761186,25.391474],[87.758396,25.393515],[87.74775,25.397391],[87.74496,25.399458],[87.743823,25.402636],[87.74558,25.406873],[87.749714,25.411317],[87.759533,25.417906],[87.764183,25.42235],[87.766974,25.426381],[87.767904,25.429714],[87.768317,25.433177],[87.768007,25.436277],[87.786094,25.446122],[87.819374,25.457439],[87.849966,25.471107],[87.863195,25.4786],[87.869707,25.486067],[87.878182,25.499762],[87.878492,25.500072],[87.878802,25.500356],[87.880352,25.501286],[87.88552,25.503663],[87.922623,25.514438],[87.94288,25.525367],[87.9558,25.534075],[87.97492,25.528313],[87.988666,25.518288],[87.990216,25.514593],[87.990526,25.507694],[88.005822,25.501209],[88.067421,25.49108],[88.06525,25.506531],[88.06494,25.519864],[88.06277,25.524592],[88.058946,25.529915],[88.050471,25.537511],[88.04613,25.542627],[88.043133,25.547097],[88.044063,25.556916],[88.052124,25.584563],[88.056775,25.614122],[88.056672,25.621279],[88.055535,25.627428],[88.050471,25.64567],[88.04644,25.668873],[88.042823,25.678149],[88.032901,25.691326],[88.005099,25.710808],[87.94257,25.735329],[87.932235,25.751297],[87.910531,25.76512],[87.904123,25.773311],[87.897509,25.786566],[87.892651,25.804188],[87.88707,25.813308],[87.882419,25.81876],[87.878078,25.822558],[87.865056,25.843901],[87.854927,25.849844],[87.824335,25.86284],[87.805421,25.873666],[87.800977,25.878782],[87.79829,25.883123],[87.79736,25.886999],[87.796119,25.890487],[87.794466,25.893665],[87.789195,25.902373],[87.787955,25.906352],[87.787438,25.911675],[87.789505,25.919168],[87.793226,25.923379],[87.80077,25.926196],[87.811002,25.928547],[87.814413,25.931802],[87.8171,25.937073],[87.824541,25.966296],[87.828366,25.975443],[87.829916,25.986579],[87.828882,25.999964],[87.828986,26.000119],[87.828986,26.000429],[87.831363,26.010557],[87.839424,26.022314],[87.86733,26.049185],[87.936679,26.099002],[87.970269,26.138302],[87.979364,26.145795],[87.985565,26.146983],[87.992387,26.146828],[87.999415,26.146027],[88.006546,26.146906],[88.016468,26.150885],[88.038068,26.171116],[88.047474,26.177111],[88.067731,26.18512],[88.079823,26.19282],[88.09791,26.211114],[88.11858,26.226487],[88.154444,26.265426],[88.167466,26.277182],[88.180489,26.285528],[88.208911,26.293589],[88.220073,26.299454],[88.251079,26.326765],[88.263688,26.332708],[88.276504,26.334904],[88.292523,26.335137],[88.297174,26.336222],[88.300171,26.338935],[88.302445,26.343896],[88.303892,26.351751],[88.303685,26.359968],[88.299551,26.368804],[88.292213,26.376452],[88.278674,26.383558],[88.25945,26.390844],[88.254489,26.396038],[88.253766,26.403582],[88.257797,26.410869],[88.263998,26.415675],[88.27423,26.420842],[88.278364,26.423685],[88.282291,26.428439],[88.278674,26.435002],[88.270819,26.444226],[88.237436,26.474638],[88.227824,26.481459],[88.216456,26.484844],[88.208704,26.488694],[88.199609,26.49598],[88.195268,26.50014],[88.195268,26.500243],[88.194958,26.501483],[88.196198,26.51262],[88.20581,26.539724],[88.203433,26.547191],[88.194028,26.549517],[88.150206,26.535306],[88.130983,26.531197],[88.121888,26.5305],[88.104628,26.535435],[88.087136,26.5391],[88.101681,26.581944],[88.14664,26.661216],[88.163383,26.705141],[88.167517,26.725037],[88.169067,26.744002],[88.167827,26.762915],[88.159042,26.802551],[88.155321,26.845598],[88.151394,26.862806],[88.142816,26.878412],[88.12044,26.90885],[88.11181,26.924301],[88.096824,26.959337],[88.076877,26.99179],[88.055948,27.018042],[88.042822,27.028946],[88.027371,27.035353],[88.009491,27.045637],[87.9913,27.081501],[87.975488,27.095143],[87.970733,27.10274],[87.969183,27.110801],[87.970837,27.119224],[87.985461,27.14837],[87.989337,27.218391],[88.004663,27.249163],[88.023186,27.242446],[88.036208,27.22932],[88.069591,27.209037],[88.077343,27.198831],[88.081167,27.1894],[88.081993,27.169582],[88.084474,27.159428],[88.088815,27.15165],[88.100597,27.143382],[88.118167,27.138499],[88.148553,27.137853],[88.193408,27.143537],[88.233095,27.137104],[88.336552,27.098966],[88.343166,27.091525],[88.34854,27.087959],[88.357429,27.085117],[88.371692,27.084574],[88.403628,27.090827],[88.423988,27.099897],[88.447656,27.114495],[88.518039,27.176223],[88.542327,27.178083],[88.613537,27.168135],[88.66449,27.173355],[88.671725,27.17121],[88.693326,27.155113],[88.719371,27.146199],[88.73291,27.148937],[88.733082,27.148972]]],[[[88.872895,21.595526],[88.88852,21.589545],[88.902029,21.580268],[88.911306,21.566881],[88.91391,21.548407],[88.90797,21.530707],[88.895763,21.528469],[88.879731,21.529975],[88.862478,21.523586],[88.838715,21.531928],[88.830821,21.577379],[88.841319,21.614],[88.872895,21.595526]]],[[[88.050548,21.70539],[88.090017,21.808661],[88.119314,21.859524],[88.146739,21.869859],[88.167003,21.765448],[88.163422,21.705471],[88.132579,21.684963],[88.144379,21.657782],[88.146007,21.643744],[88.139415,21.630316],[88.130056,21.625922],[88.1185,21.627672],[88.091563,21.636542],[88.063487,21.636664],[88.051768,21.641588],[88.043142,21.65762],[88.042247,21.668158],[88.043956,21.680854],[88.050548,21.70539]]],[[[88.636241,21.921373],[88.650157,21.927436],[88.663259,21.921291],[88.670584,21.907416],[88.667003,21.890326],[88.655284,21.866604],[88.649181,21.842353],[88.646332,21.787909],[88.636241,21.79267],[88.59962,21.803656],[88.591807,21.804389],[88.590505,21.812893],[88.584972,21.826606],[88.584321,21.835761],[88.586274,21.843004],[88.598643,21.869859],[88.616466,21.897935],[88.636241,21.921373]]],[[[88.080903,21.849351],[88.072276,21.856757],[88.071056,21.873603],[88.073904,21.892157],[88.077322,21.904608],[88.084727,21.921576],[88.094249,21.937893],[88.105724,21.947577],[88.118907,21.945014],[88.132579,21.920478],[88.125011,21.888658],[88.104991,21.861151],[88.080903,21.849351]]]]}},{"type":"Feature","properties":{"id":"IN-OR","country":"IN","name_en":"Odisha"},"geometry":{"type":"Polygon","coordinates":[[[87.477387,21.613593],[87.468761,21.611396],[87.404959,21.586656],[87.341807,21.562405],[87.293468,21.553656],[87.256114,21.561998],[87.245942,21.556586],[87.235199,21.554511],[87.211436,21.554592],[87.200938,21.551988],[87.113048,21.507961],[87.063731,21.475002],[86.917654,21.327379],[86.866954,21.256049],[86.83725,21.174709],[86.844005,21.082221],[86.952159,20.849107],[86.965668,20.805976],[86.953868,20.780585],[86.93629,20.787502],[86.916515,20.788072],[86.878754,20.780585],[86.889334,20.764472],[86.910655,20.756415],[86.957205,20.753241],[86.979991,20.755561],[86.986583,20.751858],[86.994884,20.738959],[87.000011,20.728217],[87.001801,20.71898],[86.998709,20.711127],[86.988617,20.70425],[86.975759,20.710679],[86.961192,20.712836],[86.948253,20.709052],[86.940196,20.697984],[86.951915,20.697008],[86.961192,20.695054],[86.968516,20.691148],[86.974294,20.684394],[86.9817,20.68537],[86.986501,20.684394],[86.990245,20.679999],[86.994884,20.670722],[87.019379,20.680365],[87.033376,20.690172],[87.043224,20.697984],[87.027517,20.679674],[87.003591,20.65705],[86.976248,20.637885],[86.923188,20.621731],[86.774181,20.511949],[86.751475,20.489163],[86.733897,20.462226],[86.72462,20.431952],[86.72047,20.368476],[86.741954,20.379543],[86.756358,20.393744],[86.769786,20.400702],[86.788748,20.390123],[86.788259,20.402818],[86.789806,20.4147],[86.796153,20.437323],[86.809825,20.415107],[86.7942,20.37816],[86.768321,20.343451],[86.751475,20.32807],[86.739268,20.324205],[86.719737,20.31509],[86.701671,20.303778],[86.693696,20.293931],[86.701671,20.284654],[86.719737,20.291734],[86.754649,20.314439],[86.717459,20.286933],[86.628184,20.235256],[86.583832,20.218207],[86.53419,20.206122],[86.511485,20.197455],[86.495128,20.184068],[86.490408,20.174058],[86.478852,20.12934],[86.468516,20.10928],[86.467133,20.094672],[86.41505,20.036322],[86.391449,20.020209],[86.396739,20.009955],[86.404145,20.002631],[86.414073,19.998847],[86.42628,19.999172],[86.397227,19.982856],[86.348399,20.008857],[86.275401,20.067369],[86.231293,20.064887],[86.209158,20.066636],[86.199718,20.077948],[86.195974,20.080308],[86.173025,20.1022],[86.168468,20.113186],[86.163097,20.134833],[86.158702,20.143134],[86.152517,20.143134],[86.14503,20.122016],[86.154307,20.089993],[86.158702,20.081041],[86.167735,20.072943],[86.187755,20.063666],[86.213715,20.042426],[86.230235,20.035305],[86.268565,20.026435],[86.273448,20.02619],[86.284679,20.027493],[86.289073,20.026435],[86.293224,20.02143],[86.294119,20.015692],[86.2942,20.010403],[86.295909,20.006578],[86.302908,19.999091],[86.308116,19.992092],[86.314952,19.986884],[86.326671,19.984849],[86.341563,19.979885],[86.356456,19.970404],[86.372406,19.964993],[86.268565,19.910346],[86.111583,19.855699],[86.089041,19.844224],[86.07838,19.843573],[86.066742,19.851996],[86.056651,19.856879],[86.04656,19.852525],[86.037934,19.845282],[86.032074,19.841498],[86.01352,19.839057],[85.888845,19.802965],[85.846365,19.795844],[85.808604,19.773383],[85.788829,19.765692],[85.778087,19.764635],[85.744395,19.765692],[85.734386,19.763617],[85.714854,19.754218],[85.684581,19.747748],[85.624278,19.718573],[85.625987,19.722886],[85.635997,19.72663],[85.63795,19.731635],[85.614268,19.727932],[85.549164,19.690619],[85.480479,19.666327],[85.456798,19.663316],[85.44988,19.666693],[85.44752,19.674628],[85.446788,19.690619],[85.443126,19.69245],[85.43686,19.691352],[85.430431,19.691718],[85.42628,19.697455],[85.427013,19.704088],[85.431651,19.704901],[85.43686,19.704657],[85.439301,19.707994],[85.450857,19.716295],[85.47755,19.723863],[85.521983,19.739081],[85.525564,19.734036],[85.523448,19.728705],[85.518891,19.721584],[85.514985,19.711127],[85.558849,19.738105],[85.576508,19.745836],[85.567638,19.7508],[85.563243,19.756903],[85.564138,19.76439],[85.570323,19.773179],[85.567149,19.791653],[85.570323,19.875637],[85.55714,19.881781],[85.514985,19.889309],[85.476817,19.901028],[85.463552,19.902899],[85.440115,19.896226],[85.41627,19.879788],[85.374522,19.837795],[85.319591,19.793647],[85.30421,19.79267],[85.290294,19.789944],[85.278087,19.78559],[85.268077,19.780015],[85.246837,19.762641],[85.220958,19.736029],[85.20338,19.707261],[85.206554,19.683783],[85.189952,19.670966],[85.175141,19.636908],[85.165538,19.6258],[85.150157,19.613471],[85.140147,19.596584],[85.139334,19.579779],[85.151378,19.567776],[85.151378,19.560289],[85.139171,19.557074],[85.122895,19.549018],[85.108897,19.538967],[85.102875,19.529608],[85.104503,19.514879],[85.108735,19.506781],[85.115489,19.507473],[85.124034,19.519355],[85.128754,19.509508],[85.130219,19.498725],[85.128673,19.487982],[85.124034,19.478339],[85.135753,19.481594],[85.141775,19.487128],[85.145763,19.493476],[85.151378,19.498847],[85.162446,19.503485],[85.171153,19.504462],[85.178559,19.504299],[85.185557,19.505683],[85.202891,19.517157],[85.201915,19.527086],[85.1963,19.538479],[85.199229,19.554104],[85.206309,19.548],[85.214529,19.547268],[85.223643,19.549954],[85.233246,19.554104],[85.203787,19.570502],[85.193044,19.57392],[85.193044,19.580797],[85.212901,19.581122],[85.223643,19.590237],[85.232595,19.601549],[85.247569,19.60871],[85.247569,19.614936],[85.241873,19.617011],[85.237315,19.620551],[85.234386,19.625678],[85.233246,19.632554],[85.236339,19.635321],[85.247813,19.653144],[85.247569,19.65648],[85.260753,19.656073],[85.309093,19.642239],[85.350597,19.677639],[85.36378,19.678046],[85.37436,19.674709],[85.383067,19.676093],[85.391449,19.690619],[85.399181,19.679145],[85.403168,19.671291],[85.404959,19.661933],[85.405284,19.645941],[85.402192,19.643988],[85.388682,19.638251],[85.384613,19.635972],[85.382172,19.63109],[85.380382,19.619615],[85.37794,19.614936],[85.368419,19.6081],[85.352306,19.599433],[85.336762,19.596096],[85.330089,19.604967],[85.326427,19.618801],[85.31837,19.619534],[85.311046,19.6105],[85.309093,19.595038],[85.303477,19.59748],[85.293793,19.599555],[85.288422,19.601264],[85.302501,19.586656],[85.305837,19.580146],[85.302908,19.57392],[85.330577,19.576402],[85.576508,19.690619],[85.540294,19.669582],[85.46339,19.631049],[85.380219,19.593817],[85.336681,19.575181],[85.285411,19.536282],[85.240571,19.518052],[85.180431,19.475002],[85.069509,19.372138],[84.99586,19.32331],[84.872081,19.219875],[84.791026,19.120592],[84.777761,19.116197],[84.774185,19.139969],[84.770774,19.146868],[84.763023,19.156376],[84.754651,19.159658],[84.743696,19.161441],[84.708349,19.161673],[84.6945,19.160588],[84.685508,19.157565],[84.681374,19.153301],[84.683028,19.147126],[84.686128,19.140667],[84.687989,19.134672],[84.689436,19.125525],[84.687059,19.11196],[84.681064,19.100514],[84.669695,19.090153],[84.66153,19.090256],[84.65688,19.093641],[84.651919,19.098369],[84.64148,19.10054],[84.566963,19.06633],[84.55611,19.059276],[84.525208,19.032973],[84.513632,19.029795],[84.50092,19.030286],[84.489241,19.032534],[84.475599,19.033438],[84.469707,19.030647],[84.467227,19.02579],[84.468881,19.018684],[84.473945,19.007057],[84.474358,19.001114],[84.474255,19.000391],[84.46609,18.986774],[84.4633,18.979617],[84.462576,18.973157],[84.46423,18.968222],[84.466917,18.964295],[84.468777,18.959722],[84.467227,18.953624],[84.462576,18.946312],[84.427229,18.904402],[84.418031,18.901508],[84.409143,18.901921],[84.398187,18.903756],[84.391366,18.90094],[84.385888,18.894635],[84.376793,18.86704],[84.368835,18.849392],[84.351782,18.827766],[84.336072,18.8165],[84.317779,18.80924],[84.2537,18.805338],[84.18218,18.788027],[84.162129,18.785314],[84.153138,18.787717],[84.139185,18.798],[84.130193,18.801824],[84.103632,18.802651],[84.09309,18.806113],[84.083788,18.813503],[84.071386,18.81787],[84.054642,18.818438],[83.997798,18.806992],[83.949533,18.808516],[83.902404,18.805648],[83.897133,18.808361],[83.889174,18.814795],[83.88504,18.817198],[83.881113,18.820428],[83.878219,18.824794],[83.872948,18.834845],[83.867057,18.843424],[83.860029,18.850943],[83.856928,18.85518],[83.854241,18.860038],[83.850107,18.871329],[83.839358,18.901921],[83.829023,18.915047],[83.825922,18.920473],[83.817964,18.96197],[83.801841,18.999952],[83.780241,19.009253],[83.771869,19.009693],[83.763704,19.009331],[83.756263,19.006282],[83.749545,19.001114],[83.748925,19.000417],[83.746754,18.995017],[83.744997,18.98866],[83.744687,18.980599],[83.746754,18.971762],[83.749131,18.965044],[83.751095,18.957448],[83.751922,18.948172],[83.748615,18.935356],[83.744067,18.930085],[83.738073,18.929284],[83.731871,18.933806],[83.725774,18.943986],[83.706447,19.001424],[83.701486,19.011889],[83.68712,19.033128],[83.646399,19.076097],[83.638337,19.087621],[83.623661,19.115009],[83.612809,19.129789],[83.604747,19.131339],[83.598443,19.127205],[83.593585,19.117257],[83.589554,19.104881],[83.587074,19.092013],[83.581183,19.080412],[83.572605,19.069947],[83.553898,19.064263],[83.545836,19.058579],[83.539635,19.051654],[83.531367,19.027624],[83.524856,19.016049],[83.518344,19.010003],[83.508836,19.006747],[83.503151,19.008788],[83.499121,19.016049],[83.493953,19.039872],[83.490129,19.051551],[83.484238,19.06093],[83.47566,19.06894],[83.464187,19.073461],[83.457986,19.069405],[83.456126,19.061085],[83.466358,19.027082],[83.465738,19.018684],[83.462947,19.011837],[83.450338,19.002871],[83.449408,19.001424],[83.449098,19.000856],[83.448995,19.000494],[83.453645,18.992355],[83.455506,18.986852],[83.454679,18.976904],[83.449615,18.968455],[83.435455,18.961892],[83.423673,18.964347],[83.402279,18.979539],[83.391427,18.985767],[83.367553,18.992769],[83.355564,18.999125],[83.352876,19.001089],[83.341404,19.004577],[83.331482,19.004034],[83.322387,19.002329],[83.313706,18.999719],[83.299856,18.99158],[83.298513,18.982847],[83.299546,18.976516],[83.303887,18.970755],[83.309675,18.965845],[83.314119,18.960626],[83.31815,18.952616],[83.323731,18.935201],[83.326831,18.929698],[83.347295,18.904712],[83.352256,18.901534],[83.35639,18.90032],[83.361351,18.900216],[83.366932,18.899519],[83.371997,18.898201],[83.374787,18.895049],[83.378198,18.88368],[83.380575,18.878693],[83.384916,18.874843],[83.390187,18.872595],[83.394218,18.869417],[83.395251,18.862828],[83.392047,18.85332],[83.380058,18.843114],[83.366002,18.83668],[83.344505,18.830763],[83.329209,18.822236],[83.297479,18.799189],[83.272571,18.776658],[83.256758,18.765341],[83.201671,18.741621],[83.190819,18.742861],[83.181931,18.748882],[83.172732,18.758468],[83.161467,18.763894],[83.150408,18.766348],[83.137386,18.764436],[83.126534,18.758158],[83.108964,18.741983],[83.097491,18.727539],[83.075477,18.690772],[83.065039,18.67638],[83.053256,18.663616],[83.028142,18.640852],[83.025868,18.636124],[83.025351,18.629354],[83.025558,18.621577],[83.024008,18.612172],[83.021217,18.603387],[83.01977,18.595299],[83.02163,18.587703],[83.036823,18.566128],[83.044265,18.547731],[83.047572,18.543313],[83.053773,18.542279],[83.070516,18.544243],[83.076097,18.544166],[83.079508,18.54184],[83.081989,18.538869],[83.083539,18.525329],[83.036513,18.469493],[83.032999,18.461897],[83.029692,18.450373],[83.033723,18.444714],[83.038994,18.439314],[83.042714,18.430116],[83.043851,18.417042],[83.0392,18.390351],[83.030002,18.381953],[83.019667,18.379008],[83.006748,18.37999],[82.99879,18.379163],[82.988558,18.375571],[82.951971,18.358156],[82.943289,18.356735],[82.904118,18.35534],[82.894713,18.357536],[82.888305,18.362497],[82.884895,18.370429],[82.884895,18.378749],[82.887685,18.396061],[82.885515,18.40389],[82.878383,18.409083],[82.861227,18.410117],[82.849238,18.414303],[82.838696,18.422468],[82.828774,18.428798],[82.816062,18.432105],[82.795391,18.429341],[82.785159,18.424147],[82.779681,18.416731],[82.780508,18.40637],[82.786813,18.382496],[82.785883,18.369887],[82.781438,18.357846],[82.77162,18.344436],[82.760148,18.337331],[82.729865,18.326401],[82.697516,18.30555],[82.680049,18.296532],[82.669714,18.289297],[82.663203,18.282321],[82.660412,18.27382],[82.655865,18.250463],[82.652041,18.240256],[82.642429,18.229482],[82.635711,18.228862],[82.622378,18.23589],[82.6138,18.237543],[82.601708,18.238009],[82.593543,18.24005],[82.586722,18.244391],[82.582381,18.251057],[82.5799,18.260255],[82.58021,18.270461],[82.582484,18.281856],[82.595403,18.309632],[82.597367,18.317073],[82.597367,18.325213],[82.594783,18.33299],[82.590236,18.341284],[82.584861,18.348389],[82.578453,18.354901],[82.528637,18.396965],[82.517372,18.410582],[82.511274,18.422209],[82.510137,18.433888],[82.512928,18.45399],[82.512514,18.462078],[82.511067,18.467994],[82.507967,18.474041],[82.506623,18.479312],[82.506313,18.48727],[82.506933,18.495616],[82.506727,18.502049],[82.502696,18.510628],[82.497631,18.512126],[82.487193,18.510498],[82.478098,18.512204],[82.466729,18.51732],[82.449056,18.5221],[82.438204,18.519258],[82.429212,18.510473],[82.41712,18.480862],[82.409368,18.466548],[82.374125,18.425697],[82.369887,18.418979],[82.368234,18.413993],[82.369887,18.395854],[82.369887,18.381953],[82.367097,18.366605],[82.352524,18.33038],[82.350974,18.323042],[82.351801,18.317745],[82.359655,18.301596],[82.360792,18.291623],[82.356555,18.277903],[82.350044,18.265914],[82.317177,18.21739],[82.311286,18.205504],[82.309529,18.194755],[82.31263,18.186978],[82.322862,18.176333],[82.352834,18.1553],[82.358725,18.147084],[82.360276,18.13941],[82.355935,18.131193],[82.34653,18.125483],[82.334644,18.120238],[82.330303,18.112021],[82.33113,18.099231],[82.335574,18.081532],[82.338055,18.066314],[82.336194,18.052749],[82.32989,18.044041],[82.319348,18.041302],[82.293303,18.043524],[82.276973,18.04045],[82.267775,18.032801],[82.261574,18.02027],[82.257543,18.007506],[82.250411,17.997429],[82.240076,17.992933],[82.229637,17.994561],[82.221576,17.997842],[82.215478,17.999212],[82.208243,17.999522],[82.193154,17.998669],[82.181062,17.999909],[82.180028,18.000426],[82.162872,18.018332],[82.149126,18.0289],[82.131866,18.038848],[82.092178,18.04988],[82.042362,18.043266],[81.99544,18.009986],[81.958233,18.002932],[81.92361,18.000219],[81.825218,17.937949],[81.758969,17.908933],[81.739435,17.897642],[81.724965,17.884723],[81.716594,17.873354],[81.704398,17.861029],[81.690549,17.855086],[81.655822,17.850875],[81.640319,17.842296],[81.622749,17.828292],[81.60611,17.811368],[81.578411,17.79695],[81.557844,17.803384],[81.524254,17.823486],[81.511232,17.826277],[81.502757,17.824209],[81.498313,17.817957],[81.491905,17.800619],[81.486944,17.792739],[81.479812,17.787519],[81.472681,17.787235],[81.460175,17.790465],[81.449943,17.794728],[81.39403,17.806691],[81.390929,17.818783],[81.390722,17.837025],[81.393306,17.854234],[81.394236,17.87232],[81.39496,17.877979],[81.397337,17.883146],[81.402608,17.887487],[81.408292,17.88896],[81.413253,17.88803],[81.417801,17.885704],[81.425552,17.879684],[81.429686,17.877333],[81.434647,17.876429],[81.439505,17.877359],[81.444156,17.879736],[81.447256,17.885033],[81.449117,17.892345],[81.449323,17.905652],[81.450667,17.915496],[81.453147,17.925004],[81.459245,17.937484],[81.463689,17.94428],[81.471027,17.953194],[81.474438,17.960015],[81.477849,17.971436],[81.48219,17.994096],[81.482293,18.028176],[81.480743,18.036496],[81.481053,18.043576],[81.482913,18.051431],[81.488184,18.061172],[81.495935,18.071869],[81.499553,18.075331],[81.503067,18.079853],[81.506271,18.085589],[81.516193,18.117809],[81.518466,18.135482],[81.523117,18.150339],[81.524874,18.160287],[81.523634,18.168943],[81.515262,18.183748],[81.513712,18.188838],[81.512885,18.19429],[81.513816,18.200827],[81.516193,18.207881],[81.521774,18.218087],[81.529318,18.229456],[81.542548,18.262451],[81.548439,18.268575],[81.55371,18.269815],[81.558051,18.26811],[81.565389,18.266534],[81.574794,18.267154],[81.593397,18.272244],[81.643833,18.292372],[81.652722,18.297772],[81.658406,18.303276],[81.670498,18.324851],[81.675563,18.32976],[81.682694,18.333713],[81.691376,18.336866],[81.717111,18.340974],[81.725482,18.344049],[81.73313,18.349578],[81.740572,18.357898],[81.772301,18.413217],[81.792352,18.438436],[81.804754,18.449339],[81.843718,18.47771],[81.869453,18.508199],[81.889607,18.52688],[81.913274,18.544915],[81.92423,18.55078],[81.932808,18.554217],[81.94087,18.558532],[81.947071,18.567601],[81.948311,18.579512],[81.941903,18.593982],[81.934048,18.600932],[81.915755,18.610673],[81.908417,18.615944],[81.903663,18.621913],[81.902422,18.627003],[81.903352,18.634083],[81.909657,18.641395],[81.916788,18.644185],[81.92578,18.644883],[81.933428,18.646666],[81.94087,18.650981],[81.947794,18.658138],[81.961333,18.67731],[81.968982,18.685733],[81.979213,18.693795],[81.989549,18.700203],[81.998437,18.704078],[82.005568,18.705861],[82.044533,18.708548],[82.059105,18.712424],[82.069854,18.719762],[82.076779,18.730227],[82.091558,18.76379],[82.095279,18.768829],[82.098689,18.770612],[82.10241,18.770017],[82.106441,18.767537],[82.118326,18.755057],[82.127422,18.749243],[82.138894,18.747254],[82.143234,18.766064],[82.150159,18.782781],[82.15264,18.78689],[82.1545,18.791437],[82.163802,18.83668],[82.164629,18.867169],[82.166179,18.873835],[82.169073,18.878719],[82.175894,18.88585],[82.178891,18.889752],[82.181268,18.893937],[82.184679,18.897658],[82.188813,18.900785],[82.214238,18.913549],[82.220026,18.915202],[82.22447,18.921946],[82.22788,18.933961],[82.2254,18.996334],[82.22571,19.005197],[82.224987,19.015196],[82.221369,19.024395],[82.206486,19.046538],[82.200595,19.058114],[82.197701,19.083874],[82.195014,19.092633],[82.187883,19.100902],[82.164629,19.115914],[82.159668,19.122838],[82.160598,19.132863],[82.167419,19.154929],[82.168659,19.166246],[82.165972,19.178985],[82.152846,19.201671],[82.148505,19.212884],[82.145715,19.225313],[82.145405,19.244226],[82.148195,19.258153],[82.153156,19.271434],[82.17083,19.30691],[82.17176,19.316857],[82.168453,19.325617],[82.158531,19.334712],[82.141788,19.344892],[82.136517,19.350421],[82.135276,19.35577],[82.139617,19.364684],[82.146335,19.370653],[82.163388,19.380833],[82.168659,19.386595],[82.170003,19.395147],[82.167522,19.405224],[82.158841,19.418169],[82.150986,19.424732],[82.142614,19.428685],[82.117706,19.43455],[82.111402,19.436773],[82.106441,19.440209],[82.102203,19.445816],[82.08608,19.480568],[82.081016,19.488811],[82.074815,19.494108],[82.066857,19.497208],[82.038125,19.502479],[82.031923,19.508448],[82.02903,19.517853],[82.03213,19.594773],[82.039055,19.624358],[82.040605,19.637355],[82.038745,19.651902],[82.0312,19.6765],[82.027273,19.695594],[82.028099,19.716265],[82.037815,19.756727],[82.036161,19.767088],[82.029133,19.776468],[82.020141,19.781971],[82.011666,19.784891],[81.978077,19.788198],[81.968775,19.791144],[81.960093,19.796337],[81.954512,19.804011],[81.943453,19.832097],[81.937149,19.841812],[81.929397,19.849254],[81.845268,19.894729],[81.833176,19.903798],[81.824184,19.913255],[81.817156,19.92434],[81.813746,19.935088],[81.813125,19.945527],[81.815296,19.955888],[81.819327,19.965707],[81.860151,20.03702],[81.867799,20.046658],[81.878961,20.051024],[81.897565,20.061902],[81.929811,20.097792],[81.939629,20.104665],[81.9449,20.105569],[81.952032,20.103709],[81.96061,20.097611],[82.009289,20.044487],[82.01425,20.035599],[82.0158,20.029527],[82.015077,20.023119],[82.016317,20.016866],[82.021898,20.011673],[82.032854,20.01188],[82.040295,20.01405],[82.046083,20.017874],[82.049597,20.023352],[82.057865,20.042059],[82.061276,20.047691],[82.065927,20.053686],[82.070784,20.057251],[82.075125,20.058388],[82.081326,20.057872],[82.08515,20.056993],[82.090731,20.054694],[82.096209,20.050637],[82.126801,20.022809],[82.141064,20.012681],[82.148816,20.005704],[82.153466,19.999994],[82.155327,19.995705],[82.156567,19.991545],[82.158531,19.986377],[82.160598,19.982889],[82.164732,19.979427],[82.17083,19.977076],[82.181062,19.976791],[82.203593,19.980331],[82.210104,19.978755],[82.217855,19.972993],[82.228397,19.95873],[82.290306,19.836051],[82.298057,19.826413],[82.304878,19.823312],[82.313457,19.826154],[82.319348,19.834087],[82.3333,19.860545],[82.337951,19.867237],[82.341465,19.87163],[82.346943,19.876591],[82.353351,19.880596],[82.361102,19.883903],[82.370404,19.885402],[82.381359,19.885944],[82.475927,19.872379],[82.488743,19.867909],[82.513961,19.854473],[82.526157,19.850339],[82.564501,19.849331],[82.573699,19.847419],[82.579074,19.843156],[82.577833,19.833493],[82.575043,19.824888],[82.572872,19.814682],[82.572562,19.805019],[82.574319,19.790911],[82.574009,19.7821],[82.573182,19.774917],[82.574009,19.770964],[82.575249,19.76807],[82.592716,19.769104],[82.601088,19.774607],[82.639328,19.805096],[82.650284,19.811168],[82.660722,19.81569],[82.682323,19.822666],[82.691728,19.828764],[82.707851,19.843208],[82.712812,19.849564],[82.713329,19.855533],[82.709091,19.862819],[82.691108,19.878658],[82.688214,19.882689],[82.685527,19.887572],[82.684493,19.895401],[82.685424,19.905995],[82.699066,19.95501],[82.700927,19.968781],[82.70041,19.980099],[82.696276,19.998108],[82.695035,20.000537],[82.692555,20.001441],[82.688214,20.002371],[82.665373,20.004955],[82.653384,20.005032],[82.6477,20.004102],[82.643152,20.002862],[82.638708,20.000304],[82.637158,19.998986],[82.626306,19.991881],[82.618141,19.988935],[82.611216,19.988134],[82.603775,19.990331],[82.598504,19.992785],[82.594266,19.995886],[82.589926,20.000123],[82.57835,20.014618],[82.572562,20.019166],[82.565844,20.022267],[82.55799,20.024101],[82.550341,20.024489],[82.509827,20.021853],[82.495874,20.023042],[82.490914,20.024592],[82.486573,20.026995],[82.47076,20.041361],[82.464455,20.045779],[82.415569,20.066967],[82.412469,20.076992],[82.413399,20.093347],[82.433656,20.159002],[82.435826,20.17373],[82.435826,20.198767],[82.427972,20.241452],[82.427145,20.293981],[82.423114,20.306151],[82.41898,20.314342],[82.414329,20.320362],[82.411642,20.326796],[82.411539,20.345425],[82.421874,20.42803],[82.420324,20.45162],[82.417533,20.462498],[82.411952,20.460173],[82.407301,20.456504],[82.401927,20.4533],[82.396449,20.4533],[82.391281,20.458157],[82.386941,20.466167],[82.382496,20.483995],[82.381359,20.499447],[82.380946,20.500971],[82.376399,20.506526],[82.372678,20.506862],[82.368957,20.505054],[82.366373,20.502263],[82.363893,20.500041],[82.361206,20.49924],[82.359655,20.499447],[82.359035,20.499783],[82.343636,20.529367],[82.340122,20.542493],[82.340225,20.556342],[82.357485,20.624659],[82.362756,20.63949],[82.366683,20.657086],[82.367614,20.669255],[82.366993,20.682304],[82.364203,20.694784],[82.360276,20.705791],[82.350354,20.72659],[82.346633,20.737365],[82.344152,20.747933],[82.341982,20.86082],[82.343222,20.86684],[82.345909,20.872447],[82.349113,20.876762],[82.353041,20.880535],[82.359862,20.882395],[82.364926,20.882317],[82.394899,20.875212],[82.400997,20.872421],[82.404821,20.869088],[82.406578,20.86529],[82.406578,20.861363],[82.405027,20.8494],[82.405131,20.844051],[82.407508,20.838703],[82.410918,20.835369],[82.415879,20.833819],[82.422701,20.834594],[82.438204,20.839529],[82.4535,20.846867],[82.463008,20.855394],[82.47293,20.867073],[82.48771,20.892213],[82.498562,20.907329],[82.514581,20.923736],[82.522436,20.929524],[82.527914,20.932237],[82.537939,20.933064],[82.548171,20.939368],[82.562124,20.954458],[82.606875,21.024143],[82.627236,21.080936],[82.644082,21.104294],[82.646873,21.12344],[82.642842,21.136204],[82.642739,21.140364],[82.644703,21.14442],[82.649043,21.149019],[82.656692,21.152611],[82.668164,21.155479],[82.752603,21.160078],[82.761388,21.158063],[82.769346,21.15398],[82.775031,21.148658],[82.782162,21.144911],[82.79043,21.145015],[82.797458,21.147262],[82.810481,21.15398],[82.822263,21.157856],[82.84159,21.161189],[82.86164,21.161887],[82.96458,21.178527],[82.976982,21.176175],[82.989074,21.168682],[82.995896,21.160776],[83.001477,21.155686],[83.008918,21.150906],[83.01884,21.147469],[83.030312,21.144834],[83.0392,21.141526],[83.047882,21.135739],[83.062558,21.120727],[83.06938,21.116773],[83.078165,21.114551],[83.129117,21.117936],[83.143587,21.120623],[83.156299,21.125998],[83.173973,21.140054],[83.186168,21.153541],[83.198261,21.172558],[83.227199,21.249633],[83.234227,21.261519],[83.257068,21.290329],[83.259652,21.299656],[83.258929,21.30547],[83.256241,21.308829],[83.255208,21.311594],[83.255311,21.316529],[83.257068,21.323944],[83.260479,21.332781],[83.265853,21.34309],[83.271744,21.351539],[83.279393,21.3588],[83.290038,21.359627],[83.301097,21.358697],[83.344815,21.340894],[83.353083,21.338362],[83.361041,21.33676],[83.370756,21.336657],[83.379748,21.339189],[83.385329,21.346475],[83.388326,21.357766],[83.3875,21.377068],[83.384916,21.389444],[83.381195,21.399547],[83.375407,21.406601],[83.341301,21.43616],[83.334583,21.444221],[83.329932,21.453342],[83.327348,21.463677],[83.326211,21.487836],[83.327658,21.499153],[83.3351,21.520005],[83.342541,21.549615],[83.343265,21.560028],[83.351946,21.577262],[83.444034,21.718597],[83.458916,21.748027],[83.463257,21.766139],[83.463877,21.790531],[83.466875,21.799987],[83.473179,21.807171],[83.486408,21.808462],[83.494263,21.806163],[83.500671,21.801744],[83.506252,21.796577],[83.511213,21.796241],[83.515554,21.799677],[83.519068,21.81071],[83.519688,21.826523],[83.522168,21.83027],[83.527853,21.833525],[83.546456,21.832208],[83.552761,21.83337],[83.557102,21.834921],[83.564853,21.853576],[83.560409,21.869673],[83.559582,21.875099],[83.561339,21.883626],[83.570124,21.907578],[83.571674,21.916311],[83.570641,21.923055],[83.566403,21.928197],[83.558859,21.933984],[83.530127,21.949513],[83.521238,21.95636],[83.515347,21.963853],[83.512867,21.973052],[83.513073,21.982793],[83.518034,22.020258],[83.522168,22.028371],[83.528783,22.035167],[83.54594,22.044133],[83.556688,22.047647],[83.564853,22.052117],[83.571054,22.05837],[83.572191,22.067775],[83.570021,22.074183],[83.56537,22.079738],[83.560719,22.083846],[83.55028,22.094802],[83.54625,22.101623],[83.54873,22.11294],[83.556998,22.129425],[83.605367,22.195984],[83.623661,22.21327],[83.639991,22.223269],[83.664175,22.235026],[83.721639,22.25505],[83.733112,22.262285],[83.816724,22.332513],[83.841425,22.348584],[83.876979,22.359152],[83.918423,22.36277],[83.931859,22.365457],[83.945812,22.371193],[83.955734,22.378712],[83.984362,22.410286],[83.989117,22.417107],[83.992527,22.42442],[83.994698,22.431577],[83.996455,22.440543],[83.997075,22.451756],[83.995008,22.468991],[83.990564,22.483253],[83.970616,22.516042],[83.968136,22.522553],[83.970203,22.539348],[84.00741,22.531519],[84.036039,22.51829],[84.067045,22.499583],[84.124302,22.426745],[84.130607,22.412147],[84.137015,22.400933],[84.147763,22.386773],[84.178562,22.364372],[84.188794,22.360599],[84.195822,22.359772],[84.217423,22.360548],[84.230859,22.357344],[84.292767,22.328172],[84.310957,22.324012],[84.408213,22.328741],[84.420822,22.330989],[84.48459,22.362279],[84.490998,22.366568],[84.497303,22.372201],[84.50092,22.376619],[84.503814,22.384655],[84.504951,22.392535],[84.504434,22.402535],[84.505054,22.41057],[84.508155,22.417004],[84.516733,22.421422],[84.530066,22.423024],[84.733671,22.427288],[84.748243,22.430698],[84.757442,22.435427],[84.761886,22.440775],[84.768914,22.445581],[84.778526,22.448346],[84.80085,22.45018],[84.817593,22.448113],[84.878571,22.434031],[84.908337,22.421965],[84.916295,22.423205],[84.921463,22.424885],[84.937586,22.441059],[84.944097,22.445245],[84.952469,22.447416],[84.983371,22.450335],[84.988022,22.452222],[85.038252,22.482401],[85.065537,22.5032],[85.087758,22.446615],[85.100367,22.393956],[85.104707,22.357499],[85.104707,22.330834],[85.09892,22.304685],[85.093339,22.290216],[85.087758,22.280165],[85.040009,22.21637],[85.008899,22.151542],[84.999288,22.136556],[84.992466,22.127642],[84.985232,22.112785],[84.986265,22.106661],[84.991123,22.104026],[85.003215,22.106196],[85.042592,22.119735],[85.050344,22.120898],[85.062023,22.121234],[85.079489,22.119038],[85.097886,22.113457],[85.109152,22.108496],[85.18708,22.05961],[85.20806,22.036743],[85.214882,22.031059],[85.220153,22.029147],[85.225527,22.030516],[85.232038,22.035322],[85.277824,22.085319],[85.324126,22.126686],[85.335081,22.132448],[85.379006,22.146969],[85.396059,22.157873],[85.410012,22.162007],[85.425205,22.164487],[85.43678,22.164229],[85.448562,22.162524],[85.461068,22.158131],[85.550675,22.107591],[85.609586,22.09214],[85.655888,22.084699],[85.679143,22.075862],[85.685344,22.077051],[85.705808,22.087463],[85.717797,22.091882],[85.734333,22.096145],[85.746425,22.101158],[85.755934,22.107152],[85.766683,22.116712],[85.780429,22.125136],[85.792211,22.129089],[85.798309,22.126014],[85.801719,22.117022],[85.800582,22.106222],[85.796552,22.096817],[85.782599,22.079764],[85.779085,22.071935],[85.778465,22.063822],[85.778775,22.053512],[85.777638,22.039663],[85.780635,22.022196],[85.784666,22.011887],[85.834275,21.986126],[85.877477,21.9961],[85.897321,22.007623],[85.916234,22.022119],[85.963983,22.085603],[85.971321,22.097695],[85.974112,22.104594],[85.974112,22.111441],[85.972975,22.118883],[85.972561,22.133507],[85.976592,22.149785],[85.984654,22.172058],[85.988271,22.187535],[85.986824,22.201694],[85.971321,22.22854],[85.964603,22.24487],[85.965223,22.263189],[85.971425,22.275178],[85.989925,22.300784],[85.993025,22.316364],[85.993232,22.3352],[85.986514,22.393621],[85.982483,22.410829],[85.974835,22.424601],[85.950237,22.452842],[85.940625,22.468138],[85.937008,22.486018],[85.937318,22.495061],[85.937835,22.49917],[85.938248,22.499945],[85.938765,22.500513],[85.945586,22.505603],[85.965533,22.513096],[85.973595,22.514957],[85.988271,22.516636],[85.994266,22.517928],[85.997676,22.519143],[86.005324,22.524414],[86.020621,22.547926],[86.030232,22.552965],[86.039844,22.556737],[86.049973,22.555807],[86.057414,22.552164],[86.064752,22.545885],[86.102476,22.500126],[86.268047,22.422404],[86.289545,22.409046],[86.304738,22.397057],[86.322721,22.368738],[86.332746,22.356672],[86.346079,22.343959],[86.366026,22.330058],[86.383492,22.323237],[86.401579,22.320007],[86.419149,22.320834],[86.433722,22.323134],[86.471756,22.335071],[86.486639,22.336854],[86.497181,22.334684],[86.506069,22.330834],[86.602187,22.272853],[86.646629,22.234871],[86.686523,22.218024],[86.70461,22.188698],[86.715462,22.183504],[86.732102,22.178156],[86.749052,22.174306],[86.766725,22.167717],[86.781608,22.155185],[86.833904,22.121751],[86.848167,22.119296],[86.861396,22.120511],[86.876589,22.119813],[86.892712,22.116583],[86.943768,22.096404],[86.97126,22.079531],[86.987383,22.066586],[86.996272,22.055476],[86.999372,22.049895],[87.000922,22.045218],[87.004747,22.02571],[87.005677,22.01398],[87.005573,22.004833],[87.004747,22.000053],[86.993688,21.972483],[86.995858,21.957032],[87.004953,21.936982],[87.031412,21.907991],[87.047845,21.902178],[87.059213,21.90719],[87.063451,21.918171],[87.069135,21.927577],[87.076163,21.932899],[87.085155,21.93662],[87.094147,21.942201],[87.100761,21.951296],[87.106239,21.961735],[87.112957,21.971398],[87.120812,21.976928],[87.136625,21.977238],[87.155435,21.972096],[87.190678,21.956205],[87.206801,21.941426],[87.214656,21.92414],[87.219617,21.884995],[87.225612,21.863575],[87.231503,21.848098],[87.239668,21.832595],[87.251967,21.822105],[87.275014,21.813966],[87.408546,21.786138],[87.424463,21.774744],[87.431594,21.761592],[87.431284,21.746451],[87.42746,21.718184],[87.427873,21.703663],[87.43087,21.689322],[87.436555,21.675628],[87.468284,21.63005],[87.477387,21.613593]]]}}]}
