{"type":"FeatureCollection","features":[{"type":"Feature","properties":{"id":"PK-SD","country":"PK","name_en":"Sindh"},"geometry":{"type":"MultiPolygon","coordinates":[[[[70.189028,27.89179],[70.101953,27.81174],[70.090688,27.79355],[70.016894,27.60059],[69.993536,27.571083],[69.908063,27.497289],[69.848015,27.410369],[69.730606,27.310324],[69.666114,27.270016],[69.575577,27.188419],[69.534443,27.125581],[69.507571,27.050081],[69.48597,26.926833],[69.465093,26.80777],[69.472844,26.766584],[69.50416,26.735165],[69.659396,26.677701],[69.700221,26.653],[69.772258,26.59507],[69.815562,26.580291],[70.056064,26.589076],[70.093685,26.580394],[70.1296,26.562514],[70.158074,26.530113],[70.162931,26.493319],[70.156989,26.410947],[70.160503,26.371311],[70.157144,26.354],[70.147945,26.333226],[70.142467,26.313692],[70.144018,26.294313],[70.151614,26.254058],[70.146912,26.217419],[70.132029,26.18047],[70.078285,26.099648],[70.073893,26.083112],[70.072911,26.047455],[70.064281,25.99552],[70.064643,25.980327],[70.083246,25.929943],[70.114976,25.881729],[70.15425,25.839406],[70.195591,25.806953],[70.213988,25.786334],[70.234452,25.730989],[70.249231,25.707683],[70.264579,25.697296],[70.303698,25.684583],[70.360129,25.673473],[70.477227,25.676315],[70.516657,25.68386],[70.554432,25.698794],[70.592259,25.708819],[70.632308,25.701378],[70.653857,25.674455],[70.657475,25.63363],[70.652824,25.545884],[70.646623,25.431369],[70.654478,25.39659],[70.670394,25.375558],[70.710495,25.335871],[70.718556,25.310808],[70.723104,25.287295],[70.734886,25.267348],[70.768372,25.233086],[70.831418,25.183322],[70.848574,25.163323],[70.859891,25.139449],[70.893326,25.001886],[70.915237,24.946618],[70.943039,24.894063],[71.00319,24.808203],[71.036935,24.72074],[71.056632,24.69282],[71.063858,24.682577],[71.043343,24.669064],[70.977145,24.639686],[70.962779,24.615785],[70.954821,24.584521],[70.957767,24.556022],[70.977145,24.54039],[70.980866,24.534731],[70.981899,24.52853],[70.980504,24.521889],[70.977145,24.515068],[70.974768,24.494966],[70.973218,24.48724],[70.973114,24.479644],[70.974355,24.472202],[70.977145,24.464942],[71.00009,24.452901],[71.040087,24.446778],[71.07502,24.436417],[71.082772,24.411508],[71.073057,24.402103],[71.025101,24.38629],[71.014352,24.375206],[71.007118,24.363966],[70.996679,24.356602],[70.977145,24.357248],[70.955338,24.365904],[70.936321,24.367196],[70.917717,24.361718],[70.856532,24.323814],[70.840926,24.30583],[70.844543,24.288286],[70.857566,24.271672],[70.851468,24.264877],[70.834105,24.261285],[70.813589,24.254464],[70.776021,24.236687],[70.755453,24.231442],[70.621508,24.241157],[70.584714,24.2579],[70.567661,24.272809],[70.56022,24.287253],[70.555362,24.327018],[70.545647,24.362183],[70.546474,24.373139],[70.551952,24.379366],[70.569211,24.389882],[70.575206,24.400036],[70.562907,24.424092],[70.520946,24.424919],[70.416353,24.401948],[70.370774,24.372364],[70.353204,24.366266],[70.29853,24.363424],[70.2791,24.355078],[70.242565,24.330609],[70.222773,24.326707],[70.202205,24.325571],[70.144586,24.307897],[70.109705,24.3049],[70.097871,24.298828],[70.087174,24.28255],[70.062989,24.220306],[70.052137,24.202064],[70.015964,24.174055],[69.972039,24.165219],[69.769054,24.162557],[69.714587,24.168578],[69.670558,24.188706],[69.59232,24.264618],[69.563071,24.276762],[69.280815,24.283739],[69.206246,24.258572],[69.166713,24.253172],[69.148213,24.25666],[69.091886,24.281904],[69.067701,24.288441],[69.048477,24.285237],[69.007808,24.264567],[68.980781,24.255394],[68.962643,24.257228],[68.94869,24.270277],[68.929415,24.302368],[68.921974,24.310507],[68.913189,24.317251],[68.904197,24.320584],[68.890296,24.319473],[68.885077,24.313556],[68.883268,24.305365],[68.880116,24.297355],[68.848903,24.244025],[68.838774,24.236455],[68.819654,24.250304],[68.813815,24.30844],[68.79919,24.329085],[68.747307,24.331177],[68.725913,24.289216],[68.725551,24.208911],[68.725086,24.10406],[68.724466,23.965179],[68.646435,23.965696],[68.547836,23.966316],[68.431564,23.967143],[68.385469,23.960425],[68.353636,23.939289],[68.353843,23.94717],[68.352396,23.956549],[68.348882,23.964611],[68.342629,23.968564],[68.330433,23.966574],[68.329865,23.958151],[68.333689,23.948048],[68.335033,23.940995],[68.325989,23.927791],[68.314052,23.915906],[68.300409,23.910505],[68.286198,23.916371],[68.280049,23.925724],[68.277672,23.933501],[68.274003,23.937687],[68.263926,23.93593],[68.254934,23.929109],[68.25266,23.920091],[68.253074,23.911229],[68.251937,23.904821],[68.253746,23.90278],[68.257931,23.899473],[68.26036,23.895545],[68.256794,23.891928],[68.252867,23.891695],[68.243049,23.893426],[68.239948,23.893116],[68.23292,23.889111],[68.21504,23.881748],[68.207288,23.877019],[68.183517,23.8433],[68.183035,23.842108],[68.183116,23.843451],[68.157481,23.905097],[68.156423,23.87401],[68.157481,23.864163],[68.160167,23.857856],[68.168712,23.844794],[68.170584,23.839911],[68.166759,23.820014],[68.148692,23.780911],[68.143321,23.761135],[68.144216,23.74315],[68.154796,23.714301],[68.157481,23.696234],[68.149099,23.694525],[68.130382,23.708197],[68.102224,23.733832],[68.098888,23.709296],[68.081716,23.708686],[68.062755,23.723131],[68.053884,23.74372],[68.056977,23.750963],[68.071056,23.760647],[68.074392,23.764838],[68.073253,23.783433],[68.074392,23.788398],[68.081716,23.80565],[68.088227,23.809516],[68.102224,23.809516],[68.102224,23.815741],[68.08839,23.826077],[68.07252,23.841864],[68.059418,23.861884],[68.053884,23.88467],[68.061697,23.911282],[68.063731,23.923163],[68.047699,23.92121],[68.024181,23.935248],[68.01352,23.939276],[68.041515,23.85224],[68.053884,23.829413],[68.035655,23.792426],[68.024425,23.774604],[68.01352,23.768541],[68.007986,23.774237],[68.003429,23.785305],[68.000336,23.797309],[67.999278,23.805813],[67.994151,23.811184],[67.983165,23.809638],[67.973399,23.805243],[67.971934,23.802069],[67.961925,23.804674],[67.950857,23.808905],[67.941661,23.815863],[67.937755,23.826321],[67.934255,23.832994],[67.926036,23.834052],[67.916759,23.833645],[67.909923,23.836249],[67.904633,23.846259],[67.905935,23.85928],[67.899913,23.86758],[67.891938,23.869574],[67.883474,23.864814],[67.868907,23.850491],[67.864513,23.86579],[67.863292,23.902818],[67.855235,23.911933],[67.849132,23.889472],[67.839041,23.823391],[67.831716,23.809516],[67.802582,23.812812],[67.773204,23.821112],[67.718598,23.843695],[67.730724,23.835598],[67.741059,23.823065],[67.743663,23.808783],[67.73227,23.795233],[67.715668,23.791693],[67.693614,23.793443],[67.656586,23.802069],[67.646495,23.802883],[67.637706,23.801744],[67.631602,23.803453],[67.629242,23.812649],[67.630707,23.824774],[67.634288,23.833075],[67.638845,23.840644],[67.642914,23.850491],[67.651052,23.90705],[67.656586,23.919379],[67.656586,23.925605],[67.652029,23.925279],[67.651052,23.926907],[67.651215,23.929755],[67.650401,23.933051],[67.638031,23.91592],[67.63738,23.874254],[67.629242,23.856676],[67.614513,23.850084],[67.59962,23.854234],[67.589366,23.866523],[67.58839,23.88467],[67.574555,23.871772],[67.566091,23.876451],[67.558116,23.888658],[67.546641,23.898261],[67.532563,23.899156],[67.530121,23.891262],[67.535899,23.880032],[67.546641,23.870998],[67.491059,23.883124],[67.478526,23.891506],[67.488048,23.893052],[67.495291,23.892279],[67.502615,23.89289],[67.512543,23.898261],[67.520518,23.90705],[67.532237,23.929145],[67.540538,23.939276],[67.530528,23.935492],[67.519867,23.92829],[67.509044,23.923245],[67.498871,23.925605],[67.496918,23.935614],[67.499766,23.951646],[67.506358,23.974026],[67.463634,23.982001],[67.451182,23.987698],[67.46811,24.021959],[67.478201,24.032416],[67.492198,24.028022],[67.519867,24.045071],[67.529796,24.054918],[67.533051,24.070258],[67.509776,24.052069],[67.489106,24.054104],[67.467296,24.064154],[67.440684,24.070258],[67.383556,24.066799],[67.354015,24.070868],[67.341319,24.086371],[67.337087,24.118964],[67.326427,24.143785],[67.300304,24.186265],[67.295584,24.199205],[67.293305,24.212226],[67.292328,24.261868],[67.288422,24.269965],[67.279145,24.281236],[67.283865,24.287909],[67.289317,24.298651],[67.292817,24.302965],[67.285981,24.329576],[67.305919,24.342841],[67.336436,24.346422],[67.362478,24.34394],[67.34254,24.353827],[67.325369,24.357611],[67.28297,24.357611],[67.271658,24.369086],[67.273611,24.395087],[67.286632,24.439521],[67.280528,24.432318],[67.273611,24.426947],[67.2588,24.419094],[67.256847,24.444973],[67.246837,24.467963],[67.230724,24.488837],[67.210948,24.50845],[67.230805,24.525092],[67.226736,24.532375],[67.204112,24.535102],[67.194591,24.547268],[67.18865,24.561347],[67.185232,24.576117],[67.183604,24.590318],[67.199474,24.584784],[67.21811,24.582424],[67.236664,24.58397],[67.252615,24.590318],[67.223888,24.607164],[67.208995,24.613756],[67.19044,24.617662],[67.172699,24.615871],[67.159923,24.61225],[67.15211,24.615709],[67.149587,24.635077],[67.156993,24.662909],[67.175548,24.688707],[67.199962,24.710639],[67.22462,24.726955],[67.25294,24.740383],[67.255544,24.747992],[67.245128,24.761664],[67.232677,24.770738],[67.223806,24.769721],[67.212657,24.764716],[67.176036,24.757717],[67.167328,24.760159],[67.161632,24.781399],[67.156016,24.791571],[67.148204,24.799791],[67.139659,24.80329],[67.121837,24.801215],[67.111095,24.797756],[67.099946,24.797065],[67.081228,24.80329],[67.073741,24.795803],[67.08253,24.774156],[67.063731,24.781684],[67.02296,24.810045],[67.005056,24.813544],[66.987315,24.822211],[66.972992,24.833157],[66.965099,24.843573],[66.957693,24.843573],[66.957856,24.825426],[66.960216,24.817816],[66.965099,24.810045],[66.941173,24.812567],[66.921886,24.824286],[66.903331,24.839179],[66.882091,24.85102],[66.85377,24.85224],[66.827322,24.844143],[66.802501,24.839545],[66.779633,24.85102],[66.769298,24.847235],[66.716319,24.841539],[66.691417,24.832587],[66.679698,24.830552],[66.654145,24.839179],[66.656749,24.85871],[66.677013,24.879543],[66.704438,24.892035],[66.862203,25.009404],[66.874502,25.015657],[66.881324,25.018034],[66.88644,25.019119],[66.926179,25.023563],[66.939666,25.02793],[66.952534,25.034364],[66.966331,25.042968],[66.990878,25.066894],[67.010721,25.092939],[67.020488,25.108519],[67.026069,25.124462],[67.026689,25.132497],[67.025759,25.150274],[67.026069,25.156062],[67.027155,25.161746],[67.032426,25.1711],[67.041624,25.183399],[67.076816,25.221949],[67.106013,25.244067],[67.124151,25.257761],[67.130662,25.265693],[67.137639,25.276468],[67.16296,25.336283],[67.166681,25.348582],[67.168076,25.357574],[67.166836,25.368452],[67.16265,25.389226],[67.16203,25.39491],[67.164511,25.404367],[67.170092,25.417157],[67.221303,25.500873],[67.229054,25.510278],[67.255874,25.523378],[67.264453,25.530199],[67.271119,25.538855],[67.27732,25.553841],[67.292203,25.5811],[67.328066,25.620374],[67.360002,25.652517],[67.373697,25.672671],[67.424391,25.795945],[67.43514,25.83093],[67.439946,25.861703],[67.439636,25.888265],[67.433848,25.940019],[67.434055,25.958984],[67.450333,26.048333],[67.446922,26.075902],[67.43731,26.111249],[67.180944,26.539285],[67.172572,26.560059],[67.16172,26.604733],[67.155364,26.653541],[67.153038,26.7355],[67.14601,27.155862],[67.134538,27.253324],[67.135933,27.287895],[67.142755,27.3335],[67.179858,27.480261],[67.18575,27.512585],[67.192881,27.531627],[67.205748,27.557698],[67.272669,27.663376],[67.342019,27.743707],[67.38982,27.8452],[67.402067,27.863881],[67.441341,27.882691],[67.553841,27.896282],[67.683549,27.925841],[67.925136,28.023122],[67.969836,28.083196],[67.999343,28.114176],[68.219227,28.264683],[68.237055,28.281452],[68.282685,28.310546],[68.368623,28.342431],[68.376064,28.346513],[68.381697,28.350311],[68.384798,28.352947],[68.388519,28.356874],[68.438025,28.429299],[68.445156,28.436585],[68.458798,28.447799],[68.46686,28.452501],[68.472906,28.454827],[68.501018,28.462578],[68.604319,28.474955],[68.775678,28.464955],[69.251722,28.483611],[69.38515,28.486556],[69.491449,28.527251],[69.505246,28.52844],[69.530413,28.528207],[69.557698,28.524719],[69.583484,28.517769],[69.58922,28.515417],[69.593716,28.512239],[69.596817,28.508596],[69.598522,28.504023],[69.599142,28.500276],[69.598987,28.492809],[69.600538,28.488959],[69.603948,28.485858],[69.609684,28.483869],[69.7042,28.473353],[69.732416,28.466196],[69.754482,28.423175],[69.77014,28.410333],[69.778201,28.407775],[69.786883,28.403796],[69.799492,28.395192],[69.806468,28.385684],[69.810499,28.37739],[69.811584,28.37031],[69.811429,28.336539],[69.813444,28.328349],[69.818095,28.32083],[69.827087,28.310443],[69.831738,28.301942],[69.834063,28.294604],[69.837319,28.27582],[69.899434,28.111385],[69.915092,28.083428],[69.977155,28.001883],[69.996069,27.984649],[70.012089,27.973125],[70.074307,27.939716],[70.188667,27.891941],[70.189028,27.89179]]],[[[67.375499,24.06273],[67.390391,24.049262],[67.413259,24.048774],[67.458018,24.06273],[67.477794,24.051215],[67.485362,24.048529],[67.485281,24.048489],[67.46518,24.040595],[67.460785,24.026679],[67.453949,24.013414],[67.426931,24.007514],[67.409434,24.013495],[67.393403,24.028062],[67.385427,24.040188],[67.381521,24.04621],[67.375499,24.06273]]]]}}]}
