{"type":"FeatureCollection","features":[{"type":"Feature","properties":{"id":"IR-17","country":"IR","name_en":"Kermanshah"},"geometry":{"type":"Polygon","coordinates":[[[46.115407,35.226326],[46.101454,35.234285],[46.098767,35.250046],[46.107655,35.262758],[46.120058,35.274902],[46.125285,35.284989],[46.152977,35.277382],[46.342939,35.154805],[46.583338,34.885364],[46.626126,34.860973],[46.648967,34.862265],[46.653101,34.841207],[46.645143,34.811829],[46.646486,34.772451],[46.679559,34.742479],[46.739504,34.747931],[46.829628,34.739094],[46.897427,34.747233],[46.935874,34.763925],[46.940319,34.796843],[46.960059,34.818469],[46.992615,34.822965],[47.013906,34.842912],[47.014113,34.871774],[47.026928,34.893736],[47.06889,34.905415],[47.129248,34.957143],[47.191363,34.96213],[47.230637,34.95983],[47.250894,34.969494],[47.256888,35.034348],[47.267327,35.053675],[47.410471,35.061529],[47.444784,35.087264],[47.448091,35.121242],[47.430005,35.150981],[47.440753,35.17005],[47.469795,35.168035],[47.509276,35.140388],[47.623688,35.097755],[47.777373,34.955541],[47.820575,34.950373],[47.851477,34.951226],[47.851994,34.936059],[47.84662,34.908128],[47.81365,34.876864],[47.773963,34.803664],[47.727041,34.746613],[47.626892,34.737156],[47.595059,34.726821],[47.580693,34.711189],[47.590408,34.671424],[47.641154,34.637524],[47.714638,34.6044],[47.747505,34.599025],[47.774583,34.587243],[47.789362,34.545902],[47.814787,34.513811],[47.900157,34.587372],[47.946252,34.604038],[47.9693,34.608172],[47.98842,34.584246],[47.998549,34.543525],[47.98749,34.477482],[47.990074,34.430999],[47.959585,34.410122],[47.847343,34.42994],[47.748228,34.424049],[47.711331,34.377876],[47.693968,34.349712],[47.625238,34.357438],[47.596196,34.350953],[47.576972,34.340385],[47.573975,34.318061],[47.58307,34.264033],[47.577386,34.208041],[47.528913,34.187242],[47.457393,34.184219],[47.399722,34.16068],[47.393624,34.146443],[47.396208,34.136728],[47.402203,34.130139],[47.409024,34.124067],[47.414088,34.116006],[47.415845,34.104456],[47.413055,34.085827],[47.414088,34.075052],[47.417809,34.067456],[47.403546,34.048103],[47.386183,34.037819],[47.369646,34.042057],[47.335643,34.044434],[47.175136,34.013635],[47.175136,33.983068],[47.202628,33.948936],[47.217408,33.923744],[47.203455,33.859071],[47.182474,33.824912],[47.025895,33.830855],[46.855673,33.794708],[46.738781,33.80264],[46.48784,33.869974],[46.414253,33.923123],[46.347073,33.957385],[46.266355,33.972785],[46.185739,33.977565],[46.035878,34.028621],[45.880848,34.012395],[45.822041,34.013841],[45.80354,33.99591],[45.817493,33.957721],[45.806538,33.893435],[45.768504,33.793726],[45.747317,33.648851],[45.72463,33.633036],[45.721116,33.640764],[45.673987,33.669031],[45.658794,33.681692],[45.645151,33.697918],[45.635126,33.714171],[45.628202,33.731844],[45.623912,33.752075],[45.616729,33.768689],[45.603604,33.78073],[45.588204,33.791504],[45.574768,33.803933],[45.485781,33.938653],[45.483921,33.940048],[45.481751,33.940875],[45.47927,33.941185],[45.449711,33.937387],[45.423718,33.938782],[45.401032,33.949453],[45.380361,33.97356],[45.401755,33.981622],[45.411471,33.987151],[45.419739,33.994257],[45.419946,33.994257],[45.419946,33.99436],[45.43519,34.022136],[45.443613,34.047664],[45.454879,34.06986],[45.47927,34.087636],[45.493946,34.100685],[45.534357,34.128202],[45.544537,34.139494],[45.544537,34.15063],[45.538801,34.159234],[45.531463,34.167916],[45.526657,34.17931],[45.528673,34.18856],[45.542729,34.207474],[45.54769,34.216491],[45.561022,34.264602],[45.563038,34.289278],[45.55756,34.311964],[45.542212,34.331601],[45.521541,34.342504],[45.499217,34.342401],[45.47927,34.329146],[45.46077,34.340463],[45.447954,34.36209],[45.417052,34.444359],[45.426767,34.45751],[45.47927,34.467251],[45.486505,34.472729],[45.493016,34.479008],[45.4987,34.486242],[45.503455,34.494175],[45.50485,34.523785],[45.49653,34.564248],[45.500664,34.591688],[45.539628,34.582231],[45.573941,34.567297],[45.604844,34.561147],[45.673573,34.556652],[45.695588,34.550244],[45.70153,34.551277],[45.705613,34.557737],[45.7083,34.568382],[45.708558,34.579079],[45.705613,34.58559],[45.694451,34.598561],[45.691247,34.615511],[45.690782,34.634321],[45.687629,34.653235],[45.683495,34.660211],[45.678379,34.66512],[45.67347,34.671166],[45.67037,34.681812],[45.666856,34.689977],[45.659517,34.697211],[45.650526,34.702999],[45.642258,34.706875],[45.627375,34.720828],[45.635023,34.736951],[45.662825,34.763254],[45.665925,34.774726],[45.6636,34.794932],[45.666752,34.80692],[45.676571,34.818289],[45.689231,34.82263],[45.717705,34.825111],[45.745404,34.840975],[45.750468,34.865367],[45.748504,34.89074],[45.755119,34.909963],[45.77827,34.910893],[45.796202,34.903064],[45.808036,34.897871],[45.835011,34.890171],[45.850203,34.906811],[45.857852,34.931306],[45.866327,34.949547],[45.868962,34.968358],[45.859712,34.994248],[45.859712,34.994403],[45.856818,35.008045],[45.857025,35.021274],[45.861882,35.032798],[45.872476,35.041428],[45.879039,35.043237],[45.893095,35.044374],[45.899089,35.046906],[45.901156,35.051608],[45.898366,35.063907],[45.899399,35.06861],[45.913197,35.087317],[45.920173,35.089642],[45.934953,35.085456],[45.956037,35.074243],[45.966372,35.070729],[45.97924,35.071555],[46.009212,35.06091],[46.025077,35.064269],[46.039753,35.075535],[46.066573,35.088815],[46.07665,35.089694],[46.09453,35.085818],[46.119954,35.092743],[46.132357,35.094758],[46.143106,35.099512],[46.151064,35.111605],[46.130393,35.131397],[46.143829,35.159612],[46.165481,35.189946],[46.169254,35.216249],[46.154164,35.226636],[46.115407,35.226326]]]}},{"type":"Feature","properties":{"id":"IR-05","country":"IR","name_en":"Ilam"},"geometry":{"type":"Polygon","coordinates":[[[45.734552,33.583119],[45.72773,33.590096],[45.727989,33.625649],[45.72463,33.633036],[45.747317,33.648851],[45.768504,33.793726],[45.806538,33.893435],[45.817493,33.957721],[45.80354,33.99591],[45.822041,34.013841],[45.880848,34.012395],[46.035878,34.028621],[46.185739,33.977565],[46.266355,33.972785],[46.347073,33.957385],[46.414253,33.923123],[46.48784,33.869974],[46.738781,33.80264],[46.855673,33.794708],[47.025895,33.830855],[47.182474,33.824912],[47.203455,33.859071],[47.217408,33.923744],[47.202628,33.948936],[47.175136,33.983068],[47.175136,34.013635],[47.335643,34.044434],[47.369646,34.042057],[47.386183,34.037819],[47.399929,34.022265],[47.42277,33.978236],[47.431658,33.929247],[47.426491,33.897466],[47.413055,33.875039],[47.389283,33.854032],[47.333473,33.822923],[47.313733,33.799565],[46.963573,33.717451],[46.901561,33.668359],[46.879547,33.622961],[46.862081,33.621333],[46.844924,33.615106],[46.842133,33.600068],[46.82663,33.561414],[46.827871,33.553663],[46.843477,33.546118],[46.866008,33.512838],[46.897427,33.498989],[46.923575,33.471187],[46.944556,33.464909],[46.999126,33.436977],[47.009462,33.43336],[47.013286,33.424808],[47.011839,33.414705],[47.000367,33.397238],[47.003157,33.388815],[47.016283,33.375534],[47.029409,33.365871],[47.047392,33.358817],[47.085116,33.348843],[47.086873,33.346208],[47.08832,33.341324],[47.091627,33.336673],[47.098759,33.334555],[47.104133,33.33564],[47.109197,33.340317],[47.115915,33.341402],[47.123667,33.339929],[47.129248,33.336208],[47.134002,33.331558],[47.183508,33.299828],[47.201181,33.292981],[47.201078,33.279804],[47.219371,33.264197],[47.2449,33.251252],[47.287378,33.242467],[47.410367,33.190791],[47.420909,33.180326],[47.426491,33.167872],[47.439513,33.164384],[47.454292,33.163661],[47.465351,33.159527],[47.489226,33.135962],[47.508863,33.104517],[47.521782,33.092373],[47.540695,33.087541],[47.555475,33.08134],[47.588134,33.050954],[47.705853,32.920833],[47.866877,32.635476],[47.886514,32.611188],[47.898813,32.601473],[47.806829,32.420502],[47.733759,32.334978],[47.735412,32.284102],[47.747298,32.220204],[47.711538,32.170724],[47.607048,32.112562],[47.580232,32.103495],[47.578057,32.106155],[47.55873,32.112976],[47.54364,32.114578],[47.534752,32.123157],[47.52669,32.133389],[47.513823,32.140313],[47.498165,32.144137],[47.491344,32.148633],[47.490413,32.15654],[47.492481,32.170492],[47.496408,32.181344],[47.502351,32.190129],[47.507673,32.199844],[47.509224,32.213797],[47.504004,32.226742],[47.484522,32.239351],[47.479148,32.252063],[47.469433,32.25612],[47.463025,32.26183],[47.445352,32.28263],[47.441579,32.288185],[47.436877,32.293689],[47.407059,32.31777],[47.40246,32.323506],[47.395794,32.33702],[47.395949,32.34198],[47.39998,32.345779],[47.408765,32.364331],[47.414346,32.36986],[47.417963,32.376423],[47.416413,32.387973],[47.410832,32.395285],[47.384115,32.41257],[47.36732,32.430761],[47.356106,32.446186],[47.343342,32.458692],[47.321948,32.468226],[47.265311,32.484685],[47.251255,32.48546],[47.20547,32.46404],[47.187796,32.458382],[47.152553,32.455178],[47.12103,32.461043],[47.090593,32.474556],[47.058657,32.4944],[47.058605,32.494478],[47.058398,32.494478],[46.757332,32.716195],[46.715887,32.756012],[46.650361,32.789369],[46.604421,32.820685],[46.600598,32.822519],[46.507321,32.868021],[46.479312,32.891792],[46.379629,32.931764],[46.273433,32.959488],[46.15556,32.948352],[46.09701,32.95432],[46.075719,32.994344],[46.075719,32.994499],[46.088018,33.00672],[46.104658,33.018063],[46.119489,33.031008],[46.126156,33.047984],[46.12042,33.061678],[46.106002,33.072504],[46.087192,33.079222],[46.043267,33.08346],[46.029314,33.093511],[46.030296,33.105681],[46.050398,33.115112],[46.072412,33.116765],[46.089155,33.11568],[46.105382,33.118393],[46.126466,33.131777],[46.153441,33.154256],[46.167187,33.168338],[46.174318,33.18118],[46.173698,33.190223],[46.162122,33.196373],[46.157678,33.205675],[46.15835,33.213865],[46.164396,33.233063],[46.164189,33.243347],[46.155301,33.260219],[46.141349,33.272105],[46.109516,33.293705],[46.069725,33.34086],[46.036239,33.367939],[46.031071,33.382511],[46.030503,33.399203],[46.027454,33.419512],[46.019392,33.438399],[46.008023,33.455659],[45.974434,33.490799],[45.971385,33.492763],[45.968232,33.494236],[45.964461,33.495966],[45.963272,33.496561],[45.958156,33.497388],[45.953143,33.496587],[45.948182,33.494262],[45.929682,33.479508],[45.899399,33.476304],[45.869737,33.482118],[45.852581,33.494365],[45.868187,33.511573],[45.915626,33.535809],[45.927925,33.550873],[45.920897,33.572991],[45.89971,33.58516],[45.882036,33.600198],[45.885964,33.63092],[45.864363,33.626424],[45.815787,33.625804],[45.797545,33.619319],[45.768451,33.595909],[45.752018,33.586762],[45.734552,33.583119]]]}}]}
