{"type":"FeatureCollection","features":[{"type":"Feature","properties":{"id":"ID-JB","country":"ID","name_en":"West Java"},"geometry":{"type":"Polygon","coordinates":[[[106.988292,-6.07936],[106.9935,-6.078546],[107.005138,-6.072361],[107.008556,-6.053155],[107.013927,-6.04046],[107.014985,-6.028985],[107.005138,-6.01393],[106.999034,-6.003513],[107.004568,-5.988214],[107.025645,-5.958673],[107.021251,-5.924086],[107.044444,-5.914321],[107.080333,-5.921563],[107.114431,-5.938165],[107.125743,-5.948907],[107.136485,-5.961602],[107.150076,-5.973077],[107.169688,-5.97975],[107.187755,-5.980157],[107.205333,-5.977309],[107.280935,-5.954767],[107.320647,-5.962416],[107.354136,-5.975995],[107.379631,-6.008516],[107.413078,-6.063174],[107.445655,-6.104323],[107.470268,-6.145432],[107.510779,-6.164444],[107.563179,-6.184247],[107.621132,-6.187474],[107.655222,-6.225378],[107.678224,-6.238023],[107.699661,-6.226998],[107.715526,-6.23569],[107.732194,-6.232548],[107.7449,-6.223092],[107.768077,-6.213311],[107.773692,-6.20794],[107.78297,-6.205743],[107.792979,-6.20794],[107.802908,-6.211521],[107.810313,-6.211196],[107.813243,-6.202325],[107.810836,-6.189347],[107.826263,-6.18513],[107.847684,-6.191952],[107.849403,-6.205528],[107.86396,-6.206398],[107.877661,-6.191152],[107.885359,-6.186922],[107.895631,-6.209831],[107.895624,-6.231025],[107.947276,-6.263116],[107.990471,-6.281092],[108.049343,-6.309907],[108.07407,-6.318379],[108.093683,-6.326847],[108.113289,-6.326847],[108.12948,-6.326001],[108.142261,-6.322615],[108.15845,-6.31161],[108.183604,-6.29697],[108.187022,-6.294529],[108.195077,-6.287061],[108.203594,-6.276058],[108.206999,-6.262513],[108.205294,-6.249816],[108.198481,-6.240505],[108.186557,-6.231193],[108.198481,-6.227808],[108.216364,-6.237965],[108.248723,-6.247275],[108.310882,-6.248956],[108.332173,-6.261647],[108.338981,-6.250642],[108.360269,-6.246401],[108.364535,-6.272639],[108.372227,-6.340353],[108.455414,-6.442071],[108.47462,-6.452081],[108.487804,-6.456801],[108.539561,-6.486912],[108.574555,-6.66961],[108.605479,-6.761651],[108.663097,-6.767348],[108.705333,-6.795994],[108.74879,-6.812188],[108.792247,-6.81113],[108.834972,-6.787856],[108.843272,-6.797947],[108.858653,-6.802423],[108.87615,-6.804864],[108.889659,-6.809015],[108.89512,-6.814155],[108.892971,-6.815708],[108.823156,-6.895599],[108.800677,-6.93477],[108.79613,-6.950583],[108.789463,-7.000038],[108.790549,-7.029596],[108.793184,-7.047683],[108.788998,-7.061326],[108.781143,-7.072643],[108.769465,-7.083443],[108.757011,-7.098171],[108.74373,-7.111349],[108.717168,-7.13021],[108.707143,-7.13543],[108.695464,-7.139822],[108.669522,-7.141166],[108.631644,-7.135792],[108.613712,-7.13667],[108.595418,-7.142096],[108.583533,-7.151139],[108.575678,-7.16318],[108.572577,-7.178735],[108.570717,-7.201214],[108.546894,-7.27878],[108.553044,-7.309993],[108.578882,-7.317021],[108.60255,-7.322964],[108.610715,-7.338622],[108.615934,-7.345908],[108.626424,-7.348337],[108.650299,-7.340534],[108.661771,-7.340379],[108.668179,-7.344203],[108.670763,-7.35769],[108.675413,-7.379601],[108.6827,-7.383063],[108.692983,-7.386164],[108.704662,-7.39097],[108.709727,-7.398049],[108.712827,-7.406266],[108.716393,-7.421407],[108.721405,-7.463989],[108.741559,-7.536542],[108.742283,-7.551838],[108.741559,-7.563931],[108.736082,-7.580622],[108.733808,-7.590751],[108.733601,-7.6046],[108.736908,-7.612248],[108.741559,-7.617623],[108.799001,-7.664727],[108.788259,-7.673517],[108.761054,-7.692765],[108.735362,-7.678643],[108.729015,-7.675958],[108.721934,-7.670343],[108.713878,-7.665704],[108.703949,-7.665623],[108.691742,-7.672296],[108.681714,-7.682244],[108.673149,-7.690753],[108.679535,-7.710219],[108.677745,-7.718927],[108.672618,-7.720636],[108.651741,-7.716271],[108.646495,-7.692966],[108.638927,-7.687921],[108.625499,-7.68613],[108.559418,-7.687433],[108.539561,-7.692315],[108.507823,-7.719496],[108.503834,-7.764224],[108.495266,-7.792923],[108.453711,-7.818501],[108.326829,-7.817471],[108.13791,-7.786661],[107.953531,-7.739873],[107.905286,-7.738784],[107.864534,-7.74513],[107.830228,-7.729167],[107.828145,-7.700494],[107.806739,-7.686676],[107.778796,-7.680249],[107.714397,-7.671659],[107.686549,-7.662075],[107.678013,-7.639753],[107.66084,-7.614208],[107.625469,-7.59822],[107.59096,-7.570434],[107.555448,-7.561823],[107.528514,-7.548963],[107.481151,-7.538194],[107.470509,-7.51691],[107.452079,-7.512537],[107.431895,-7.506524],[107.426036,-7.507908],[107.420177,-7.505629],[107.411388,-7.495864],[107.361531,-7.503713],[107.29779,-7.496137],[107.246326,-7.489654],[107.212008,-7.485329],[107.179859,-7.475696],[107.145586,-7.46712],[107.107049,-7.456406],[106.871417,-7.437711],[106.791022,-7.435331],[106.607921,-7.417901],[106.522662,-7.410957],[106.480826,-7.375669],[106.459331,-7.365995],[106.43393,-7.361993],[106.40748,-7.375317],[106.39776,-7.378465],[106.398895,-7.360363],[106.399058,-7.334824],[106.375365,-7.310194],[106.383149,-7.267673],[106.380707,-7.247247],[106.386078,-7.230645],[106.398448,-7.207778],[106.414887,-7.187677],[106.432628,-7.178888],[106.450043,-7.179132],[106.467296,-7.176446],[106.472992,-7.166599],[106.456554,-7.144789],[106.474376,-7.128106],[106.513967,-7.079597],[106.540504,-7.054612],[106.542003,-7.016778],[106.537149,-6.982962],[106.510804,-6.963799],[106.481456,-6.967055],[106.451702,-6.955059],[106.42387,-6.963221],[106.404633,-6.991306],[106.399997,-6.978075],[106.39731,-6.966913],[106.396948,-6.953322],[106.402994,-6.931153],[106.412658,-6.904591],[106.450795,-6.836223],[106.506088,-6.783462],[106.508414,-6.767959],[106.48919,-6.750905],[106.475858,-6.744704],[106.443922,-6.734937],[106.43524,-6.720468],[106.426558,-6.6968],[106.405268,-6.524098],[106.409505,-6.491903],[106.423871,-6.463688],[106.43369,-6.438987],[106.431623,-6.412166],[106.426352,-6.38762],[106.420771,-6.370412],[106.430589,-6.350413],[106.444232,-6.341576],[106.452397,-6.337546],[106.462422,-6.337856],[106.468623,-6.345917],[106.472757,-6.359612],[106.480095,-6.372686],[106.489449,-6.376613],[106.502109,-6.370722],[106.515442,-6.360645],[106.531565,-6.353514],[106.560297,-6.355219],[106.580761,-6.363591],[106.601121,-6.376148],[106.630887,-6.384365],[106.739149,-6.386483],[106.766176,-6.370257],[106.762455,-6.354185],[106.76292,-6.301424],[106.776718,-6.30995],[106.779819,-6.317289],[106.784469,-6.325815],[106.791187,-6.332636],[106.802866,-6.339768],[106.814442,-6.349793],[106.824519,-6.35124],[106.833665,-6.348449],[106.853716,-6.335789],[106.88467,-6.35124],[106.923892,-6.381522],[106.940894,-6.373771],[106.952728,-6.345917],[106.971021,-6.277859],[106.979703,-6.262356],[106.983269,-6.249696],[106.984974,-6.235433],[106.984664,-6.200913],[106.987661,-6.145671],[106.989315,-6.082316],[106.988292,-6.07936]]]}},{"type":"Feature","properties":{"id":"ID-BT","country":"ID","name_en":"Banten"},"geometry":{"type":"MultiPolygon","coordinates":[[[[106.404633,-6.991306],[106.401622,-6.993097],[106.378917,-6.99977],[106.354503,-7.002699],[106.333018,-7.000746],[106.319672,-6.996189],[106.311046,-6.991469],[106.302419,-6.98797],[106.288585,-6.986505],[106.283376,-6.983331],[106.273204,-6.969334],[106.267833,-6.966078],[106.254242,-6.964288],[106.250336,-6.959568],[106.24936,-6.952813],[106.244151,-6.945571],[106.237559,-6.940606],[106.201162,-6.913679],[106.168371,-6.915809],[106.124707,-6.896279],[106.052985,-6.836806],[106.008311,-6.821954],[105.978706,-6.817712],[105.959573,-6.817628],[105.939626,-6.820977],[105.918956,-6.823989],[105.901622,-6.829522],[105.898192,-6.843176],[105.88438,-6.847673],[105.873735,-6.834708],[105.854503,-6.838149],[105.823133,-6.83904],[105.792418,-6.845744],[105.774744,-6.850227],[105.755604,-6.844816],[105.723318,-6.838556],[105.702891,-6.835707],[105.596532,-6.849073],[105.555188,-6.85568],[105.535121,-6.872327],[105.49846,-6.860727],[105.486135,-6.867516],[105.470958,-6.853448],[105.46046,-6.84531],[105.442231,-6.842543],[105.438813,-6.845961],[105.429698,-6.852716],[105.420095,-6.856866],[105.415538,-6.852797],[105.413585,-6.845798],[105.408946,-6.838149],[105.403087,-6.832127],[105.39796,-6.829522],[105.356126,-6.812872],[105.310784,-6.810354],[105.301117,-6.814142],[105.296397,-6.833266],[105.291189,-6.840997],[105.283702,-6.846938],[105.274669,-6.849379],[105.256114,-6.84238],[105.247081,-6.825453],[105.236176,-6.787856],[105.222179,-6.778497],[105.216807,-6.772068],[105.219737,-6.764337],[105.227061,-6.762628],[105.260753,-6.767348],[105.274669,-6.761651],[105.29184,-6.748224],[105.319347,-6.719659],[105.328868,-6.702732],[105.336274,-6.684828],[105.346365,-6.670668],[105.36378,-6.664972],[105.376231,-6.670017],[105.389822,-6.68141],[105.401378,-6.695001],[105.408214,-6.705987],[105.410818,-6.718438],[105.410411,-6.728774],[105.411632,-6.738946],[105.435395,-6.778253],[105.440684,-6.794122],[105.453624,-6.80877],[105.471202,-6.815851],[105.490082,-6.809015],[105.502615,-6.791111],[105.517263,-6.744236],[105.528575,-6.723321],[105.607432,-6.651462],[105.622244,-6.631606],[105.62794,-6.615981],[105.618974,-6.532505],[105.643859,-6.482333],[105.656242,-6.473264],[105.67779,-6.474924],[105.682238,-6.511535],[105.699111,-6.520774],[105.711364,-6.534563],[105.739085,-6.530149],[105.782234,-6.512107],[105.808534,-6.477216],[105.824091,-6.434646],[105.8213,-6.401137],[105.832367,-6.228692],[105.83961,-6.192071],[105.867198,-6.110121],[105.887869,-6.070571],[105.957042,-5.998712],[105.966807,-5.992852],[105.977306,-5.983494],[105.997244,-5.917739],[106.02003,-5.893243],[106.052745,-5.881036],[106.085216,-5.885512],[106.107107,-5.910903],[106.111583,-5.975193],[106.117931,-5.986017],[106.128673,-5.99033],[106.15919,-6.009535],[106.176036,-6.01393],[106.209483,-5.998305],[106.231456,-5.966974],[106.256521,-5.941583],[106.298839,-5.945001],[106.361013,-5.993422],[106.384939,-6.000258],[106.409353,-6.004327],[106.470063,-6.034356],[106.495372,-6.034845],[106.512055,-6.024835],[106.52768,-6.012465],[106.549327,-6.006524],[106.662934,-6.007989],[106.685395,-6.012465],[106.705821,-6.020196],[106.720876,-6.030938],[106.729015,-6.04754],[106.731049,-6.058852],[106.726799,-6.061025],[106.694552,-6.086295],[106.684114,-6.101901],[106.701994,-6.210112],[106.730623,-6.243081],[106.741991,-6.284474],[106.753464,-6.299202],[106.76292,-6.301424],[106.762455,-6.354185],[106.766176,-6.370257],[106.739149,-6.386483],[106.630887,-6.384365],[106.601121,-6.376148],[106.580761,-6.363591],[106.560297,-6.355219],[106.531565,-6.353514],[106.515442,-6.360645],[106.502109,-6.370722],[106.489449,-6.376613],[106.480095,-6.372686],[106.472757,-6.359612],[106.468623,-6.345917],[106.462422,-6.337856],[106.452397,-6.337546],[106.444232,-6.341576],[106.430589,-6.350413],[106.420771,-6.370412],[106.426352,-6.38762],[106.431623,-6.412166],[106.43369,-6.438987],[106.423871,-6.463688],[106.409505,-6.491903],[106.405268,-6.524098],[106.426558,-6.6968],[106.43524,-6.720468],[106.443922,-6.734937],[106.475858,-6.744704],[106.48919,-6.750905],[106.508414,-6.767959],[106.506088,-6.783462],[106.450795,-6.836223],[106.412658,-6.904591],[106.402994,-6.931153],[106.396948,-6.953322],[106.39731,-6.966913],[106.399997,-6.978075],[106.404633,-6.991306]]],[[[105.264171,-6.527927],[105.265636,-6.553318],[105.263845,-6.59238],[105.256033,-6.628188],[105.239919,-6.643976],[105.222423,-6.649347],[105.203868,-6.673272],[105.192149,-6.678806],[105.182953,-6.671563],[105.185069,-6.655043],[105.193533,-6.636651],[105.202159,-6.623468],[105.189952,-6.617852],[105.182953,-6.60768],[105.175466,-6.583103],[105.132091,-6.626886],[105.120128,-6.630955],[105.117686,-6.6124],[105.13795,-6.587335],[105.188487,-6.547621],[105.195811,-6.555108],[105.204112,-6.54518],[105.215587,-6.538832],[105.225597,-6.536391],[105.229991,-6.538181],[105.233572,-6.531834],[105.242035,-6.528416],[105.253184,-6.527276],[105.264171,-6.527927]]]]}}]}
