{"type":"FeatureCollection","features":[{"type":"Feature","properties":{"id":"LK-41","country":"LK","name_en":"Jaffna"},"geometry":{"type":"MultiPolygon","coordinates":[[[[80.44174,9.576898],[80.444021,9.575914],[80.444021,9.583319],[80.407725,9.601508],[80.319835,9.672756],[80.247813,9.755072],[80.211192,9.774563],[80.153819,9.787991],[80.138682,9.798733],[80.136729,9.81391],[80.157725,9.822943],[80.164561,9.824083],[80.185395,9.827541],[80.226817,9.829576],[80.246755,9.825873],[80.26059,9.81623],[80.269786,9.783515],[80.278982,9.769843],[80.409923,9.617499],[80.42921,9.603461],[80.468272,9.581366],[80.625981,9.454753],[80.625911,9.454695],[80.619917,9.449656],[80.614757,9.446194],[80.546723,9.492418],[80.523285,9.50316],[80.502452,9.507636],[80.49936,9.50906],[80.496349,9.510484],[80.478282,9.524075],[80.471446,9.528062],[80.46461,9.52912],[80.456391,9.528713],[80.454449,9.538695],[80.44174,9.576898]]],[[[80.256026,9.61559],[80.2046,9.637885],[80.186046,9.648505],[80.173595,9.648668],[80.175955,9.624335],[80.182872,9.617174],[80.193614,9.609076],[80.199962,9.599189],[80.193614,9.586412],[80.186046,9.584133],[80.178722,9.588039],[80.172048,9.593573],[80.152843,9.603461],[80.115489,9.635728],[80.094005,9.644843],[80.094086,9.644761],[80.104991,9.63288],[80.124685,9.616034],[80.13559,9.603827],[80.111339,9.608466],[80.087413,9.618354],[80.039317,9.644843],[80.000987,9.674709],[79.978201,9.682685],[79.975922,9.684068],[79.967296,9.689602],[79.959239,9.692816],[79.958018,9.685736],[79.947032,9.693183],[79.942882,9.702826],[79.940929,9.714342],[79.937022,9.727362],[79.930431,9.738471],[79.926524,9.743516],[79.91627,9.756781],[79.909679,9.768297],[79.931326,9.779039],[79.970714,9.815131],[79.988455,9.822943],[79.988536,9.822943],[80.066661,9.816107],[80.107432,9.820624],[80.122325,9.818915],[80.128184,9.805569],[80.127208,9.784613],[80.130138,9.77733],[80.138682,9.774563],[80.146983,9.773383],[80.170909,9.767279],[80.175955,9.764594],[80.180431,9.755805],[80.191173,9.756171],[80.199636,9.758734],[80.202891,9.759711],[80.207774,9.760403],[80.211192,9.760891],[80.211274,9.76085],[80.219005,9.756374],[80.222341,9.754462],[80.250336,9.72427],[80.290672,9.680808],[80.290634,9.680727],[80.277095,9.65215],[80.256026,9.61559]]],[[[79.730805,9.50019],[79.72283,9.492621],[79.714692,9.485053],[79.689464,9.483588],[79.666026,9.491278],[79.655772,9.503892],[79.655772,9.544867],[79.658702,9.555365],[79.665294,9.554023],[79.67213,9.5456],[79.67628,9.53498],[79.693533,9.529608],[79.714122,9.528062],[79.719249,9.524359],[79.730805,9.50019]]],[[[79.895844,9.617499],[79.880382,9.628607],[79.864919,9.651516],[79.840668,9.699408],[79.851736,9.716539],[79.854259,9.738471],[79.860525,9.756252],[79.882335,9.760891],[79.893891,9.757432],[79.894054,9.757392],[79.89503,9.748969],[79.891124,9.737209],[79.888438,9.723619],[79.888845,9.709906],[79.89031,9.698961],[79.890391,9.69831],[79.891287,9.696112],[79.894705,9.688178],[79.899262,9.68301],[79.902843,9.678941],[79.907074,9.677883],[79.926443,9.678941],[79.929698,9.675971],[79.931163,9.660956],[79.933604,9.654731],[79.944998,9.64761],[79.96046,9.641059],[79.973399,9.633775],[79.974457,9.631496],[79.977875,9.624335],[79.970958,9.617255],[79.957774,9.617174],[79.943614,9.621527],[79.933604,9.627753],[79.926524,9.629462],[79.908539,9.618964],[79.895925,9.617499],[79.895844,9.617499]]]]}},{"type":"Feature","properties":{"id":"LK-42","country":"LK","name_en":"Kilinochchi"},"geometry":{"type":"MultiPolygon","coordinates":[[[[80.290672,9.680808],[80.338552,9.629218],[80.36964,9.609849],[80.44174,9.576898],[80.454449,9.538695],[80.456391,9.528713],[80.444021,9.528062],[80.436209,9.525092],[80.435069,9.523383],[80.432872,9.519761],[80.428966,9.517768],[80.415701,9.527493],[80.410411,9.528388],[80.37794,9.527533],[80.368663,9.530219],[80.297537,9.591254],[80.267019,9.610826],[80.266938,9.610826],[80.256026,9.61559],[80.277095,9.65215],[80.290634,9.680727],[80.290672,9.680808]]],[[[80.109793,9.209459],[80.115977,9.233832],[80.115977,9.291938],[80.118175,9.300442],[80.116222,9.306179],[80.104503,9.308417],[80.076915,9.322659],[80.066173,9.332587],[80.059418,9.351386],[80.058279,9.354804],[80.053477,9.378241],[80.052989,9.391547],[80.064952,9.404039],[80.087087,9.414984],[80.111664,9.422756],[80.131847,9.425727],[80.14088,9.430325],[80.162852,9.459215],[80.165375,9.461086],[80.1692,9.464016],[80.176524,9.468329],[80.185557,9.471666],[80.197032,9.473456],[80.187511,9.490871],[80.181814,9.498521],[80.176036,9.506171],[80.161306,9.520575],[80.141856,9.53498],[80.067882,9.57803],[80.052989,9.596381],[80.085216,9.595364],[80.115733,9.583238],[80.175955,9.54857],[80.233409,9.534247],[80.248546,9.524644],[80.272227,9.504136],[80.278087,9.493272],[80.26588,9.487128],[80.268565,9.480292],[80.272146,9.473456],[80.26588,9.466702],[80.265961,9.466661],[80.286876,9.452704],[80.336274,9.464667],[80.426606,9.50019],[80.450938,9.49787],[80.504242,9.483303],[80.567149,9.455227],[80.614594,9.446194],[80.614757,9.446194],[80.609995,9.441388],[80.607824,9.424774],[80.58643,9.408237],[80.583536,9.385371],[80.586224,9.36271],[80.563383,9.375087],[80.543746,9.391546],[80.536201,9.400951],[80.531343,9.39953],[80.517494,9.35421],[80.500647,9.345166],[80.475326,9.343616],[80.429747,9.345941],[80.416311,9.345425],[80.399155,9.302197],[80.372697,9.299769],[80.345721,9.304626],[80.318333,9.304239],[80.241542,9.295299],[80.215497,9.261709],[80.218081,9.23401],[80.191726,9.237214],[80.172605,9.223029],[80.151521,9.21241],[80.117105,9.209412],[80.109793,9.209459]]]]}},{"type":"Feature","properties":{"id":"LK-43","country":"LK","name_en":"Mannar"},"geometry":{"type":"MultiPolygon","coordinates":[[[[79.912782,8.572006],[79.916515,8.575995],[79.918142,8.580919],[79.928071,8.611518],[79.929454,8.61282],[79.930186,8.613511],[79.932384,8.622463],[79.941661,8.642483],[79.950531,8.739814],[79.926443,8.801907],[79.928396,8.81269],[79.930186,8.88349],[79.930186,8.884426],[79.927745,8.908108],[79.924815,8.919745],[79.919607,8.928534],[79.915538,8.938544],[79.924815,8.943508],[79.938243,8.94599],[79.947113,8.948676],[80.005138,9.000556],[80.035411,9.015326],[80.048025,9.026272],[80.054698,9.050605],[80.066661,9.075629],[80.073497,9.110419],[80.105642,9.192857],[80.106781,9.197414],[80.109793,9.209459],[80.117105,9.209412],[80.151521,9.21241],[80.172605,9.223029],[80.191726,9.237214],[80.192863,9.203159],[80.19896,9.170526],[80.217461,9.141406],[80.219424,9.134326],[80.220561,9.126963],[80.219734,9.111666],[80.216014,9.097223],[80.218287,9.07371],[80.21684,9.053272],[80.194826,9.045805],[80.190382,9.035831],[80.187075,9.02485],[80.181804,9.013481],[80.178393,9.001906],[80.183147,8.992966],[80.187695,8.98617],[80.174983,8.950255],[80.340037,8.95904],[80.367116,8.946431],[80.382618,8.921807],[80.397811,8.883489],[80.392747,8.848582],[80.339004,8.828945],[80.282676,8.821942],[80.246503,8.825947],[80.218494,8.810599],[80.203611,8.777061],[80.177773,8.774503],[80.174052,8.759698],[80.173846,8.74665],[80.197513,8.72877],[80.235341,8.680349],[80.138086,8.655053],[80.088993,8.655208],[80.044448,8.673192],[80.052406,8.614591],[80.050339,8.521909],[80.040727,8.52302],[80.032459,8.527077],[80.005794,8.54196],[79.980162,8.552734],[79.950603,8.555447],[79.924248,8.565421],[79.912782,8.572006]]],[[[79.714122,9.075629],[79.702973,9.079983],[79.698009,9.089586],[79.701182,9.099189],[79.714122,9.103583],[79.7588,9.103583],[79.778575,9.098538],[79.799001,9.093329],[79.841645,9.077216],[79.882335,9.053778],[79.916515,9.020982],[79.916433,9.021023],[79.900076,9.0244],[79.871267,9.03856],[79.85434,9.04149],[79.8803,9.012193],[79.900727,8.989081],[79.909679,8.973212],[79.885753,8.976223],[79.870128,8.988186],[79.859386,9.001207],[79.851329,9.007392],[79.840994,9.0126],[79.799815,9.048977],[79.779389,9.05801],[79.758962,9.067043],[79.743988,9.071072],[79.736013,9.073228],[79.714122,9.075629]]]]}},{"type":"Feature","properties":{"id":"LK-44","country":"LK","name_en":"Vavuniya"},"geometry":{"type":"Polygon","coordinates":[[[80.753035,8.90509],[80.725543,8.899922],[80.699292,8.892507],[80.670249,8.872379],[80.595835,8.869821],[80.597696,8.847884],[80.623741,8.838944],[80.642137,8.81538],[80.650509,8.78949],[80.626738,8.770834],[80.612682,8.753807],[80.60059,8.73541],[80.578782,8.71014],[80.553461,8.687558],[80.526796,8.667378],[80.494963,8.667146],[80.478013,8.679135],[80.459513,8.688876],[80.429024,8.675001],[80.389646,8.62428],[80.371043,8.581182],[80.353266,8.573508],[80.33797,8.546145],[80.328255,8.546714],[80.317816,8.549608],[80.296732,8.56077],[80.286087,8.581957],[80.282366,8.595522],[80.275958,8.607847],[80.261179,8.614539],[80.245986,8.619707],[80.235754,8.64787],[80.235341,8.680349],[80.197513,8.72877],[80.173846,8.74665],[80.174052,8.759698],[80.177773,8.774503],[80.203611,8.777061],[80.218494,8.810599],[80.246503,8.825947],[80.282676,8.821942],[80.339004,8.828945],[80.392747,8.848582],[80.397811,8.883489],[80.382618,8.921807],[80.367116,8.946431],[80.340037,8.95904],[80.386442,8.987927],[80.414348,9.010355],[80.432228,9.037149],[80.430988,9.054047],[80.42737,9.071126],[80.427474,9.080066],[80.42644,9.088205],[80.411764,9.090557],[80.404012,9.100995],[80.406596,9.115568],[80.42458,9.117273],[80.443907,9.116111],[80.478323,9.117092],[80.503335,9.101331],[80.518734,9.078593],[80.543332,9.08942],[80.560489,9.104587],[80.570411,9.109367],[80.579919,9.114793],[80.581779,9.119883],[80.584053,9.124792],[80.616609,9.125671],[80.647615,9.113888],[80.651233,9.081797],[80.678104,9.078878],[80.68968,9.058698],[80.680068,9.044616],[80.678414,9.031025],[80.694021,9.034746],[80.708697,9.044668],[80.740219,9.039914],[80.772052,9.020587],[80.784144,9.004541],[80.765748,8.936819],[80.757479,8.922582],[80.753035,8.90509]]]}},{"type":"Feature","properties":{"id":"LK-45","country":"LK","name_en":"Mullaitivu"},"geometry":{"type":"Polygon","coordinates":[[[80.625981,9.454753],[80.744395,9.359687],[80.745453,9.357896],[80.752452,9.346259],[80.763682,9.332424],[80.785167,9.312405],[80.798839,9.294867],[80.786713,9.28856],[80.786632,9.28852],[80.779796,9.291571],[80.778982,9.291938],[80.778819,9.291978],[80.768321,9.305406],[80.762543,9.308336],[80.762462,9.308417],[80.744395,9.311347],[80.736501,9.308987],[80.740408,9.301011],[80.74171,9.298489],[80.79363,9.250556],[80.813894,9.239529],[80.813975,9.239488],[80.805919,9.251899],[80.801036,9.263251],[80.803559,9.271633],[80.817393,9.274848],[80.823904,9.270494],[80.834483,9.239488],[80.844168,9.220404],[80.882172,9.145168],[80.874522,9.147976],[80.853363,9.155748],[80.840099,9.155992],[80.834483,9.14175],[80.842296,9.138129],[80.858572,9.135484],[80.873057,9.126451],[80.87322,9.12523],[80.875336,9.103583],[80.875499,9.103583],[80.882172,9.103583],[80.885509,9.10932],[80.88852,9.111802],[80.891938,9.11343],[80.896495,9.116604],[80.896495,9.116523],[80.901622,9.096666],[80.902192,9.094184],[80.916352,9.062161],[80.935313,9.033433],[80.9546,9.020982],[80.956065,9.019802],[80.958344,9.01789],[80.958263,9.010891],[80.953624,9.003852],[80.944347,9.000556],[80.941661,9.003485],[80.930675,9.020982],[80.918712,9.027248],[80.891287,9.034247],[80.875336,9.04149],[80.88266,9.031399],[80.886729,9.025784],[80.922862,8.992255],[80.922919,8.988916],[80.922844,8.988883],[80.907031,8.981984],[80.887807,8.976558],[80.870444,8.966378],[80.851324,8.9609],[80.805022,8.954958],[80.765748,8.936819],[80.784144,9.004541],[80.772052,9.020587],[80.740219,9.039914],[80.708697,9.044668],[80.694021,9.034746],[80.678414,9.031025],[80.680068,9.044616],[80.68968,9.058698],[80.678104,9.078878],[80.651233,9.081797],[80.647615,9.113888],[80.616609,9.125671],[80.584053,9.124792],[80.581779,9.119883],[80.579919,9.114793],[80.570411,9.109367],[80.560489,9.104587],[80.543332,9.08942],[80.518734,9.078593],[80.503335,9.101331],[80.478323,9.117092],[80.443907,9.116111],[80.42458,9.117273],[80.406596,9.115568],[80.404012,9.100995],[80.411764,9.090557],[80.42644,9.088205],[80.427474,9.080066],[80.42737,9.071126],[80.430988,9.054047],[80.432228,9.037149],[80.414348,9.010355],[80.386442,8.987927],[80.340037,8.95904],[80.174983,8.950255],[80.187695,8.98617],[80.183147,8.992966],[80.178393,9.001906],[80.181804,9.013481],[80.187075,9.02485],[80.190382,9.035831],[80.194826,9.045805],[80.21684,9.053272],[80.218287,9.07371],[80.216014,9.097223],[80.219734,9.111666],[80.220561,9.126963],[80.219424,9.134326],[80.217461,9.141406],[80.19896,9.170526],[80.192863,9.203159],[80.191726,9.237214],[80.218081,9.23401],[80.215497,9.261709],[80.241542,9.295299],[80.318333,9.304239],[80.345721,9.304626],[80.372697,9.299769],[80.399155,9.302197],[80.416311,9.345425],[80.429747,9.345941],[80.475326,9.343616],[80.500647,9.345166],[80.517494,9.35421],[80.531343,9.39953],[80.536201,9.400951],[80.543746,9.391546],[80.563383,9.375087],[80.586224,9.36271],[80.583536,9.385371],[80.58643,9.408237],[80.607824,9.424774],[80.609995,9.441388],[80.614757,9.446194],[80.619917,9.449656],[80.625911,9.454695],[80.625981,9.454753]]]}},{"type":"Feature","properties":{"id":"LK-51","country":"LK","name_en":"Batticaloa"},"geometry":{"type":"MultiPolygon","coordinates":[[[[81.416677,8.253852],[81.416677,8.25377],[81.41977,8.243394],[81.440603,8.173529],[81.448497,8.127997],[81.430349,8.103135],[81.430349,8.103013],[81.420258,8.144232],[81.418793,8.150051],[81.403575,8.191799],[81.396251,8.191799],[81.39503,8.160102],[81.396251,8.150133],[81.395518,8.150458],[81.394786,8.14761],[81.394786,8.147528],[81.394786,8.142564],[81.396251,8.136542],[81.399587,8.132636],[81.408051,8.130072],[81.408132,8.130032],[81.409841,8.126899],[81.417979,8.105943],[81.435557,8.093166],[81.435639,8.093166],[81.452403,8.09455],[81.458263,8.116034],[81.464366,8.116034],[81.470714,8.10456],[81.472423,8.101467],[81.480642,8.065375],[81.489024,8.0515],[81.500173,8.039374],[81.507335,8.027574],[81.519705,7.999335],[81.524587,8.004218],[81.531016,8.009019],[81.533946,8.013617],[81.538341,8.004299],[81.533946,7.999335],[81.536143,7.995754],[81.538097,7.993394],[81.538422,7.992784],[81.539561,7.99079],[81.540212,7.986314],[81.540294,7.986396],[81.545258,7.990465],[81.555512,7.995347],[81.56072,7.999335],[81.56072,7.999254],[81.56308,7.993638],[81.565929,7.986802],[81.563813,7.978705],[81.560313,7.970649],[81.560476,7.964423],[81.56072,7.958401],[81.567719,7.944973],[81.580089,7.935574],[81.588145,7.929429],[81.59547,7.917426],[81.590831,7.917141],[81.588471,7.915554],[81.58546,7.91352],[81.583588,7.91234],[81.581716,7.9112],[81.578787,7.900295],[81.575857,7.88939],[81.587576,7.855292],[81.593923,7.848049],[81.608246,7.831692],[81.608409,7.831692],[81.629568,7.835517],[81.636404,7.835517],[81.643321,7.814643],[81.651215,7.801744],[81.653656,7.797756],[81.696788,7.752997],[81.710704,7.731147],[81.713145,7.711819],[81.69101,7.705186],[81.690929,7.705146],[81.680675,7.712063],[81.656098,7.743109],[81.64324,7.754136],[81.626638,7.760199],[81.626475,7.760199],[81.624766,7.760037],[81.612966,7.759019],[81.60255,7.74844],[81.59547,7.726264],[81.607432,7.720852],[81.618988,7.719224],[81.628917,7.722886],[81.636404,7.7331],[81.648204,7.728705],[81.659028,7.723334],[81.662771,7.71894],[81.665294,7.715847],[81.663748,7.705146],[81.677013,7.692816],[81.690278,7.680487],[81.700694,7.668606],[81.711599,7.650539],[81.711518,7.650499],[81.706391,7.644599],[81.705089,7.638861],[81.706798,7.631985],[81.711599,7.622545],[81.717784,7.630072],[81.714041,7.643663],[81.714041,7.643744],[81.725841,7.639594],[81.749034,7.622545],[81.754568,7.614569],[81.77296,7.56802],[81.771821,7.565985],[81.766124,7.540676],[81.766938,7.537909],[81.7671,7.537502],[81.771821,7.527818],[81.77296,7.523912],[81.769054,7.517035],[81.761892,7.511542],[81.757579,7.505439],[81.762706,7.496568],[81.767589,7.49018],[81.769298,7.485175],[81.769542,7.484524],[81.772472,7.478827],[81.779796,7.472357],[81.769054,7.464667],[81.77003,7.460842],[81.750907,7.457866],[81.723519,7.453395],[81.703158,7.437143],[81.668225,7.402804],[81.660887,7.418927],[81.657889,7.475565],[81.650035,7.500085],[81.649621,7.525148],[81.62616,7.512152],[81.559601,7.504969],[81.493972,7.516208],[81.476919,7.532564],[81.445499,7.551322],[81.436301,7.566308],[81.434337,7.583026],[81.444156,7.61199],[81.445603,7.642014],[81.413873,7.648086],[81.383384,7.656716],[81.361267,7.67762],[81.327057,7.726764],[81.300392,7.735394],[81.268249,7.733792],[81.241171,7.739114],[81.227011,7.816474],[81.235796,7.893446],[81.243341,7.922488],[81.265769,7.9375],[81.294397,7.941454],[81.330674,7.936699],[81.339873,7.937397],[81.331604,7.974656],[81.314861,8.010777],[81.307523,8.047597],[81.315585,8.205288],[81.310314,8.257429],[81.326954,8.263294],[81.416677,8.253852]]],[[[81.73878,7.660468],[81.737071,7.670966],[81.733165,7.679104],[81.728363,7.689114],[81.725108,7.69892],[81.725597,7.709296],[81.728689,7.718492],[81.729991,7.728217],[81.725108,7.739814],[81.725108,7.739936],[81.737966,7.727484],[81.750255,7.698635],[81.759288,7.685289],[81.761485,7.679511],[81.770763,7.65469],[81.795095,7.616278],[81.806326,7.598578],[81.823253,7.511379],[81.823253,7.511298],[81.822602,7.49136],[81.807791,7.479193],[81.793712,7.49022],[81.789399,7.494737],[81.787364,7.496812],[81.786713,7.501776],[81.785981,7.5067],[81.786143,7.508775],[81.790294,7.571723],[81.787364,7.593451],[81.776378,7.602729],[81.772227,7.61164],[81.73878,7.660468]]]]}},{"type":"Feature","properties":{"id":"LK-52","country":"LK","name_en":"Ampara"},"geometry":{"type":"Polygon","coordinates":[[[81.77003,7.460842],[81.771007,7.456977],[81.779063,7.455308],[81.78712,7.465562],[81.793305,7.465562],[81.793386,7.465522],[81.801036,7.425198],[81.800792,7.410346],[81.800955,7.410346],[81.807791,7.410346],[81.807791,7.410712],[81.808604,7.424709],[81.811046,7.438544],[81.815278,7.450344],[81.821462,7.458726],[81.821462,7.465562],[81.820893,7.467108],[81.818696,7.473375],[81.820486,7.476508],[81.82602,7.474189],[81.834972,7.465562],[81.838064,7.457668],[81.840343,7.436469],[81.855724,7.412177],[81.880707,7.327094],[81.875987,7.091946],[81.878429,7.076117],[81.888682,7.040758],[81.89031,7.019924],[81.884613,6.98017],[81.838552,6.821438],[81.835948,6.80508],[81.834972,6.783433],[81.831554,6.765367],[81.817149,6.737494],[81.813975,6.725043],[81.808279,6.707953],[81.78891,6.677802],[81.779796,6.663601],[81.786632,6.639268],[81.775645,6.610419],[81.71205,6.510272],[81.703158,6.51322],[81.67887,6.520791],[81.66223,6.539679],[81.649415,6.541436],[81.637942,6.542185],[81.608073,6.578798],[81.634118,6.9457],[81.629157,6.965467],[81.617168,6.982572],[81.617065,7.001899],[81.61014,7.021122],[81.614791,7.040863],[81.616755,7.059647],[81.587196,7.077346],[81.551539,7.086493],[81.546372,7.09104],[81.540171,7.094709],[81.532729,7.094709],[81.524668,7.098223],[81.516916,7.111943],[81.512885,7.127446],[81.499966,7.150804],[81.511645,7.181836],[81.532522,7.206408],[81.548749,7.21912],[81.527045,7.248989],[81.524151,7.270487],[81.510198,7.294723],[81.488081,7.313817],[81.48405,7.333093],[81.485497,7.356967],[81.473611,7.409626],[81.475575,7.423061],[81.46896,7.424224],[81.462656,7.428022],[81.477435,7.450812],[81.457798,7.456109],[81.432787,7.442802],[81.420695,7.438616],[81.409636,7.433707],[81.405915,7.424353],[81.399094,7.413656],[81.385245,7.410091],[81.375013,7.409315],[81.375219,7.396241],[81.380697,7.384459],[81.381834,7.372703],[81.377286,7.362858],[81.370362,7.354538],[81.365711,7.34751],[81.345454,7.336348],[81.320649,7.337459],[81.320752,7.299064],[81.326023,7.261753],[81.30742,7.24824],[81.287163,7.241238],[81.278378,7.25749],[81.270523,7.276843],[81.267009,7.294775],[81.258017,7.31281],[81.251093,7.324411],[81.246958,7.333299],[81.234659,7.335625],[81.225978,7.333532],[81.210992,7.348234],[81.199933,7.371643],[81.193422,7.415646],[81.189391,7.4281],[81.186394,7.440425],[81.189184,7.449416],[81.194765,7.459726],[81.205307,7.508328],[81.201483,7.558324],[81.157041,7.56791],[81.107949,7.540574],[81.086658,7.52104],[81.074566,7.516415],[81.064541,7.514115],[81.046351,7.507759],[81.021753,7.548558],[81.013794,7.572536],[81.012451,7.588839],[81.00594,7.603076],[80.99085,7.612301],[80.98806,7.614936],[80.997671,7.662272],[80.995501,7.681521],[80.988266,7.704052],[80.98899,7.720769],[81.0078,7.720821],[81.04511,7.724387],[81.063404,7.727591],[81.099784,7.71369],[81.129343,7.684208],[81.177712,7.6693],[81.201276,7.655915],[81.22081,7.65359],[81.223187,7.663899],[81.227838,7.675604],[81.234246,7.68227],[81.239724,7.692993],[81.236623,7.716609],[81.241171,7.739114],[81.268249,7.733792],[81.300392,7.735394],[81.327057,7.726764],[81.361267,7.67762],[81.383384,7.656716],[81.413873,7.648086],[81.445603,7.642014],[81.444156,7.61199],[81.434337,7.583026],[81.436301,7.566308],[81.445499,7.551322],[81.476919,7.532564],[81.493972,7.516208],[81.559601,7.504969],[81.62616,7.512152],[81.649621,7.525148],[81.650035,7.500085],[81.657889,7.475565],[81.660887,7.418927],[81.668225,7.402804],[81.703158,7.437143],[81.723519,7.453395],[81.750907,7.457866],[81.77003,7.460842]]]}},{"type":"Feature","properties":{"id":"LK-53","country":"LK","name_en":"Trincomalee"},"geometry":{"type":"Polygon","coordinates":[[[80.922919,8.988916],[80.923188,8.973212],[80.935069,8.964911],[80.934988,8.96483],[80.924327,8.955024],[80.914887,8.943915],[80.914968,8.943874],[80.930675,8.931627],[80.947602,8.932929],[80.961436,8.945746],[80.97169,8.963568],[80.978363,8.980048],[80.978526,8.979967],[81.014659,8.936713],[81.046723,8.882148],[81.059825,8.868638],[81.078136,8.863349],[81.092784,8.85163],[81.114268,8.799994],[81.119721,8.794338],[81.125499,8.788275],[81.12558,8.788235],[81.150157,8.777167],[81.162446,8.751166],[81.176524,8.698879],[81.179047,8.708482],[81.182302,8.712226],[81.187755,8.711005],[81.187836,8.710964],[81.19752,8.705715],[81.194591,8.696112],[81.222423,8.666002],[81.2317,8.651068],[81.231619,8.633043],[81.224294,8.6258],[81.213878,8.621039],[81.204356,8.610093],[81.204519,8.610175],[81.211762,8.612006],[81.219249,8.613918],[81.221121,8.614936],[81.224864,8.616929],[81.224946,8.616848],[81.246593,8.570136],[81.249766,8.545803],[81.224946,8.541815],[81.224864,8.541815],[81.229991,8.557929],[81.223318,8.570868],[81.21225,8.572699],[81.204356,8.555487],[81.207042,8.542141],[81.214122,8.53266],[81.218028,8.522528],[81.210623,8.507107],[81.204763,8.511542],[81.193858,8.519965],[81.176524,8.530585],[81.159028,8.534573],[81.142345,8.527574],[81.129405,8.510321],[81.133962,8.501288],[81.149425,8.503648],[81.170258,8.520697],[81.184581,8.505601],[81.19752,8.487494],[81.213145,8.472398],[81.235118,8.466132],[81.281098,8.467027],[81.296641,8.476793],[81.286388,8.50023],[81.312673,8.512152],[81.32309,8.515326],[81.334158,8.514553],[81.334239,8.514472],[81.346365,8.507554],[81.357432,8.495836],[81.365733,8.482164],[81.372813,8.442125],[81.388438,8.390611],[81.388927,8.377183],[81.389415,8.363715],[81.37672,8.372545],[81.363455,8.399075],[81.351817,8.40469],[81.35141,8.397447],[81.356212,8.364976],[81.356619,8.362494],[81.362071,8.350043],[81.368744,8.34691],[81.374848,8.344062],[81.375011,8.344062],[81.38852,8.344062],[81.399262,8.33926],[81.40561,8.301011],[81.413259,8.274482],[81.414561,8.270087],[81.416677,8.253852],[81.326954,8.263294],[81.310314,8.257429],[81.294811,8.257326],[81.282305,8.257352],[81.27321,8.247636],[81.266595,8.235699],[81.259051,8.230092],[81.252126,8.224124],[81.245822,8.197975],[81.240757,8.188415],[81.226598,8.155575],[81.201483,8.149916],[81.196626,8.151544],[81.192698,8.154335],[81.204274,8.161569],[81.209648,8.174023],[81.206134,8.193014],[81.206547,8.205908],[81.204997,8.21862],[81.197866,8.228619],[81.185257,8.227663],[81.167583,8.236655],[81.15146,8.24898],[81.134821,8.258333],[81.116941,8.258359],[81.041183,8.27673],[80.999015,8.272622],[80.986509,8.285076],[80.982375,8.305902],[80.967079,8.317839],[80.950852,8.32404],[80.939174,8.341197],[80.924187,8.336856],[80.945892,8.413673],[80.948165,8.426256],[80.952299,8.438322],[80.964598,8.450363],[80.978861,8.45951],[80.987129,8.474263],[80.980411,8.489637],[80.968836,8.4985],[80.959844,8.509791],[80.945788,8.542993],[80.91933,8.582035],[80.915196,8.605883],[80.90455,8.616167],[80.896075,8.625727],[80.895249,8.646139],[80.910752,8.682054],[80.903103,8.702906],[80.884603,8.74311],[80.883983,8.786079],[80.900933,8.810858],[80.912612,8.836799],[80.903103,8.843957],[80.895042,8.854705],[80.879642,8.871448],[80.836131,8.901576],[80.810603,8.91589],[80.78125,8.916536],[80.753035,8.90509],[80.757479,8.922582],[80.765748,8.936819],[80.805022,8.954958],[80.851324,8.9609],[80.870444,8.966378],[80.887807,8.976558],[80.907031,8.981984],[80.922844,8.988883],[80.922919,8.988916]]]}},{"type":"Feature","properties":{"id":"LK-23","country":"LK","name_en":"Nuwara Eliya"},"geometry":{"type":"Polygon","coordinates":[[[80.642551,6.753903],[80.587671,6.761319],[80.535787,6.772946],[80.511396,6.77491],[80.490829,6.790516],[80.494446,6.800774],[80.502094,6.807905],[80.495273,6.815295],[80.495997,6.831676],[80.507469,6.841702],[80.505815,6.855086],[80.498167,6.881337],[80.475016,6.898442],[80.445974,6.907796],[80.437292,6.936735],[80.44432,6.973864],[80.437912,6.980375],[80.432331,6.987998],[80.437809,6.995413],[80.445457,6.997997],[80.459306,7.010115],[80.468091,7.024223],[80.464784,7.025127],[80.46344,7.028357],[80.492069,7.025851],[80.536924,6.959446],[80.56607,6.94229],[80.587671,6.965157],[80.599659,6.99854],[80.587774,7.014688],[80.572891,7.028719],[80.555321,7.060965],[80.547466,7.064349],[80.539301,7.061895],[80.561936,7.079852],[80.598006,7.075486],[80.618366,7.079904],[80.647408,7.099877],[80.666942,7.100265],[80.684099,7.095795],[80.748488,7.171526],[80.768745,7.205633],[80.75965,7.243072],[80.756446,7.272011],[80.773809,7.25656],[80.788072,7.23744],[80.79851,7.233771],[80.807192,7.232763],[80.830136,7.196719],[80.866827,7.193851],[80.909718,7.200181],[80.951163,7.191784],[80.950336,7.173774],[80.95788,7.14884],[80.95571,7.13972],[80.957777,7.131296],[80.962325,7.125922],[80.965942,7.120806],[80.959121,7.112434],[80.954263,7.103184],[80.959741,7.085459],[80.961188,7.078509],[80.95788,7.071119],[80.951369,7.062851],[80.943308,7.055513],[80.934109,7.037839],[80.929562,7.018332],[80.907341,6.985517],[80.869514,6.977352],[80.851427,6.968774],[80.835614,6.954356],[80.830756,6.934538],[80.817321,6.919165],[80.798614,6.920224],[80.780527,6.919345],[80.781664,6.903403],[80.8136,6.887435],[80.820214,6.873483],[80.825899,6.858135],[80.830963,6.852011],[80.834891,6.845267],[80.820214,6.821496],[80.829413,6.815631],[80.838611,6.811006],[80.828379,6.796588],[80.809466,6.791911],[80.752828,6.762482],[80.721616,6.75827],[80.68844,6.759355],[80.663635,6.757391],[80.642551,6.753903]]]}}]}
