{"type":"FeatureCollection","features":[{"type":"Feature","properties":{"id":"IN-TN","country":"IN","name_en":"Tamil Nadu"},"geometry":{"type":"MultiPolygon","coordinates":[[[[79.847341,10.809638],[79.849864,10.755194],[79.850271,10.592108],[79.85963,10.551459],[79.86378,10.37873],[79.8567,10.29328],[79.851329,10.282213],[79.834321,10.278754],[79.814626,10.272406],[79.795095,10.269232],[79.778575,10.275377],[79.78004,10.296617],[79.757091,10.309068],[79.633149,10.328599],[79.621267,10.324164],[79.614106,10.309556],[79.630382,10.310492],[79.646495,10.309638],[79.661794,10.307074],[79.67628,10.30272],[79.684581,10.298733],[79.694672,10.291653],[79.703624,10.289049],[79.730805,10.289049],[79.758962,10.282213],[79.773692,10.273668],[79.772472,10.261705],[79.759776,10.258246],[79.580089,10.295885],[79.563487,10.297105],[79.556651,10.298651],[79.552745,10.30272],[79.551768,10.3133],[79.556895,10.316067],[79.565196,10.315741],[79.573904,10.316962],[79.604015,10.329088],[79.607107,10.336005],[79.586925,10.343695],[79.567719,10.335883],[79.528575,10.338324],[79.532237,10.330024],[79.532237,10.323188],[79.511485,10.316596],[79.459727,10.308295],[79.437266,10.309556],[79.411957,10.32099],[79.398123,10.324652],[79.385509,10.320136],[79.36378,10.301907],[79.304942,10.268134],[79.286143,10.252834],[79.272227,10.234442],[79.270274,10.223334],[79.270681,10.20954],[79.269216,10.197821],[79.261974,10.192857],[79.248302,10.189195],[79.240001,10.179755],[79.236339,10.166571],[79.237478,10.151923],[79.244314,10.084947],[79.254161,10.054267],[79.279063,10.035834],[79.240733,10.010565],[79.200369,9.970282],[79.141856,9.891181],[79.121349,9.850246],[79.103526,9.830146],[79.100841,9.826077],[79.094086,9.802314],[79.07781,9.782172],[79.038829,9.747219],[78.980805,9.667182],[78.979828,9.658637],[78.980235,9.649115],[78.977306,9.637926],[78.97283,9.631293],[78.962087,9.622707],[78.956798,9.617499],[78.94752,9.602851],[78.938324,9.583686],[78.931488,9.561672],[78.925304,9.513617],[78.913259,9.47427],[78.915294,9.45303],[78.933442,9.416449],[78.959727,9.384955],[79.039887,9.314683],[79.074718,9.299872],[79.115571,9.291246],[79.25172,9.28852],[79.273774,9.296698],[79.29713,9.312649],[79.320079,9.32331],[79.341075,9.315863],[79.345714,9.306545],[79.34254,9.299018],[79.336681,9.290473],[79.333669,9.278266],[79.335704,9.267646],[79.340587,9.260932],[79.345225,9.255927],[79.347341,9.250312],[79.353526,9.240912],[79.367931,9.227607],[79.438243,9.176337],[79.453624,9.159003],[79.440278,9.151353],[79.424001,9.159084],[79.361013,9.213446],[79.292735,9.250312],[79.232432,9.25788],[79.21697,9.267401],[79.20102,9.266506],[79.184093,9.271796],[79.165375,9.274237],[79.129405,9.256334],[79.098643,9.257229],[79.087169,9.253811],[79.060802,9.264594],[79.025727,9.273749],[78.988943,9.278266],[78.956798,9.274848],[78.948985,9.270494],[78.928966,9.253811],[78.918468,9.251614],[78.911306,9.252143],[78.90447,9.253567],[78.895518,9.253811],[78.861013,9.248969],[78.843761,9.243964],[78.815196,9.22842],[78.77711,9.219387],[78.761567,9.209703],[78.751964,9.200588],[78.740733,9.192816],[78.727794,9.187445],[78.67628,9.184149],[78.661306,9.177191],[78.655121,9.161566],[78.648936,9.151435],[78.634776,9.144599],[78.618826,9.14053],[78.48585,9.124823],[78.44988,9.116604],[78.41212,9.09984],[78.377452,9.07746],[78.239757,8.965562],[78.217621,8.938951],[78.182791,8.877102],[78.177908,8.86107],[78.17449,8.79442],[78.170421,8.771877],[78.162364,8.753485],[78.175792,8.763902],[78.188731,8.765448],[78.20045,8.76968],[78.210216,8.788275],[78.21518,8.765448],[78.2046,8.753323],[78.186534,8.74494],[78.1692,8.733629],[78.164806,8.726508],[78.154959,8.698879],[78.140473,8.680609],[78.136729,8.669867],[78.142589,8.657904],[78.114594,8.657904],[78.135509,8.6258],[78.142345,8.593085],[78.128266,8.488023],[78.123302,8.477525],[78.114594,8.466132],[78.087169,8.440497],[78.079845,8.431952],[78.062755,8.373196],[78.055919,8.363715],[78.038829,8.360907],[77.999766,8.344916],[77.806163,8.228664],[77.793468,8.215318],[77.768321,8.181545],[77.752452,8.173814],[77.643809,8.155707],[77.595225,8.138983],[77.561046,8.114569],[77.565278,8.082506],[77.510916,8.075995],[77.449718,8.08747],[77.315603,8.127753],[77.308604,8.130927],[77.294688,8.14704],[77.286794,8.15351],[77.26295,8.168402],[77.238943,8.175116],[77.225271,8.184394],[77.128754,8.271796],[77.110331,8.285174],[77.118528,8.293499],[77.121319,8.294584],[77.12721,8.295127],[77.14602,8.293112],[77.154702,8.295902],[77.16235,8.301716],[77.165554,8.307452],[77.167104,8.314351],[77.167311,8.32081],[77.165864,8.331507],[77.166071,8.336933],[77.170825,8.348044],[77.181987,8.368353],[77.203484,8.393571],[77.212166,8.407782],[77.215887,8.418789],[77.21413,8.427574],[77.205965,8.456203],[77.204725,8.465349],[77.205035,8.474729],[77.206068,8.478914],[77.207929,8.480645],[77.210099,8.479999],[77.212476,8.478217],[77.219401,8.471318],[77.224672,8.467597],[77.232733,8.469458],[77.244102,8.476511],[77.262912,8.495916],[77.272627,8.510566],[77.278829,8.526405],[77.278519,8.536508],[77.274798,8.54674],[77.269113,8.555499],[77.250923,8.575291],[77.203794,8.611981],[77.196043,8.62105],[77.191185,8.629835],[77.187671,8.63937],[77.185914,8.649059],[77.185294,8.66575],[77.183744,8.673889],[77.180643,8.682597],[77.178886,8.695232],[77.180747,8.703681],[77.192116,8.718512],[77.23542,8.784141],[77.25268,8.839926],[77.253404,8.850726],[77.252164,8.854447],[77.24927,8.859098],[77.243999,8.864756],[77.235834,8.87119],[77.21754,8.881293],[77.202554,8.89416],[77.191392,8.921161],[77.168034,8.984232],[77.164934,9.001001],[77.166691,9.003947],[77.173512,9.009915],[77.210099,9.035211],[77.229943,9.06415],[77.254541,9.122105],[77.312108,9.30088],[77.338877,9.344004],[77.363475,9.41617],[77.369779,9.429037],[77.375877,9.43728],[77.403782,9.461077],[77.404506,9.486372],[77.398615,9.499963],[77.367609,9.536498],[77.360374,9.549779],[77.352519,9.568693],[77.347248,9.575772],[77.340634,9.579958],[77.333916,9.580811],[77.316139,9.580268],[77.308698,9.578718],[77.263222,9.557376],[77.254541,9.557221],[77.243999,9.558306],[77.238521,9.562957],[77.229529,9.572181],[77.225188,9.575824],[77.219297,9.578795],[77.212476,9.581276],[77.204208,9.583369],[77.197593,9.585772],[77.192736,9.588097],[77.189635,9.591275],[77.186845,9.596779],[77.186534,9.603781],[77.187671,9.612773],[77.23542,9.764676],[77.237591,9.778809],[77.237694,9.796637],[77.23139,9.818677],[77.225912,9.858882],[77.226842,9.871827],[77.229323,9.883402],[77.256711,9.936526],[77.260225,9.952364],[77.260225,9.962209],[77.239554,10.025306],[77.224258,10.05781],[77.224362,10.065562],[77.227772,10.075949],[77.274798,10.173565],[77.279035,10.191807],[77.279139,10.202892],[77.276968,10.210101],[77.272937,10.214209],[77.260535,10.222193],[77.254541,10.230668],[77.24865,10.24462],[77.247099,10.26511],[77.241622,10.284437],[77.234904,10.293739],[77.211649,10.333711],[77.207825,10.338517],[77.191495,10.351306],[77.167931,10.344718],[77.131757,10.325158],[77.087522,10.3095],[77.07481,10.303273],[77.064578,10.296297],[77.020343,10.255033],[76.98634,10.231288],[76.969804,10.224699],[76.956988,10.223459],[76.942002,10.231598],[76.936731,10.233458],[76.928049,10.235551],[76.921848,10.239039],[76.912959,10.247256],[76.892909,10.270226],[76.880817,10.281492],[76.869241,10.290406],[76.848881,10.303118],[76.841543,10.310663],[76.838132,10.321127],[76.837719,10.333762],[76.840509,10.360531],[76.838132,10.372881],[76.831827,10.384741],[76.817565,10.405076],[76.812914,10.415256],[76.810123,10.425255],[76.808573,10.437115],[76.811674,10.468922],[76.821389,10.490962],[76.822009,10.495768],[76.822939,10.499334],[76.82666,10.551553],[76.821079,10.633176],[76.822836,10.645836],[76.829347,10.652968],[76.839269,10.654285],[76.851568,10.657463],[76.863763,10.663587],[76.875546,10.678496],[76.878543,10.693069],[76.878853,10.730405],[76.881333,10.742885],[76.887328,10.758956],[76.889498,10.769576],[76.889705,10.78004],[76.886915,10.791771],[76.883607,10.797352],[76.878026,10.801072],[76.870585,10.80363],[76.862523,10.807894],[76.854358,10.814896],[76.84795,10.825438],[76.84392,10.834895],[76.838959,10.850733],[76.834411,10.861275],[76.828727,10.869595],[76.819838,10.875951],[76.768989,10.899309],[76.719586,10.914037],[76.703773,10.921892],[76.690441,10.933364],[76.677522,10.956257],[76.673387,10.974938],[76.672457,10.989304],[76.674421,11.002869],[76.678452,11.017235],[76.682586,11.025761],[76.68765,11.033461],[76.692921,11.038267],[76.700259,11.04129],[76.708734,11.0416],[76.717933,11.03912],[76.737673,11.030257],[76.746458,11.02894],[76.755656,11.031498],[76.762581,11.036562],[76.767542,11.046096],[76.766508,11.05222],[76.761341,11.056793],[76.754106,11.060281],[76.745528,11.070617],[76.737156,11.086895],[76.726304,11.12175],[76.719173,11.138726],[76.710284,11.149992],[76.70212,11.155883],[76.695608,11.162316],[76.68858,11.173814],[76.68765,11.181411],[76.689821,11.189162],[76.696332,11.200479],[76.701293,11.212598],[76.703773,11.230762],[76.70274,11.238048],[76.698399,11.240064],[76.691061,11.236343],[76.662639,11.215543],[76.655714,11.211822],[76.641245,11.208644],[76.573445,11.205156],[76.550294,11.200324],[76.540682,11.200428],[76.531071,11.202753],[76.506886,11.213373],[76.500995,11.214845],[76.495827,11.215078],[76.490453,11.213915],[76.466268,11.205234],[76.456657,11.204691],[76.448388,11.206861],[76.44105,11.21407],[76.440327,11.223372],[76.444151,11.234095],[76.464821,11.262259],[76.47371,11.270708],[76.533758,11.313134],[76.542749,11.337965],[76.516705,11.352098],[76.495414,11.384758],[76.485182,11.392509],[76.47278,11.39809],[76.461411,11.401294],[76.448182,11.406333],[76.439397,11.412611],[76.418933,11.431628],[76.409114,11.436822],[76.3008,11.470334],[76.256255,11.478447],[76.246954,11.487103],[76.242509,11.495242],[76.241579,11.498782],[76.241579,11.50028],[76.240752,11.504518],[76.239202,11.510331],[76.237032,11.515189],[76.233001,11.522191],[76.23052,11.529142],[76.231141,11.53666],[76.236618,11.552654],[76.237342,11.560328],[76.232277,11.576968],[76.231761,11.585676],[76.234138,11.594357],[76.240752,11.603969],[76.266074,11.600843],[76.277236,11.595339],[76.299457,11.587536],[76.31558,11.586916],[76.339248,11.591489],[76.351443,11.600378],[76.360435,11.611979],[76.365809,11.622056],[76.374181,11.63159],[76.386273,11.639703],[76.4025,11.643191],[76.410665,11.646137],[76.415315,11.648747],[76.417796,11.652157],[76.419036,11.656808],[76.419346,11.659599],[76.415936,11.666833],[76.421413,11.677401],[76.425134,11.682698],[76.430818,11.689442],[76.439397,11.697633],[76.451282,11.706624],[76.465338,11.71497],[76.483735,11.719543],[76.503579,11.719156],[76.532207,11.709079],[76.544093,11.697116],[76.549261,11.684481],[76.547194,11.663526],[76.547504,11.654147],[76.550191,11.645439],[76.556805,11.638773],[76.566934,11.63376],[76.583367,11.631409],[76.605381,11.631177],[76.750799,11.642339],[76.766922,11.640453],[76.820769,11.625596],[76.82697,11.63283],[76.832448,11.641874],[76.84423,11.704712],[76.868311,11.745614],[76.907688,11.800184],[76.91823,11.807342],[76.93146,11.812018],[76.953164,11.812768],[76.968047,11.814576],[76.987477,11.823155],[76.997399,11.825919],[77.012695,11.821966],[77.026544,11.814034],[77.082561,11.756776],[77.096204,11.75042],[77.107366,11.752745],[77.114808,11.765794],[77.118735,11.786413],[77.121939,11.792536],[77.130827,11.79667],[77.14509,11.800391],[77.172892,11.804189],[77.220951,11.802277],[77.2348,11.805869],[77.247719,11.812406],[77.259192,11.816902],[77.272007,11.816282],[77.280999,11.811708],[77.298259,11.806437],[77.30663,11.802432],[77.324821,11.787705],[77.338567,11.783467],[77.353863,11.7837],[77.378977,11.790831],[77.408123,11.791606],[77.418975,11.79574],[77.433858,11.811527],[77.442746,11.828581],[77.46197,11.882402],[77.468998,11.894701],[77.484914,11.915578],[77.489772,11.92612],[77.505895,11.935189],[77.517677,11.940357],[77.62289,11.949736],[77.642321,11.954129],[77.651106,11.957901],[77.659684,11.962939],[77.670846,11.971311],[77.682628,11.996762],[77.717148,12.039033],[77.725933,12.05805],[77.736165,12.065698],[77.745467,12.074922],[77.752495,12.081873],[77.755699,12.08456],[77.759419,12.088358],[77.7619,12.092182],[77.76407,12.09629],[77.765827,12.100683],[77.768101,12.110036],[77.768721,12.11492],[77.768721,12.120036],[77.765,12.129079],[77.736785,12.174089],[77.728724,12.179696],[77.724486,12.184812],[77.698648,12.198015],[77.667849,12.203881],[77.492149,12.205457],[77.483364,12.20755],[77.478403,12.214552],[77.48047,12.231502],[77.476543,12.241708],[77.46476,12.249304],[77.46476,12.261526],[77.466311,12.26473],[77.471892,12.274238],[77.479953,12.282532],[77.490082,12.28894],[77.529046,12.308215],[77.560775,12.339661],[77.572144,12.357954],[77.590644,12.378237],[77.598189,12.38989],[77.604597,12.405781],[77.618859,12.46663],[77.61979,12.48066],[77.615449,12.491977],[77.610178,12.495439],[77.602426,12.495258],[77.593848,12.492804],[77.586097,12.491615],[77.580206,12.492494],[77.576795,12.495026],[77.574728,12.499444],[77.574728,12.500064],[77.581136,12.519159],[77.581136,12.52722],[77.576278,12.539157],[77.571214,12.545281],[77.568733,12.55957],[77.571834,12.581765],[77.585787,12.624088],[77.609351,12.672793],[77.632812,12.681216],[77.64015,12.682069],[77.650796,12.681604],[77.669089,12.677108],[77.678597,12.676177],[77.68976,12.67796],[77.701128,12.68212],[77.74433,12.706899],[77.753528,12.71031],[77.76004,12.713798],[77.765311,12.718733],[77.76469,12.727854],[77.76159,12.733332],[77.757456,12.739404],[77.755389,12.744778],[77.756215,12.752943],[77.760246,12.762761],[77.77823,12.788057],[77.789805,12.810743],[77.801277,12.856554],[77.845822,12.87154],[77.895018,12.87278],[77.904837,12.871463],[77.914759,12.868362],[77.926438,12.860921],[77.934602,12.853453],[77.941424,12.845289],[77.947935,12.835703],[77.964885,12.816453],[77.975737,12.808805],[77.987416,12.804361],[78.002092,12.807151],[78.007053,12.81126],[78.00912,12.817513],[78.01005,12.821802],[78.013564,12.827589],[78.029584,12.848699],[78.040643,12.850327],[78.056249,12.845935],[78.089012,12.826039],[78.133247,12.790512],[78.163839,12.775293],[78.229572,12.759893],[78.274427,12.697442],[78.299128,12.675015],[78.352768,12.641503],[78.378916,12.63388],[78.388322,12.632459],[78.398554,12.631917],[78.419121,12.63264],[78.425735,12.633829],[78.435864,12.637704],[78.447439,12.643518],[78.490641,12.688347],[78.495705,12.704625],[78.497255,12.71863],[78.496222,12.730954],[78.497772,12.740024],[78.500356,12.744804],[78.504077,12.746122],[78.510795,12.743124],[78.516789,12.737233],[78.524541,12.73421],[78.533636,12.735993],[78.571463,12.764596],[78.577664,12.770487],[78.582625,12.778213],[78.61053,12.849939],[78.628204,12.91624],[78.635335,12.933681],[78.637712,12.944197],[78.639262,12.972335],[78.642053,12.984117],[78.64474,12.991998],[78.654455,13.006338],[78.661587,13.01365],[78.670475,13.017991],[78.682981,13.018301],[78.69528,13.019955],[78.703651,13.025846],[78.709542,13.035096],[78.7175,13.052408],[78.724942,13.057782],[78.736207,13.06096],[78.776928,13.065895],[78.799873,13.072872],[78.813825,13.07574],[78.85868,13.080468],[78.869739,13.075094],[78.875424,13.064345],[78.878524,13.051943],[78.883692,13.041142],[78.891753,13.036672],[78.901365,13.037809],[78.915008,13.045561],[78.922449,13.054578],[78.926377,13.063208],[78.9271,13.072148],[78.930821,13.087005],[78.936298,13.091656],[78.944153,13.093387],[78.961206,13.093232],[78.985804,13.089408],[78.992936,13.086876],[78.998827,13.083749],[79.002548,13.080726],[79.005131,13.076256],[79.008232,13.062097],[79.01247,13.055586],[79.020324,13.052718],[79.046266,13.050289],[79.057325,13.046878],[79.06642,13.040987],[79.077582,13.035587],[79.092361,13.033933],[79.113962,13.039437],[79.149825,13.042383],[79.161608,13.044915],[79.172253,13.051839],[79.179074,13.057679],[79.204396,13.087961],[79.239329,13.137984],[79.250801,13.147751],[79.262894,13.150619],[79.277776,13.147983],[79.287078,13.140103],[79.294726,13.132274],[79.303718,13.129276],[79.31488,13.131989],[79.329453,13.143565],[79.350537,13.170023],[79.369037,13.185965],[79.378649,13.198213],[79.38671,13.203716],[79.420197,13.219994],[79.426604,13.231932],[79.427328,13.243559],[79.424847,13.253584],[79.424124,13.260586],[79.425468,13.268157],[79.435596,13.288026],[79.437146,13.296476],[79.438387,13.314123],[79.440764,13.321539],[79.444795,13.327352],[79.449549,13.33115],[79.466912,13.337248],[79.490683,13.339884],[79.505153,13.33947],[79.522206,13.336241],[79.533368,13.33115],[79.54422,13.323528],[79.556932,13.307844],[79.564064,13.294073],[79.571712,13.284073],[79.582047,13.277898],[79.600444,13.277459],[79.667933,13.291282],[79.680129,13.289137],[79.688501,13.282936],[79.692118,13.266762],[79.691291,13.257072],[79.689637,13.24945],[79.691188,13.243249],[79.696769,13.235807],[79.72085,13.222527],[79.736663,13.224103],[79.755887,13.224103],[79.764878,13.220821],[79.77604,13.220821],[79.784929,13.224025],[79.790613,13.235265],[79.7902,13.241931],[79.786582,13.247693],[79.780381,13.25268],[79.77356,13.257098],[79.766325,13.260586],[79.760021,13.264539],[79.75599,13.270172],[79.754336,13.277045],[79.75475,13.285262],[79.75816,13.293297],[79.764052,13.298078],[79.77573,13.298258],[79.784309,13.293995],[79.798675,13.291928],[79.816348,13.294925],[79.873296,13.317198],[79.956701,13.365774],[79.964763,13.37846],[79.965176,13.387555],[79.963523,13.395358],[79.960835,13.402309],[79.960112,13.407632],[79.961972,13.416546],[79.969207,13.427139],[79.9844,13.443702],[79.999799,13.456466],[80.019953,13.465225],[80.042898,13.471788],[80.049822,13.47618],[80.054163,13.483854],[80.054887,13.492071],[80.053026,13.497264],[80.048995,13.502251],[80.040934,13.507238],[80.034423,13.512561],[80.029462,13.519382],[80.028325,13.52411],[80.030082,13.529665],[80.034113,13.534135],[80.041347,13.535867],[80.047962,13.534446],[80.069666,13.519382],[80.084549,13.513051],[80.10863,13.512121],[80.110284,13.509227],[80.109974,13.498789],[80.108733,13.493905],[80.106563,13.487833],[80.101085,13.479384],[80.099432,13.475121],[80.097985,13.469178],[80.097571,13.463752],[80.102532,13.45936],[80.112041,13.457422],[80.136639,13.45967],[80.152762,13.459411],[80.202268,13.448482],[80.225625,13.4506],[80.259215,13.466],[80.260173,13.468452],[80.260183,13.468451],[80.26588,13.468248],[80.26238,13.451239],[80.27475,13.440009],[80.293142,13.429145],[80.306895,13.413031],[80.312266,13.423163],[80.313731,13.427232],[80.326996,13.430365],[80.333995,13.413031],[80.344005,13.375434],[80.34783,13.349066],[80.345551,13.321234],[80.336274,13.270941],[80.334158,13.242906],[80.323741,13.246894],[80.319835,13.249172],[80.318044,13.230902],[80.313731,13.215033],[80.318207,13.216986],[80.334158,13.221177],[80.332774,13.198147],[80.324229,13.180365],[80.313813,13.164293],[80.306895,13.146064],[80.30714,13.135647],[80.313731,13.10578],[80.307953,13.096015],[80.289724,13.076728],[80.285818,13.067572],[80.282725,13.029364],[80.269054,12.957261],[80.263194,12.835354],[80.25172,12.762519],[80.233653,12.711005],[80.228689,12.674994],[80.222179,12.65998],[80.203868,12.632148],[80.196462,12.613715],[80.185069,12.567125],[80.18336,12.54682],[80.179698,12.53262],[80.156016,12.474514],[80.121267,12.416815],[80.117035,12.400946],[80.095958,12.36225],[80.087169,12.35102],[80.063731,12.33747],[80.059825,12.334215],[80.057465,12.331244],[80.025727,12.276516],[80.005138,12.256049],[79.952159,12.229926],[79.943858,12.217841],[79.953136,12.213568],[79.973806,12.222398],[80.005138,12.241767],[79.947602,12.153632],[79.933604,12.138739],[79.927501,12.129869],[79.896983,12.068752],[79.870128,12.037421],[79.861827,12.02204],[79.860525,12.011542],[79.861827,11.977973],[79.85963,11.972724],[79.850352,11.959133],[79.849561,11.955176],[79.849008,11.955085],[79.825857,11.947075],[79.811387,11.936326],[79.79113,11.916818],[79.783999,11.913614],[79.777797,11.914157],[79.771286,11.921779],[79.767255,11.925293],[79.75785,11.930848],[79.754336,11.933871],[79.753096,11.938031],[79.754646,11.942605],[79.768289,11.957022],[79.77108,11.961312],[79.77294,11.966893],[79.77294,11.971931],[79.768599,11.977486],[79.760848,11.978132],[79.731185,11.972939],[79.72116,11.974644],[79.712892,11.980535],[79.707104,11.98932],[79.698733,11.999113],[79.692531,12.001981],[79.688087,12.001361],[79.68664,12.000482],[79.68602,11.99994],[79.676408,11.988907],[79.672067,11.982292],[79.670724,11.975858],[79.672584,11.969709],[79.690671,11.953741],[79.693462,11.947411],[79.694082,11.942605],[79.693462,11.936481],[79.693462,11.930151],[79.694702,11.924957],[79.698009,11.920771],[79.705864,11.9178],[79.709171,11.914131],[79.711032,11.905398],[79.711032,11.896251],[79.708551,11.886742],[79.70545,11.879069],[79.699973,11.869043],[79.699869,11.862403],[79.703073,11.858114],[79.708551,11.856718],[79.714339,11.854651],[79.71899,11.851396],[79.727051,11.841629],[79.731392,11.839071],[79.735836,11.838399],[79.741107,11.839303],[79.745965,11.839329],[79.750616,11.838373],[79.75599,11.836539],[79.777177,11.832353],[79.804152,11.832741],[79.810767,11.832973],[79.810869,11.832977],[79.803233,11.796088],[79.792735,11.788072],[79.785899,11.769192],[79.7671,11.673651],[79.763438,11.634263],[79.754161,11.596991],[79.751964,11.576972],[79.757335,11.536078],[79.780772,11.465074],[79.785981,11.426174],[79.792979,11.426174],[79.797374,11.434882],[79.799164,11.442206],[79.797618,11.44831],[79.792979,11.453518],[79.809337,11.451361],[79.816661,11.443061],[79.821951,11.391059],[79.819347,11.381496],[79.810313,11.378892],[79.782725,11.378892],[79.776052,11.380357],[79.769298,11.380927],[79.7588,11.378363],[79.749848,11.373684],[79.740408,11.366441],[79.684337,11.312201],[79.67628,11.296454],[79.683116,11.296454],[79.6963,11.303412],[79.742035,11.335598],[79.751964,11.340522],[79.759288,11.358344],[79.776378,11.362982],[79.796886,11.359036],[79.823741,11.346666],[79.829926,11.346096],[79.833018,11.341986],[79.834972,11.263861],[79.855317,11.159857],[79.852224,11.006985],[79.846688,10.979834],[79.824926,10.984756],[79.806116,10.985428],[79.789993,10.97592],[79.785032,10.970907],[79.777281,10.971811],[79.757644,10.980622],[79.73749,10.986229],[79.730875,10.983206],[79.728705,10.976075],[79.733252,10.971114],[79.739764,10.968271],[79.743278,10.95959],[79.744311,10.946645],[79.742968,10.943828],[79.73749,10.94171],[79.732632,10.941115],[79.720747,10.951683],[79.705037,10.951554],[79.704314,10.943622],[79.710101,10.937266],[79.717336,10.935302],[79.714442,10.929049],[79.706071,10.921298],[79.70545,10.910445],[79.712375,10.903779],[79.72116,10.899697],[79.731289,10.899593],[79.73997,10.895692],[79.742968,10.886571],[79.750202,10.883522],[79.758987,10.888638],[79.767359,10.88856],[79.770873,10.885279],[79.772423,10.880835],[79.771596,10.875512],[79.774387,10.871843],[79.784205,10.875073],[79.78989,10.874737],[79.795471,10.873497],[79.802706,10.87081],[79.803429,10.865177],[79.795574,10.858511],[79.796298,10.854454],[79.798055,10.850785],[79.7933,10.845101],[79.797538,10.835876],[79.80746,10.830425],[79.813041,10.82629],[79.814591,10.818694],[79.840223,10.809108],[79.847341,10.809638]]],[[[80.288097,13.527086],[80.309581,13.479315],[80.313731,13.440904],[80.306895,13.440904],[80.277749,13.512516],[80.278542,13.514343],[80.285157,13.52318],[80.288097,13.527086]]]]}}]}
