{"type":"FeatureCollection","features":[{"type":"Feature","properties":{"id":"IN-AP","country":"IN","name_en":"Andhra Pradesh"},"geometry":{"type":"MultiPolygon","coordinates":[[[[80.968272,15.795233],[80.983165,15.780748],[80.988536,15.770738],[80.984874,15.761786],[80.97169,15.750474],[80.942638,15.741034],[80.942556,15.741075],[80.917979,15.755113],[80.8685,15.811957],[80.879161,15.840074],[80.888357,15.846747],[80.937266,15.818915],[80.968272,15.795233]]],[[[80.277749,13.512516],[80.245453,13.591742],[80.197276,13.643622],[80.183604,13.679185],[80.152517,13.71894],[80.141856,13.728949],[80.141775,13.649115],[80.13559,13.619086],[80.121267,13.627265],[80.117686,13.638861],[80.121267,13.663764],[80.117849,13.674506],[80.109874,13.680732],[80.100841,13.686265],[80.094005,13.69477],[80.093598,13.671332],[80.091319,13.659125],[80.075531,13.648383],[80.052989,13.619086],[80.056488,13.59516],[80.069509,13.574408],[80.101329,13.537095],[80.112071,13.511542],[80.119395,13.500678],[80.131847,13.496161],[80.153087,13.494208],[80.175955,13.489325],[80.219737,13.487779],[80.227712,13.485582],[80.235118,13.478095],[80.243419,13.472154],[80.253429,13.468655],[80.260173,13.468452],[80.259215,13.466],[80.225625,13.4506],[80.202268,13.448482],[80.152762,13.459411],[80.136639,13.45967],[80.112041,13.457422],[80.102532,13.45936],[80.097571,13.463752],[80.097985,13.469178],[80.099432,13.475121],[80.101085,13.479384],[80.106563,13.487833],[80.108733,13.493905],[80.109974,13.498789],[80.110284,13.509227],[80.10863,13.512121],[80.084549,13.513051],[80.069666,13.519382],[80.047962,13.534446],[80.041347,13.535867],[80.034113,13.534135],[80.030082,13.529665],[80.028325,13.52411],[80.029462,13.519382],[80.034423,13.512561],[80.040934,13.507238],[80.048995,13.502251],[80.053026,13.497264],[80.054887,13.492071],[80.054163,13.483854],[80.049822,13.47618],[80.042898,13.471788],[80.019953,13.465225],[79.999799,13.456466],[79.9844,13.443702],[79.969207,13.427139],[79.961972,13.416546],[79.960112,13.407632],[79.960835,13.402309],[79.963523,13.395358],[79.965176,13.387555],[79.964763,13.37846],[79.956701,13.365774],[79.873296,13.317198],[79.816348,13.294925],[79.798675,13.291928],[79.784309,13.293995],[79.77573,13.298258],[79.764052,13.298078],[79.75816,13.293297],[79.75475,13.285262],[79.754336,13.277045],[79.75599,13.270172],[79.760021,13.264539],[79.766325,13.260586],[79.77356,13.257098],[79.780381,13.25268],[79.786582,13.247693],[79.7902,13.241931],[79.790613,13.235265],[79.784929,13.224025],[79.77604,13.220821],[79.764878,13.220821],[79.755887,13.224103],[79.736663,13.224103],[79.72085,13.222527],[79.696769,13.235807],[79.691188,13.243249],[79.689637,13.24945],[79.691291,13.257072],[79.692118,13.266762],[79.688501,13.282936],[79.680129,13.289137],[79.667933,13.291282],[79.600444,13.277459],[79.582047,13.277898],[79.571712,13.284073],[79.564064,13.294073],[79.556932,13.307844],[79.54422,13.323528],[79.533368,13.33115],[79.522206,13.336241],[79.505153,13.33947],[79.490683,13.339884],[79.466912,13.337248],[79.449549,13.33115],[79.444795,13.327352],[79.440764,13.321539],[79.438387,13.314123],[79.437146,13.296476],[79.435596,13.288026],[79.425468,13.268157],[79.424124,13.260586],[79.424847,13.253584],[79.427328,13.243559],[79.426604,13.231932],[79.420197,13.219994],[79.38671,13.203716],[79.378649,13.198213],[79.369037,13.185965],[79.350537,13.170023],[79.329453,13.143565],[79.31488,13.131989],[79.303718,13.129276],[79.294726,13.132274],[79.287078,13.140103],[79.277776,13.147983],[79.262894,13.150619],[79.250801,13.147751],[79.239329,13.137984],[79.204396,13.087961],[79.179074,13.057679],[79.172253,13.051839],[79.161608,13.044915],[79.149825,13.042383],[79.113962,13.039437],[79.092361,13.033933],[79.077582,13.035587],[79.06642,13.040987],[79.057325,13.046878],[79.046266,13.050289],[79.020324,13.052718],[79.01247,13.055586],[79.008232,13.062097],[79.005131,13.076256],[79.002548,13.080726],[78.998827,13.083749],[78.992936,13.086876],[78.985804,13.089408],[78.961206,13.093232],[78.944153,13.093387],[78.936298,13.091656],[78.930821,13.087005],[78.9271,13.072148],[78.926377,13.063208],[78.922449,13.054578],[78.915008,13.045561],[78.901365,13.037809],[78.891753,13.036672],[78.883692,13.041142],[78.878524,13.051943],[78.875424,13.064345],[78.869739,13.075094],[78.85868,13.080468],[78.813825,13.07574],[78.799873,13.072872],[78.776928,13.065895],[78.736207,13.06096],[78.724942,13.057782],[78.7175,13.052408],[78.709542,13.035096],[78.703651,13.025846],[78.69528,13.019955],[78.682981,13.018301],[78.670475,13.017991],[78.661587,13.01365],[78.654455,13.006338],[78.64474,12.991998],[78.642053,12.984117],[78.639262,12.972335],[78.637712,12.944197],[78.635335,12.933681],[78.628204,12.91624],[78.61053,12.849939],[78.582625,12.778213],[78.577664,12.770487],[78.571463,12.764596],[78.533636,12.735993],[78.524541,12.73421],[78.516789,12.737233],[78.510795,12.743124],[78.504077,12.746122],[78.500356,12.744804],[78.497772,12.740024],[78.496222,12.730954],[78.497255,12.71863],[78.495705,12.704625],[78.490641,12.688347],[78.447439,12.643518],[78.435864,12.637704],[78.425735,12.633829],[78.419121,12.63264],[78.398554,12.631917],[78.388322,12.632459],[78.378916,12.63388],[78.352768,12.641503],[78.299128,12.675015],[78.274427,12.697442],[78.229572,12.759893],[78.237633,12.769557],[78.245695,12.781701],[78.248692,12.791623],[78.248072,12.801777],[78.241044,12.828235],[78.24094,12.842911],[78.242491,12.849888],[78.244041,12.853738],[78.247245,12.855753],[78.252309,12.857536],[78.260371,12.857588],[78.267502,12.855469],[78.274117,12.851671],[78.282488,12.844539],[78.285899,12.843377],[78.288999,12.844694],[78.29303,12.847872],[78.300782,12.856141],[78.304089,12.857381],[78.312771,12.857433],[78.318972,12.858259],[78.326,12.860792],[78.335405,12.866579],[78.339022,12.870067],[78.340366,12.876269],[78.340056,12.900376],[78.341916,12.907765],[78.346154,12.913295],[78.352768,12.91624],[78.359176,12.917248],[78.364757,12.916938],[78.370648,12.914638],[78.377986,12.911124],[78.439998,12.867458],[78.45209,12.863272],[78.462219,12.863737],[78.4678,12.867664],[78.468213,12.877406],[78.463252,12.889937],[78.448576,12.910246],[78.435864,12.919186],[78.424805,12.924534],[78.415917,12.92686],[78.412506,12.930503],[78.411886,12.936704],[78.415813,12.948202],[78.441548,12.97988],[78.4524,12.996701],[78.454467,13.000499],[78.457051,13.008173],[78.462839,13.030833],[78.46656,13.04153],[78.471004,13.048119],[78.477308,13.052563],[78.496015,13.061865],[78.502526,13.066929],[78.511518,13.077212],[78.516479,13.089098],[78.518856,13.103722],[78.520096,13.127726],[78.52361,13.138707],[78.530018,13.147389],[78.546141,13.164184],[78.552653,13.174674],[78.55658,13.184984],[78.561851,13.206636],[78.563815,13.21183],[78.564952,13.217876],[78.565365,13.224051],[78.565262,13.23126],[78.565675,13.239683],[78.568362,13.256297],[78.568982,13.265728],[78.568362,13.274823],[78.565572,13.285934],[78.562471,13.293452],[78.558854,13.298646],[78.553583,13.301798],[78.54056,13.287897],[78.534979,13.283376],[78.529708,13.280843],[78.52268,13.279061],[78.516169,13.278854],[78.510175,13.279991],[78.505627,13.282316],[78.46563,13.313245],[78.459118,13.315725],[78.452297,13.315647],[78.446509,13.314795],[78.441548,13.314795],[78.436174,13.316345],[78.430593,13.318903],[78.421291,13.325414],[78.416227,13.327559],[78.409922,13.326655],[78.394729,13.31805],[78.387288,13.317766],[78.38088,13.322753],[78.377366,13.337377],[78.373129,13.347222],[78.365377,13.356963],[78.359486,13.362415],[78.353698,13.368874],[78.350184,13.376109],[78.349874,13.387323],[78.351528,13.393653],[78.355145,13.399673],[78.358246,13.403627],[78.360416,13.408097],[78.361346,13.413393],[78.358556,13.457267],[78.359796,13.468997],[78.36207,13.478738],[78.365274,13.487523],[78.367134,13.498169],[78.366928,13.500391],[78.362587,13.528554],[78.363103,13.540828],[78.365274,13.551964],[78.372405,13.571368],[78.374679,13.579637],[78.373025,13.586225],[78.368374,13.591005],[78.358556,13.592633],[78.350804,13.591806],[78.337575,13.588137],[78.332614,13.587388],[78.327653,13.58775],[78.322692,13.589455],[78.310497,13.597],[78.304192,13.599532],[78.297991,13.599454],[78.2921,13.596974],[78.279078,13.588551],[78.272153,13.586148],[78.263575,13.585347],[78.253653,13.58576],[78.231742,13.589558],[78.212518,13.596225],[78.202907,13.598602],[78.189057,13.600333],[78.184096,13.601547],[78.176655,13.606741],[78.168593,13.614311],[78.133867,13.653611],[78.126735,13.658572],[78.118157,13.661828],[78.109786,13.662526],[78.101001,13.660639],[78.083947,13.653534],[78.074439,13.65387],[78.067928,13.65927],[78.060176,13.672318],[78.057076,13.682783],[78.056145,13.692007],[78.061416,13.698053],[78.068238,13.698725],[78.084361,13.694875],[78.093042,13.694642],[78.09945,13.696787],[78.104721,13.701128],[78.105445,13.708569],[78.102241,13.717354],[78.091389,13.732754],[78.085188,13.743683],[78.08219,13.753812],[78.086221,13.764819],[78.09604,13.783681],[78.097693,13.796083],[78.096763,13.809002],[78.091389,13.830112],[78.07971,13.856932],[78.032684,13.884734],[78.002092,13.867138],[77.998061,13.86626],[77.992067,13.866983],[77.982558,13.870239],[77.971603,13.871324],[77.960234,13.868844],[77.947315,13.859516],[77.931812,13.839026],[77.925507,13.832515],[77.92065,13.830474],[77.916929,13.834582],[77.914345,13.841378],[77.912278,13.850369],[77.909178,13.872203],[77.909281,13.880574],[77.911451,13.887266],[77.915586,13.892253],[77.934809,13.908324],[77.93853,13.912898],[77.94039,13.917084],[77.94132,13.920417],[77.942561,13.946849],[77.941424,13.954911],[77.93946,13.960724],[77.937083,13.963257],[77.932019,13.96367],[77.926128,13.961577],[77.914139,13.954058],[77.908558,13.948787],[77.9037,13.941604],[77.900806,13.934189],[77.896569,13.925636],[77.888507,13.919332],[77.878792,13.916619],[77.863909,13.920236],[77.856364,13.924809],[77.84975,13.930623],[77.844892,13.934008],[77.838278,13.935041],[77.816677,13.935248],[77.799624,13.941217],[77.791562,13.941682],[77.78257,13.936591],[77.777299,13.931165],[77.773269,13.924396],[77.771822,13.917781],[77.772752,13.910314],[77.776163,13.903234],[77.78164,13.896542],[77.787635,13.890599],[77.790942,13.884579],[77.791562,13.877448],[77.789185,13.870316],[77.784121,13.863702],[77.775852,13.857087],[77.755285,13.844194],[77.746294,13.836649],[77.734925,13.824221],[77.729034,13.820733],[77.719422,13.816935],[77.702989,13.812516],[77.693687,13.807607],[77.686452,13.799623],[77.682422,13.78934],[77.678908,13.777273],[77.674877,13.767119],[77.669296,13.760943],[77.663095,13.76022],[77.656273,13.765801],[77.652966,13.771459],[77.648005,13.777893],[77.64046,13.781717],[77.626094,13.781717],[77.614002,13.779443],[77.604597,13.776317],[77.598086,13.772467],[77.593228,13.767093],[77.591368,13.76115],[77.591678,13.753967],[77.595295,13.742417],[77.591988,13.73942],[77.583823,13.738102],[77.563566,13.739808],[77.551163,13.736862],[77.524808,13.724873],[77.499487,13.704461],[77.494216,13.702368],[77.487705,13.702058],[77.466311,13.704203],[77.460833,13.703298],[77.453702,13.699293],[77.448741,13.699448],[77.44254,13.701955],[77.440576,13.717897],[77.440679,13.743993],[77.438405,13.753864],[77.430447,13.77611],[77.428173,13.787066],[77.424763,13.797453],[77.418252,13.806289],[77.405643,13.813369],[77.398615,13.821663],[77.395721,13.828407],[77.394584,13.836701],[77.389209,13.843238],[77.384042,13.846726],[77.353966,13.842334],[77.335156,13.847269],[77.317069,13.850214],[77.309938,13.84962],[77.30198,13.84807],[77.292058,13.848432],[77.281619,13.852462],[77.268493,13.861454],[77.258261,13.86688],[77.24989,13.868689],[77.230769,13.866105],[77.220848,13.868094],[77.205965,13.886336],[77.196663,13.891866],[77.189222,13.891762],[77.182297,13.888739],[77.161833,13.874425],[77.156149,13.87458],[77.153462,13.878223],[77.152738,13.888145],[77.153048,13.896258],[77.152221,13.903596],[77.149431,13.907911],[77.14354,13.910702],[77.138475,13.90879],[77.134755,13.905792],[77.131344,13.900418],[77.129174,13.89525],[77.12783,13.890677],[77.12721,13.886905],[77.12752,13.881918],[77.12721,13.87737],[77.12628,13.873107],[77.124006,13.870239],[77.120079,13.867758],[77.103232,13.862152],[77.099925,13.858663],[77.099511,13.854245],[77.102612,13.849672],[77.109537,13.844633],[77.116358,13.841688],[77.122456,13.837269],[77.125866,13.830887],[77.127107,13.817658],[77.12659,13.808382],[77.12783,13.800372],[77.133204,13.784818],[77.132688,13.776188],[77.127727,13.767894],[77.119769,13.76332],[77.109537,13.76146],[77.098581,13.762003],[77.088453,13.763708],[77.070779,13.768591],[77.063751,13.769728],[77.05817,13.768126],[77.054966,13.763398],[77.052279,13.754845],[77.048248,13.747611],[77.041117,13.743993],[77.032332,13.746241],[77.02303,13.755104],[77.010214,13.769418],[77.00577,13.773552],[77.000913,13.777041],[76.997812,13.778591],[76.993781,13.779909],[76.991921,13.778798],[76.990681,13.77655],[76.987787,13.766783],[76.984686,13.759987],[76.980035,13.752804],[76.974454,13.750505],[76.969183,13.753709],[76.962776,13.767196],[76.958538,13.781614],[76.954714,13.807375],[76.954507,13.820345],[76.958125,13.833368],[76.963706,13.840525],[76.977968,13.85546],[76.982929,13.862048],[76.985927,13.868637],[76.988097,13.875923],[76.991921,13.883571],[76.995538,13.888662],[76.999259,13.891866],[77.002153,13.894217],[77.006494,13.898325],[77.010421,13.904991],[77.010214,13.914061],[77.005254,13.924086],[77.000499,13.930675],[76.981689,13.950105],[76.976005,13.957779],[76.962052,13.982067],[76.951923,13.995606],[76.947376,13.999714],[76.941795,14.003332],[76.935904,14.010902],[76.93239,14.021703],[76.93363,14.041004],[76.936834,14.050305],[76.940761,14.056352],[76.942622,14.06108],[76.940865,14.067255],[76.932803,14.080071],[76.872962,14.137354],[76.868104,14.145623],[76.868001,14.153813],[76.875442,14.162728],[76.882987,14.166216],[76.896526,14.168619],[76.90004,14.170557],[76.906345,14.179832],[76.910996,14.18531],[76.91668,14.188411],[76.921951,14.188798],[76.927532,14.186783],[76.93239,14.183553],[76.943242,14.174019],[76.949546,14.169833],[76.954714,14.169213],[76.958538,14.170221],[76.962672,14.171642],[76.967426,14.171022],[76.971147,14.164588],[76.973628,14.156087],[76.980449,14.107072],[76.98634,14.084515],[76.990267,14.074593],[76.995332,14.066377],[76.999879,14.061855],[77.00484,14.058445],[77.019723,14.051546],[77.035846,14.04612],[77.065922,14.040229],[77.074707,14.037516],[77.081941,14.033847],[77.087729,14.028343],[77.097651,14.015321],[77.103645,14.009274],[77.112327,14.005063],[77.122146,14.004365],[77.140336,14.006303],[77.168241,14.005657],[77.180643,14.00682],[77.243999,14.022219],[77.25144,14.022219],[77.258571,14.020049],[77.265393,14.016742],[77.272937,14.014235],[77.284616,14.013098],[77.289267,14.010747],[77.293711,14.006613],[77.298156,14.000644],[77.311281,13.973308],[77.326371,13.949795],[77.331022,13.939098],[77.331022,13.929925],[77.329471,13.92176],[77.328955,13.913906],[77.332365,13.908169],[77.341564,13.904836],[77.357894,13.900728],[77.37691,13.89215],[77.386729,13.890367],[77.394894,13.892227],[77.399855,13.896801],[77.400785,13.903209],[77.398821,13.910882],[77.385282,13.933646],[77.384042,13.939279],[77.384662,13.945919],[77.387969,13.962946],[77.386109,13.969303],[77.381148,13.975245],[77.370606,13.980103],[77.362854,13.984986],[77.355826,13.993177],[77.353553,13.997518],[77.352519,13.999637],[77.349005,14.021289],[77.346215,14.026069],[77.333812,14.039763],[77.329471,14.04612],[77.327921,14.052166],[77.328851,14.056791],[77.332055,14.06325],[77.353966,14.091388],[77.358307,14.098726],[77.360994,14.1064],[77.358307,14.111749],[77.351589,14.115935],[77.338153,14.117407],[77.331125,14.119087],[77.327921,14.122652],[77.329161,14.125908],[77.332572,14.129836],[77.349625,14.143246],[77.368539,14.163425],[77.37536,14.167585],[77.383112,14.170557],[77.397064,14.172649],[77.439956,14.174148],[77.451221,14.176551],[77.460523,14.180969],[77.465484,14.18624],[77.467758,14.192442],[77.467241,14.198643],[77.465174,14.206136],[77.456182,14.230346],[77.454218,14.23939],[77.454218,14.248355],[77.456492,14.257864],[77.46352,14.277398],[77.463934,14.284994],[77.46104,14.290136],[77.451841,14.293779],[77.423626,14.296957],[77.417425,14.299877],[77.415151,14.303933],[77.415151,14.309747],[77.413911,14.313933],[77.4105,14.31923],[77.406056,14.323286],[77.400682,14.327627],[77.389623,14.333957],[77.382388,14.33543],[77.37443,14.334474],[77.363578,14.328506],[77.358927,14.321633],[77.357583,14.313158],[77.359444,14.304218],[77.362648,14.295123],[77.366679,14.287113],[77.384352,14.261972],[77.387969,14.252774],[77.386729,14.24448],[77.378977,14.238382],[77.367299,14.238253],[77.353863,14.245978],[77.343424,14.256985],[77.327094,14.281041],[77.318309,14.285717],[77.304977,14.289903],[77.278208,14.295588],[77.267977,14.301479],[77.262602,14.309101],[77.263016,14.316749],[77.262912,14.324139],[77.261155,14.329617],[77.256814,14.333957],[77.247409,14.334629],[77.23294,14.333105],[77.206688,14.326904],[77.185088,14.326464],[77.169895,14.328531],[77.159973,14.332175],[77.140956,14.343543],[77.132894,14.344008],[77.124316,14.340985],[77.111294,14.329617],[77.099201,14.311271],[77.086902,14.296053],[77.082872,14.288741],[77.080288,14.278328],[77.082458,14.251456],[77.080908,14.243498],[77.078221,14.237478],[77.072743,14.232594],[77.063131,14.230785],[77.045458,14.231664],[77.024684,14.238408],[76.999259,14.244273],[76.968047,14.245978],[76.908205,14.257864],[76.905828,14.268251],[76.910376,14.277398],[76.915337,14.285097],[76.920608,14.292074],[76.922571,14.298275],[76.921848,14.304709],[76.915647,14.311142],[76.882987,14.324346],[76.875442,14.330082],[76.868104,14.338066],[76.86242,14.347238],[76.858803,14.357005],[76.856839,14.368167],[76.858182,14.382559],[76.86087,14.391577],[76.86459,14.398734],[76.868414,14.403204],[76.873685,14.406925],[76.878543,14.408682],[76.883504,14.408449],[76.888775,14.407157],[76.895389,14.406201],[76.902521,14.407157],[76.907998,14.410413],[76.910686,14.415089],[76.9142,14.428086],[76.917817,14.434365],[76.927842,14.444209],[76.930943,14.449403],[76.931563,14.457567],[76.929599,14.466507],[76.922881,14.478419],[76.917197,14.483845],[76.910996,14.486739],[76.891359,14.486687],[76.869034,14.489529],[76.861283,14.488987],[76.855392,14.48723],[76.841129,14.479943],[76.834721,14.478316],[76.829967,14.478651],[76.825626,14.481261],[76.821389,14.486041],[76.813637,14.500123],[76.803302,14.523817],[76.797824,14.533351],[76.791313,14.541671],[76.784492,14.546632],[76.77705,14.550197],[76.761651,14.55552],[76.75638,14.558931],[76.752866,14.565597],[76.740567,14.612933],[76.738086,14.629211],[76.738603,14.643525],[76.743874,14.667891],[76.753486,14.691713],[76.762168,14.707139],[76.765268,14.719102],[76.765682,14.731814],[76.761858,14.763673],[76.764648,14.772949],[76.768989,14.775868],[76.790693,14.783568],[76.794724,14.785894],[76.797204,14.789123],[76.799685,14.794834],[76.815084,14.858008],[76.818598,14.882684],[76.819115,14.900021],[76.822216,14.920976],[76.822009,14.929322],[76.819425,14.937693],[76.810123,14.948416],[76.802785,14.952834],[76.795964,14.955315],[76.789453,14.956813],[76.782425,14.959346],[76.763821,14.971438],[76.757517,14.974151],[76.727648,14.980455],[76.722067,14.982419],[76.719483,14.985881],[76.719483,14.989731],[76.726924,14.999886],[76.735399,15.008852],[76.739947,15.012753],[76.743357,15.018386],[76.744908,15.025672],[76.743874,15.040064],[76.745528,15.063887],[76.764338,15.094118],[76.776224,15.090242],[76.86335,15.040969],[76.879473,15.037816],[76.906138,15.035568],[76.918851,15.031977],[76.937351,15.023347],[76.947996,15.021642],[76.957608,15.023786],[76.971354,15.030685],[76.981999,15.032855],[76.993471,15.033553],[77.000189,15.03208],[77.007011,15.029522],[77.012695,15.024949],[77.017242,15.019316],[77.021893,15.01234],[77.027164,15.006991],[77.034192,15.005208],[77.042357,15.006449],[77.050315,15.009963],[77.05693,15.014303],[77.080391,15.036654],[77.087212,15.045904],[77.093414,15.0589],[77.100545,15.084532],[77.107263,15.097864],[77.113464,15.107424],[77.119769,15.114943],[77.124316,15.123134],[77.12814,15.132255],[77.130724,15.141634],[77.132584,15.154321],[77.132274,15.17481],[77.128657,15.194267],[77.113464,15.2423],[77.104886,15.308213],[77.09362,15.322243],[77.085249,15.328005],[77.07419,15.333612],[77.039567,15.341725],[77.031402,15.345575],[77.025924,15.351492],[77.022513,15.364851],[77.014452,15.41725],[77.007631,15.433477],[77.001223,15.443244],[76.996158,15.446551],[76.990887,15.453062],[76.986547,15.461873],[76.981379,15.479366],[76.971767,15.497685],[76.968563,15.501509],[76.967426,15.506005],[76.966393,15.51404],[76.972387,15.522179],[76.980449,15.519182],[76.996882,15.50585],[77.000913,15.503886],[77.00484,15.504894],[77.008044,15.511844],[77.010111,15.524402],[77.009181,15.569334],[76.999672,15.613776],[76.999879,15.619435],[77.000809,15.62406],[77.0036,15.631785],[77.010525,15.644627],[77.01931,15.653929],[77.028715,15.659949],[77.038533,15.662481],[77.047938,15.662171],[77.05693,15.659871],[77.067162,15.655944],[77.076877,15.653825],[77.083182,15.657778],[77.084939,15.667287],[77.076877,15.69018],[77.063338,15.712736],[77.051659,15.737024],[77.046698,15.7409],[77.041944,15.743122],[77.036776,15.744853],[77.031092,15.748755],[77.027681,15.760925],[77.025304,15.781285],[77.030472,15.824745],[77.030472,15.849188],[77.035433,15.859782],[77.034089,15.873734],[77.07357,15.921018],[77.143746,15.960706],[77.163073,15.967114],[77.226429,15.976389],[77.23542,15.974632],[77.252887,15.965744],[77.263636,15.962101],[77.306217,15.957062],[77.428794,15.9559],[77.432928,15.954711],[77.446467,15.95298],[77.492198,15.9383],[77.563243,15.932318],[77.58253,15.928046],[77.641205,15.900662],[77.660574,15.895575],[77.686046,15.893866],[77.749034,15.897569],[77.794851,15.889268],[77.849864,15.893866],[77.857595,15.895575],[77.864757,15.899848],[77.877208,15.911566],[77.88795,15.919135],[77.8956,15.917996],[77.903412,15.912787],[77.914806,15.908149],[77.939952,15.903103],[77.950125,15.899766],[78.087494,15.832953],[78.100352,15.829657],[78.114268,15.839871],[78.123953,15.849921],[78.131928,15.876166],[78.141368,15.888129],[78.153575,15.897162],[78.165701,15.900702],[78.185069,15.908718],[78.213145,15.92768],[78.235281,15.950466],[78.236908,15.969591],[78.244395,15.976426],[78.254161,15.991767],[78.255951,16.005683],[78.251964,16.020575],[78.244395,16.03852],[78.261974,16.035183],[78.280854,16.027615],[78.299815,16.022813],[78.316335,16.02794],[78.332042,16.052069],[78.341563,16.059434],[78.353526,16.05268],[78.378835,16.075873],[78.399994,16.083441],[78.464285,16.085761],[78.499766,16.093777],[78.511485,16.091986],[78.519623,16.086941],[78.532644,16.072089],[78.539561,16.065538],[78.549327,16.060126],[78.559662,16.056708],[78.570404,16.055365],[78.581554,16.056179],[78.629161,16.071112],[78.6456,16.071601],[78.656505,16.067572],[78.684174,16.046332],[78.73406,16.0303],[78.760916,16.027696],[78.791108,16.034532],[78.819021,16.048407],[78.839447,16.066718],[78.845795,16.085476],[78.839122,16.124823],[78.841238,16.14293],[78.846934,16.150743],[78.853445,16.152167],[78.860281,16.149278],[78.874766,16.140326],[78.881847,16.138292],[78.889415,16.138983],[78.897716,16.142768],[78.902599,16.146552],[78.905772,16.150743],[78.907644,16.155626],[78.908946,16.161444],[78.922862,16.189765],[78.997162,16.230292],[79.021658,16.247138],[79.042898,16.245673],[79.091563,16.228827],[79.110281,16.231269],[79.136322,16.227851],[79.160574,16.219346],[79.184093,16.221015],[79.201427,16.228624],[79.210053,16.236599],[79.214773,16.244493],[79.226573,16.289496],[79.233409,16.330512],[79.229991,16.341742],[79.218761,16.360907],[79.211518,16.377265],[79.208263,16.388699],[79.21046,16.40823],[79.214773,16.429714],[79.2199,16.473334],[79.213471,16.493232],[79.217377,16.504462],[79.233409,16.523627],[79.247813,16.554023],[79.265636,16.569607],[79.283621,16.575222],[79.298757,16.57807],[79.313406,16.579372],[79.337983,16.585232],[79.406261,16.587226],[79.417735,16.590196],[79.435069,16.603461],[79.440359,16.606472],[79.44101,16.609565],[79.477061,16.631781],[79.496349,16.640163],[79.504324,16.641872],[79.516531,16.639838],[79.53297,16.630398],[79.542491,16.628201],[79.550548,16.629706],[79.557384,16.633734],[79.570242,16.644884],[79.574799,16.646837],[79.584972,16.648546],[79.586925,16.651435],[79.587494,16.656806],[79.589366,16.662299],[79.591807,16.666775],[79.59433,16.669135],[79.605724,16.671658],[79.62379,16.66828],[79.634695,16.669135],[79.646251,16.674018],[79.668061,16.686469],[79.679698,16.689032],[79.720876,16.689032],[79.730479,16.693793],[79.745616,16.716498],[79.751964,16.723741],[79.771658,16.727118],[79.7942,16.721788],[79.812592,16.711493],[79.826264,16.692084],[79.861501,16.70661],[79.882335,16.703233],[79.889089,16.691026],[79.909679,16.631293],[79.914561,16.628363],[79.947195,16.628201],[79.9581,16.630439],[79.963471,16.636501],[79.97169,16.654853],[80.025808,16.713202],[80.028819,16.725043],[80.042979,16.738552],[80.046153,16.747626],[80.046641,16.759467],[80.052989,16.785224],[80.073334,16.822862],[80.045629,16.838976],[80.023724,16.853535],[80.002428,16.871004],[80.012698,16.902147],[80.040619,16.93622],[80.077643,16.972555],[80.110821,16.997847],[80.153134,17.023136],[80.191601,17.031871],[80.220451,17.033251],[80.254109,17.023596],[80.280555,16.997387],[80.301231,16.94128],[80.329119,16.889756],[80.350986,16.862136],[80.393136,16.838522],[80.448136,16.822778],[80.506146,16.792487],[80.560562,16.783592],[80.59791,16.793278],[80.596536,16.81366],[80.569751,16.837984],[80.56563,16.861648],[80.582113,16.887281],[80.595163,16.906996],[80.586234,16.933936],[80.559448,16.949047],[80.525794,16.952332],[80.505877,16.943791],[80.474283,16.936564],[80.435821,16.951018],[80.38431,16.975982],[80.377442,16.99306],[80.386371,17.019332],[80.38431,17.062015],[80.39736,17.079085],[80.419338,17.053479],[80.442003,17.032466],[80.467415,17.035749],[80.494201,17.059388],[80.501756,17.10797],[80.541657,17.127467],[80.590939,17.139791],[80.641603,17.116903],[80.669698,17.079924],[80.722664,17.065835],[80.829519,17.046021],[80.855771,17.053066],[80.877879,17.082125],[80.875576,17.091811],[80.881564,17.120864],[80.893078,17.155634],[80.930786,17.19252],[80.99048,17.21818],[81.059128,17.222457],[81.144193,17.249538],[81.188963,17.299415],[81.214333,17.323635],[81.253134,17.335032],[81.290443,17.345004],[81.408339,17.370643],[81.469526,17.420487],[81.496388,17.495938],[81.52922,17.58843],[81.535249,17.637689],[81.573892,17.70453],[81.628586,17.763421],[81.708457,17.799574],[81.775781,17.833207],[81.786569,17.863122],[81.778595,17.894371],[81.758969,17.908933],[81.825218,17.937949],[81.92361,18.000219],[81.958233,18.002932],[81.99544,18.009986],[82.042362,18.043266],[82.092178,18.04988],[82.131866,18.038848],[82.149126,18.0289],[82.162872,18.018332],[82.180028,18.000426],[82.181062,17.999909],[82.193154,17.998669],[82.208243,17.999522],[82.215478,17.999212],[82.221576,17.997842],[82.229637,17.994561],[82.240076,17.992933],[82.250411,17.997429],[82.257543,18.007506],[82.261574,18.02027],[82.267775,18.032801],[82.276973,18.04045],[82.293303,18.043524],[82.319348,18.041302],[82.32989,18.044041],[82.336194,18.052749],[82.338055,18.066314],[82.335574,18.081532],[82.33113,18.099231],[82.330303,18.112021],[82.334644,18.120238],[82.34653,18.125483],[82.355935,18.131193],[82.360276,18.13941],[82.358725,18.147084],[82.352834,18.1553],[82.322862,18.176333],[82.31263,18.186978],[82.309529,18.194755],[82.311286,18.205504],[82.317177,18.21739],[82.350044,18.265914],[82.356555,18.277903],[82.360792,18.291623],[82.359655,18.301596],[82.351801,18.317745],[82.350974,18.323042],[82.352524,18.33038],[82.367097,18.366605],[82.369887,18.381953],[82.369887,18.395854],[82.368234,18.413993],[82.369887,18.418979],[82.374125,18.425697],[82.409368,18.466548],[82.41712,18.480862],[82.429212,18.510473],[82.438204,18.519258],[82.449056,18.5221],[82.466729,18.51732],[82.478098,18.512204],[82.487193,18.510498],[82.497631,18.512126],[82.502696,18.510628],[82.506727,18.502049],[82.506933,18.495616],[82.506313,18.48727],[82.506623,18.479312],[82.507967,18.474041],[82.511067,18.467994],[82.512514,18.462078],[82.512928,18.45399],[82.510137,18.433888],[82.511274,18.422209],[82.517372,18.410582],[82.528637,18.396965],[82.578453,18.354901],[82.584861,18.348389],[82.590236,18.341284],[82.594783,18.33299],[82.597367,18.325213],[82.597367,18.317073],[82.595403,18.309632],[82.582484,18.281856],[82.58021,18.270461],[82.5799,18.260255],[82.582381,18.251057],[82.586722,18.244391],[82.593543,18.24005],[82.601708,18.238009],[82.6138,18.237543],[82.622378,18.23589],[82.635711,18.228862],[82.642429,18.229482],[82.652041,18.240256],[82.655865,18.250463],[82.660412,18.27382],[82.663203,18.282321],[82.669714,18.289297],[82.680049,18.296532],[82.697516,18.30555],[82.729865,18.326401],[82.760148,18.337331],[82.77162,18.344436],[82.781438,18.357846],[82.785883,18.369887],[82.786813,18.382496],[82.780508,18.40637],[82.779681,18.416731],[82.785159,18.424147],[82.795391,18.429341],[82.816062,18.432105],[82.828774,18.428798],[82.838696,18.422468],[82.849238,18.414303],[82.861227,18.410117],[82.878383,18.409083],[82.885515,18.40389],[82.887685,18.396061],[82.884895,18.378749],[82.884895,18.370429],[82.888305,18.362497],[82.894713,18.357536],[82.904118,18.35534],[82.943289,18.356735],[82.951971,18.358156],[82.988558,18.375571],[82.99879,18.379163],[83.006748,18.37999],[83.019667,18.379008],[83.030002,18.381953],[83.0392,18.390351],[83.043851,18.417042],[83.042714,18.430116],[83.038994,18.439314],[83.033723,18.444714],[83.029692,18.450373],[83.032999,18.461897],[83.036513,18.469493],[83.083539,18.525329],[83.081989,18.538869],[83.079508,18.54184],[83.076097,18.544166],[83.070516,18.544243],[83.053773,18.542279],[83.047572,18.543313],[83.044265,18.547731],[83.036823,18.566128],[83.02163,18.587703],[83.01977,18.595299],[83.021217,18.603387],[83.024008,18.612172],[83.025558,18.621577],[83.025351,18.629354],[83.025868,18.636124],[83.028142,18.640852],[83.053256,18.663616],[83.065039,18.67638],[83.075477,18.690772],[83.097491,18.727539],[83.108964,18.741983],[83.126534,18.758158],[83.137386,18.764436],[83.150408,18.766348],[83.161467,18.763894],[83.172732,18.758468],[83.181931,18.748882],[83.190819,18.742861],[83.201671,18.741621],[83.256758,18.765341],[83.272571,18.776658],[83.297479,18.799189],[83.329209,18.822236],[83.344505,18.830763],[83.366002,18.83668],[83.380058,18.843114],[83.392047,18.85332],[83.395251,18.862828],[83.394218,18.869417],[83.390187,18.872595],[83.384916,18.874843],[83.380575,18.878693],[83.378198,18.88368],[83.374787,18.895049],[83.371997,18.898201],[83.366932,18.899519],[83.361351,18.900216],[83.35639,18.90032],[83.352256,18.901534],[83.347295,18.904712],[83.326831,18.929698],[83.323731,18.935201],[83.31815,18.952616],[83.314119,18.960626],[83.309675,18.965845],[83.303887,18.970755],[83.299546,18.976516],[83.298513,18.982847],[83.299856,18.99158],[83.313706,18.999719],[83.322387,19.002329],[83.331482,19.004034],[83.341404,19.004577],[83.352876,19.001089],[83.355564,18.999125],[83.367553,18.992769],[83.391427,18.985767],[83.402279,18.979539],[83.423673,18.964347],[83.435455,18.961892],[83.449615,18.968455],[83.454679,18.976904],[83.455506,18.986852],[83.453645,18.992355],[83.448995,19.000494],[83.449098,19.000856],[83.449408,19.001424],[83.450338,19.002871],[83.462947,19.011837],[83.465738,19.018684],[83.466358,19.027082],[83.456126,19.061085],[83.457986,19.069405],[83.464187,19.073461],[83.47566,19.06894],[83.484238,19.06093],[83.490129,19.051551],[83.493953,19.039872],[83.499121,19.016049],[83.503151,19.008788],[83.508836,19.006747],[83.518344,19.010003],[83.524856,19.016049],[83.531367,19.027624],[83.539635,19.051654],[83.545836,19.058579],[83.553898,19.064263],[83.572605,19.069947],[83.581183,19.080412],[83.587074,19.092013],[83.589554,19.104881],[83.593585,19.117257],[83.598443,19.127205],[83.604747,19.131339],[83.612809,19.129789],[83.623661,19.115009],[83.638337,19.087621],[83.646399,19.076097],[83.68712,19.033128],[83.701486,19.011889],[83.706447,19.001424],[83.725774,18.943986],[83.731871,18.933806],[83.738073,18.929284],[83.744067,18.930085],[83.748615,18.935356],[83.751922,18.948172],[83.751095,18.957448],[83.749131,18.965044],[83.746754,18.971762],[83.744687,18.980599],[83.744997,18.98866],[83.746754,18.995017],[83.748925,19.000417],[83.749545,19.001114],[83.756263,19.006282],[83.763704,19.009331],[83.771869,19.009693],[83.780241,19.009253],[83.801841,18.999952],[83.817964,18.96197],[83.825922,18.920473],[83.829023,18.915047],[83.839358,18.901921],[83.850107,18.871329],[83.854241,18.860038],[83.856928,18.85518],[83.860029,18.850943],[83.867057,18.843424],[83.872948,18.834845],[83.878219,18.824794],[83.881113,18.820428],[83.88504,18.817198],[83.889174,18.814795],[83.897133,18.808361],[83.902404,18.805648],[83.949533,18.808516],[83.997798,18.806992],[84.054642,18.818438],[84.071386,18.81787],[84.083788,18.813503],[84.09309,18.806113],[84.103632,18.802651],[84.130193,18.801824],[84.139185,18.798],[84.153138,18.787717],[84.162129,18.785314],[84.18218,18.788027],[84.2537,18.805338],[84.317779,18.80924],[84.336072,18.8165],[84.351782,18.827766],[84.368835,18.849392],[84.376793,18.86704],[84.385888,18.894635],[84.391366,18.90094],[84.398187,18.903756],[84.409143,18.901921],[84.418031,18.901508],[84.427229,18.904402],[84.462576,18.946312],[84.467227,18.953624],[84.468777,18.959722],[84.466917,18.964295],[84.46423,18.968222],[84.462576,18.973157],[84.4633,18.979617],[84.46609,18.986774],[84.474255,19.000391],[84.474358,19.001114],[84.473945,19.007057],[84.468881,19.018684],[84.467227,19.02579],[84.469707,19.030647],[84.475599,19.033438],[84.489241,19.032534],[84.50092,19.030286],[84.513632,19.029795],[84.525208,19.032973],[84.55611,19.059276],[84.566963,19.06633],[84.64148,19.10054],[84.651919,19.098369],[84.65688,19.093641],[84.66153,19.090256],[84.669695,19.090153],[84.681064,19.100514],[84.687059,19.11196],[84.689436,19.125525],[84.687989,19.134672],[84.686128,19.140667],[84.683028,19.147126],[84.681374,19.153301],[84.685508,19.157565],[84.6945,19.160588],[84.708349,19.161673],[84.743696,19.161441],[84.754651,19.159658],[84.763023,19.156376],[84.770774,19.146868],[84.774185,19.139969],[84.777761,19.116197],[84.775157,19.115302],[84.764415,19.12344],[84.750662,19.138373],[84.73878,19.14765],[84.733653,19.139146],[84.731212,19.128811],[84.720958,19.114244],[84.719981,19.10163],[84.72283,19.096015],[84.735362,19.083197],[84.740489,19.073676],[84.756847,19.097642],[84.760997,19.10163],[84.767833,19.101793],[84.775238,19.100491],[84.78004,19.097073],[84.778331,19.09101],[84.75115,19.0539],[84.741059,19.028144],[84.699474,18.977484],[84.679535,18.945705],[84.66505,18.930121],[84.63087,18.915717],[84.547862,18.796088],[84.54184,18.775784],[84.448253,18.68065],[84.437185,18.662787],[84.432628,18.645697],[84.423676,18.636461],[84.370453,18.601304],[84.349457,18.56981],[84.332856,18.553697],[84.312266,18.546698],[84.306326,18.543687],[84.288585,18.529771],[84.281749,18.52558],[84.272716,18.524319],[84.250011,18.524237],[84.246918,18.52558],[84.237641,18.510932],[84.24936,18.501654],[84.271007,18.50019],[84.297699,18.516303],[84.326182,18.537421],[84.349946,18.552924],[84.331228,18.538642],[84.287934,18.505764],[84.240082,18.460761],[84.230479,18.446234],[84.188324,18.418036],[84.17449,18.399848],[84.152843,18.383612],[84.143891,18.374823],[84.138927,18.364163],[84.136485,18.353583],[84.132823,18.343411],[84.124034,18.333808],[84.113129,18.298285],[84.077403,18.271552],[83.775157,18.139594],[83.613943,18.045152],[83.582286,18.01911],[83.576182,18.009752],[83.562836,17.9831],[83.55836,17.977525],[83.556651,17.973456],[83.53891,17.956285],[83.534434,17.953315],[83.526134,17.942532],[83.486583,17.916897],[83.472911,17.902493],[83.465587,17.902493],[83.462901,17.908515],[83.451915,17.922919],[83.448985,17.906887],[83.452403,17.886217],[83.452973,17.868476],[83.431163,17.854234],[83.425304,17.838609],[83.417735,17.80622],[83.402354,17.784491],[83.341319,17.717434],[83.319102,17.703192],[83.313243,17.701158],[83.304373,17.692206],[83.298595,17.690131],[83.292735,17.691148],[83.289561,17.693264],[83.287446,17.69538],[83.284679,17.696357],[83.282237,17.699286],[83.280284,17.705959],[83.276378,17.71308],[83.26824,17.717475],[83.246918,17.716254],[83.242035,17.706529],[83.249278,17.69538],[83.271983,17.688137],[83.292491,17.677476],[83.298595,17.672797],[83.299083,17.664293],[83.289236,17.65762],[83.26824,17.648586],[83.255138,17.638129],[83.246918,17.634223],[83.212901,17.634914],[83.233897,17.607733],[83.238943,17.592963],[83.222911,17.586493],[83.209239,17.583686],[83.196137,17.576809],[83.171397,17.559801],[83.088227,17.530707],[83.053233,17.506496],[83.019867,17.490912],[82.99643,17.473456],[82.975841,17.453681],[82.969574,17.4501],[82.95281,17.44595],[82.945486,17.443101],[82.896821,17.409329],[82.888682,17.410142],[82.883311,17.422065],[82.869151,17.414008],[82.854259,17.402818],[82.837657,17.392768],[82.796397,17.383043],[82.758149,17.359198],[82.718516,17.348619],[82.474864,17.205959],[82.451915,17.18244],[82.435069,17.153795],[82.422862,17.13996],[82.387706,17.126939],[82.370372,17.110093],[82.342052,17.073188],[82.311697,17.046617],[82.299327,17.030341],[82.291677,16.99844],[82.252696,16.929185],[82.250743,16.907864],[82.255138,16.885321],[82.267914,16.867499],[82.29835,16.858466],[82.303559,16.854193],[82.308116,16.849555],[82.31422,16.846625],[82.319591,16.847235],[82.327159,16.849433],[82.333344,16.852118],[82.334646,16.854071],[82.352061,16.845404],[82.362478,16.859076],[82.361176,16.891343],[82.357432,16.924872],[82.348888,16.956488],[82.361176,16.936021],[82.366547,16.908637],[82.367442,16.860297],[82.365571,16.811591],[82.352061,16.761298],[82.345958,16.706122],[82.338145,16.678412],[82.31422,16.62816],[82.312348,16.619859],[82.313813,16.612982],[82.312836,16.60814],[82.303966,16.606431],[82.299327,16.610093],[82.293793,16.625637],[82.286876,16.62816],[82.280935,16.620836],[82.285492,16.606513],[82.296072,16.59101],[82.307384,16.579779],[82.259044,16.565497],[82.203461,16.512681],[82.188243,16.504055],[82.173025,16.500922],[82.122895,16.477362],[82.090668,16.454779],[82.068614,16.444281],[82.037364,16.447659],[82.022716,16.435736],[82.007823,16.419582],[81.992686,16.408433],[81.9817,16.407864],[81.967947,16.408922],[81.956228,16.407172],[81.94809,16.391547],[81.940766,16.388373],[81.899913,16.38581],[81.880544,16.381659],[81.861664,16.375393],[81.783214,16.338568],[81.76295,16.322577],[81.717621,16.312201],[81.711599,16.312201],[81.696056,16.314927],[81.676931,16.327379],[81.656261,16.337348],[81.636404,16.332709],[81.620942,16.339504],[81.584972,16.342108],[81.568126,16.346381],[81.573904,16.358344],[81.569184,16.36758],[81.556977,16.373033],[81.540212,16.373684],[81.549083,16.352362],[81.535981,16.350043],[81.49586,16.360663],[81.475352,16.358629],[81.416677,16.340155],[81.421153,16.350979],[81.426117,16.35871],[81.428233,16.365668],[81.424083,16.373684],[81.411388,16.382514],[81.398936,16.382636],[81.386974,16.376776],[81.375743,16.367499],[81.35963,16.374335],[81.345225,16.373603],[81.331554,16.369778],[81.317393,16.367499],[81.259613,16.332709],[81.248546,16.320136],[81.249848,16.311021],[81.256033,16.301825],[81.259613,16.288642],[81.254161,16.271308],[81.230317,16.243598],[81.218516,16.199449],[81.190278,16.138861],[81.180024,16.086737],[81.161957,16.057074],[81.156016,16.03852],[81.155447,15.9855],[81.14975,15.969631],[81.135102,15.966498],[81.088227,15.92121],[81.043305,15.89411],[81.026866,15.880845],[80.998871,15.846747],[80.998383,15.834703],[81.00294,15.825263],[81.0088,15.817816],[81.012543,15.811957],[81.019216,15.792385],[81.019054,15.784166],[81.012543,15.777818],[81.004731,15.77851],[80.99586,15.784329],[80.988292,15.791205],[80.979015,15.803412],[80.949474,15.827867],[80.940684,15.832994],[80.921641,15.838609],[80.910004,15.852688],[80.904307,15.871283],[80.90268,15.890815],[80.910167,15.965888],[80.908946,15.983466],[80.906016,15.999823],[80.896495,16.031073],[80.892263,16.020941],[80.896495,16.010565],[80.889008,16.00373],[80.885753,16.008694],[80.882823,16.011461],[80.875336,16.017401],[80.891287,15.978258],[80.895763,15.936021],[80.890147,15.89525],[80.855724,15.822699],[80.830251,15.747626],[80.820079,15.726874],[80.80714,15.716376],[80.80836,15.803941],[80.802745,15.842434],[80.776134,15.884263],[80.760102,15.892971],[80.736339,15.89761],[80.69044,15.900702],[80.682465,15.903266],[80.67628,15.907172],[80.670177,15.907701],[80.663097,15.900702],[80.660411,15.893948],[80.662852,15.88935],[80.618419,15.887681],[80.600108,15.882229],[80.584321,15.872545],[80.571137,15.86872],[80.56072,15.880845],[80.553884,15.880845],[80.541677,15.868069],[80.52589,15.85692],[80.491873,15.83926],[80.482677,15.836412],[80.475597,15.835924],[80.469086,15.834662],[80.461436,15.829657],[80.445486,15.814399],[80.43629,15.808295],[80.393321,15.797024],[80.35963,15.775824],[80.279633,15.70067],[80.263194,15.674547],[80.219493,15.56745],[80.217459,15.548163],[80.201345,15.518297],[80.197602,15.503079],[80.211192,15.496649],[80.20045,15.482164],[80.183849,15.452297],[80.172862,15.4383],[80.14031,15.406399],[80.126801,15.388129],[80.121267,15.370022],[80.090587,15.304877],[80.09254,15.296576],[80.082367,15.204088],[80.052989,15.092597],[80.054535,15.014146],[80.061534,14.974677],[80.073416,14.942043],[80.073009,14.920559],[80.105154,14.763861],[80.108165,14.714342],[80.110688,14.704779],[80.116954,14.698147],[80.128184,14.688463],[80.151866,14.672797],[80.159841,14.662665],[80.166352,14.62816],[80.173595,14.616523],[80.178477,14.60578],[80.175955,14.592963],[80.169688,14.585842],[80.160899,14.57982],[80.141856,14.571234],[80.149181,14.565009],[80.159353,14.565741],[80.183279,14.571112],[80.190196,14.571234],[80.196951,14.565009],[80.196056,14.559027],[80.192393,14.553209],[80.190196,14.547593],[80.188243,14.525702],[80.175955,14.468736],[80.178722,14.38939],[80.174978,14.34455],[80.159434,14.324774],[80.137055,14.269924],[80.128184,14.256537],[80.097911,14.254299],[80.087169,14.250312],[80.071788,14.232245],[80.070079,14.229193],[80.055024,14.221584],[80.046641,14.20661],[80.050629,14.196112],[80.073497,14.20185],[80.090994,14.216742],[80.106619,14.234036],[80.121104,14.242011],[80.13559,14.229193],[80.123383,14.193508],[80.125824,14.148505],[80.149669,14.027737],[80.16391,13.987982],[80.237153,13.839667],[80.249278,13.800279],[80.245453,13.755601],[80.227387,13.720526],[80.220958,13.696967],[80.227712,13.677069],[80.238048,13.660224],[80.259044,13.591742],[80.288097,13.527086],[80.285157,13.52318],[80.278542,13.514343],[80.277749,13.512516]],[[82.230361,16.719316],[82.217442,16.722959],[82.213721,16.732442],[82.221783,16.750296],[82.213721,16.74828],[82.206176,16.744146],[82.199148,16.738462],[82.192741,16.731796],[82.184886,16.72637],[82.177961,16.722933],[82.177651,16.718592],[82.189743,16.710427],[82.201319,16.706577],[82.224677,16.703658],[82.248654,16.69216],[82.260643,16.690325],[82.272839,16.692315],[82.285138,16.69787],[82.266534,16.703089],[82.271805,16.708412],[82.271392,16.708515],[82.284001,16.707404],[82.29506,16.709626],[82.301364,16.717662],[82.301054,16.733294],[82.29816,16.738178],[82.294956,16.741692],[82.291236,16.742079],[82.287102,16.737687],[82.279764,16.727429],[82.272632,16.721951],[82.263331,16.719652],[82.230361,16.719316]]]]}},{"type":"Feature","properties":{"id":"IN-TG","country":"IN","name_en":"Telangana"},"geometry":{"type":"Polygon","coordinates":[[[77.551163,18.307875],[77.557675,18.329889],[77.558295,18.336943],[77.552714,18.345831],[77.547753,18.352033],[77.502588,18.381591],[77.503724,18.389317],[77.508479,18.394872],[77.519537,18.40327],[77.529459,18.4096],[77.537831,18.417248],[77.543929,18.427325],[77.548063,18.442802],[77.54982,18.464946],[77.55261,18.472258],[77.557365,18.478692],[77.559535,18.487761],[77.558605,18.493161],[77.554781,18.500344],[77.559225,18.50763],[77.575245,18.522358],[77.580826,18.529154],[77.586097,18.539566],[77.592298,18.548145],[77.60222,18.55662],[77.610591,18.560418],[77.619273,18.56264],[77.660407,18.565353],[77.670019,18.566903],[77.679941,18.569978],[77.688519,18.574732],[77.696581,18.584215],[77.702989,18.597444],[77.70981,18.622688],[77.710223,18.637467],[77.70826,18.649844],[77.705262,18.658732],[77.703402,18.669119],[77.705779,18.679067],[77.712394,18.689454],[77.725416,18.700203],[77.736578,18.704052],[77.746604,18.705008],[77.770271,18.702683],[77.775542,18.702657],[77.781123,18.703768],[77.789082,18.715085],[77.819674,18.780043],[77.830526,18.798336],[77.839311,18.80955],[77.85037,18.814588],[77.864219,18.822546],[77.873831,18.826577],[77.886027,18.826422],[77.905664,18.832443],[77.912072,18.835362],[77.912072,18.846964],[77.910831,18.853113],[77.9037,18.861821],[77.897085,18.868022],[77.854814,18.896986],[77.842412,18.909208],[77.840551,18.91621],[77.839518,18.925848],[77.841378,18.938302],[77.839001,18.947009],[77.833937,18.950756],[77.826805,18.951117],[77.819054,18.950652],[77.813163,18.95197],[77.807272,18.95582],[77.804895,18.959954],[77.804275,18.964605],[77.805205,18.973855],[77.803964,18.978739],[77.800347,18.984035],[77.795283,18.987188],[77.789805,18.987859],[77.776679,18.985224],[77.769961,18.986102],[77.766551,18.989358],[77.76438,18.993518],[77.763347,18.99928],[77.763037,19.009021],[77.761486,19.018038],[77.758696,19.028115],[77.751978,19.045892],[77.752495,19.053566],[77.756629,19.059199],[77.768101,19.065038],[77.778023,19.07297],[77.788772,19.083409],[77.801794,19.099506],[77.810372,19.107955],[77.817607,19.113304],[77.827736,19.117541],[77.833627,19.121443],[77.836727,19.126688],[77.836417,19.134905],[77.834557,19.142372],[77.83187,19.149271],[77.832387,19.158934],[77.83559,19.170768],[77.845409,19.195909],[77.855021,19.228362],[77.860602,19.237922],[77.868663,19.24836],[77.889954,19.271356],[77.891298,19.279418],[77.887164,19.282906],[77.8698,19.290167],[77.865149,19.293035],[77.865459,19.29735],[77.86949,19.303267],[77.883133,19.31541],[77.892848,19.322438],[77.90308,19.327761],[77.911451,19.330267],[77.92003,19.331663],[77.927678,19.331482],[77.936359,19.329699],[77.954033,19.323756],[77.963128,19.322645],[77.984625,19.325384],[77.989069,19.324996],[77.992377,19.322749],[78.014701,19.28872],[78.024933,19.278591],[78.037025,19.270736],[78.050978,19.265414],[78.063897,19.264096],[78.075679,19.265569],[78.093869,19.269754],[78.100484,19.270064],[78.105755,19.269289],[78.118777,19.265207],[78.129216,19.262985],[78.157328,19.262261],[78.16787,19.264096],[78.174795,19.269599],[78.180066,19.279004],[78.181823,19.298512],[78.181616,19.310114],[78.172211,19.357088],[78.172314,19.365149],[78.174381,19.374657],[78.180582,19.384192],[78.186577,19.391039],[78.191848,19.39879],[78.204767,19.42822],[78.211898,19.440132],[78.22213,19.450854],[78.230812,19.45628],[78.240114,19.460182],[78.281145,19.466719],[78.29086,19.470621],[78.297578,19.475943],[78.302642,19.482765],[78.305329,19.49111],[78.306363,19.501678],[78.303262,19.551288],[78.305743,19.574826],[78.3106,19.589192],[78.328274,19.621723],[78.333441,19.643272],[78.341296,19.656294],[78.351528,19.66681],[78.383567,19.684535],[78.392352,19.691977],[78.397313,19.699754],[78.401034,19.709159],[78.403411,19.719262],[78.402791,19.728098],[78.39938,19.736082],[78.390492,19.744351],[78.383257,19.747839],[78.370958,19.750836],[78.363207,19.760448],[78.329514,19.838557],[78.321762,19.863258],[78.329204,19.891293],[78.369615,19.87517],[78.383257,19.866152],[78.386771,19.862276],[78.392869,19.853026],[78.403514,19.832485],[78.406822,19.828273],[78.410646,19.824863],[78.414883,19.822253],[78.477722,19.799128],[78.48382,19.798947],[78.491984,19.802306],[78.496015,19.806311],[78.498806,19.810445],[78.500046,19.813442],[78.502216,19.816052],[78.506557,19.818455],[78.512655,19.820341],[78.52051,19.821504],[78.526608,19.823674],[78.533739,19.824656],[78.541387,19.823984],[78.551929,19.818532],[78.560404,19.815225],[78.569913,19.81352],[78.584589,19.814734],[78.602469,19.817835],[78.616628,19.815199],[78.67864,19.792694],[78.711713,19.774349],[78.71781,19.773651],[78.740445,19.777243],[78.780029,19.776674],[78.805557,19.763755],[78.813205,19.755513],[78.826744,19.744506],[78.830568,19.74262],[78.83987,19.736987],[78.843591,19.732207],[78.845658,19.728796],[78.847518,19.724533],[78.87253,19.650119],[78.87594,19.64446],[78.880695,19.640429],[78.888756,19.636735],[78.914801,19.628285],[78.921002,19.624668],[78.923999,19.620301],[78.925446,19.609734],[78.927927,19.603765],[78.934852,19.598184],[78.944773,19.594412],[78.964307,19.589606],[78.972679,19.584774],[78.97733,19.581027],[78.978466,19.577203],[78.980327,19.573818],[78.980266,19.565755],[78.98076,19.564233],[78.98555,19.56088],[78.988478,19.560255],[78.999031,19.560858],[79.002112,19.560493],[79.011305,19.557003],[79.01265,19.554431],[79.013198,19.547079],[79.014032,19.545436],[79.024346,19.541525],[79.042672,19.548007],[79.058876,19.547063],[79.068427,19.535985],[79.080917,19.53183],[79.09708,19.531138],[79.109569,19.522829],[79.119855,19.511749],[79.150711,19.499977],[79.170548,19.477121],[79.183074,19.467435],[79.197731,19.461883],[79.209931,19.465658],[79.218302,19.474351],[79.213894,19.489588],[79.216057,19.504303],[79.22271,19.513827],[79.232077,19.525176],[79.243281,19.531138],[79.245741,19.538942],[79.243856,19.554039],[79.245485,19.559524],[79.254301,19.577522],[79.266002,19.589555],[79.271791,19.589128],[79.348883,19.580097],[79.363559,19.574051],[79.370691,19.566765],[79.384126,19.54935],[79.389501,19.544027],[79.396529,19.540461],[79.404074,19.537826],[79.420403,19.536379],[79.500812,19.537232],[79.504843,19.53581],[79.511767,19.534829],[79.538949,19.533821],[79.547217,19.530669],[79.552798,19.526328],[79.555279,19.521212],[79.558793,19.517336],[79.562513,19.514081],[79.571712,19.509688],[79.576363,19.508112],[79.582667,19.508189],[79.590005,19.510515],[79.600754,19.518938],[79.604888,19.525475],[79.607059,19.531909],[79.607265,19.542864],[79.608919,19.55307],[79.61295,19.557954],[79.619358,19.562734],[79.636101,19.569814],[79.708551,19.591388],[79.714752,19.595006],[79.718783,19.599192],[79.735423,19.603352],[79.795781,19.594101],[79.804566,19.58219],[79.811904,19.574206],[79.835158,19.554957],[79.841876,19.546714],[79.855002,19.521134],[79.86141,19.512608],[79.864924,19.50899],[79.869265,19.506407],[79.873916,19.504701],[79.893553,19.499689],[79.908229,19.493332],[79.918461,19.490697],[79.923318,19.488862],[79.927452,19.486227],[79.93107,19.482532],[79.943369,19.464419],[79.9505,19.457004],[79.954014,19.452017],[79.957425,19.445248],[79.963833,19.426024],[79.965383,19.414991],[79.965486,19.401917],[79.961145,19.364891],[79.957631,19.351455],[79.955874,19.333342],[79.956495,19.313395],[79.952981,19.297815],[79.94988,19.288771],[79.945953,19.28381],[79.933447,19.274173],[79.930553,19.270194],[79.928899,19.263915],[79.928486,19.26053],[79.931173,19.24929],[79.929106,19.230971],[79.930553,19.211928],[79.935411,19.191542],[79.943782,19.169218],[79.919288,19.158392],[79.893656,19.137411],[79.872675,19.110281],[79.861823,19.081084],[79.864717,19.048398],[79.882081,19.041939],[79.93355,19.053127],[79.941818,19.038141],[79.954531,18.968429],[79.964866,18.935356],[79.964246,18.88554],[79.960319,18.867117],[79.95019,18.855284],[79.91691,18.826577],[79.918564,18.824924],[79.967967,18.796476],[80.001866,18.785624],[80.039384,18.752112],[80.060674,18.73697],[80.066669,18.731002],[80.084032,18.701391],[80.090543,18.69749],[80.169712,18.690048],[80.241748,18.69749],[80.251464,18.700513],[80.270377,18.71369],[80.282676,18.716713],[80.294665,18.71338],[80.30314,18.70506],[80.309135,18.694182],[80.313682,18.683201],[80.316163,18.673305],[80.317506,18.652143],[80.319883,18.642247],[80.327118,18.631034],[80.33642,18.621189],[80.344481,18.610699],[80.347892,18.597547],[80.352026,18.592276],[80.361224,18.599382],[80.369699,18.610053],[80.372076,18.615557],[80.383549,18.612378],[80.390577,18.604214],[80.394297,18.593051],[80.409077,18.588866],[80.427887,18.597237],[80.464371,18.606668],[80.486591,18.606177],[80.502611,18.59995],[80.520388,18.58344],[80.53,18.57698],[80.551807,18.566903],[80.561212,18.560469],[80.583433,18.541375],[80.629322,18.490396],[80.644101,18.470268],[80.665185,18.449985],[80.679034,18.431253],[80.696191,18.412287],[80.705803,18.396836],[80.711901,18.382057],[80.720479,18.351619],[80.745284,18.297101],[80.770088,18.259015],[80.774222,18.248525],[80.774946,18.238861],[80.772259,18.232712],[80.76368,18.227751],[80.744767,18.219638],[80.737015,18.214108],[80.732054,18.207261],[80.729471,18.197985],[80.729781,18.187236],[80.735052,18.173749],[80.742596,18.166979],[80.753449,18.164189],[80.779287,18.164783],[80.791172,18.166282],[80.799441,18.168736],[80.804712,18.172457],[80.807192,18.176849],[80.809156,18.182947],[80.813497,18.20354],[80.816287,18.209302],[80.820318,18.21292],[80.828276,18.215297],[80.836544,18.214212],[80.84719,18.208036],[80.852357,18.196357],[80.854218,18.183128],[80.854838,18.169563],[80.857008,18.155559],[80.864243,18.143466],[80.873545,18.137575],[80.884913,18.136878],[80.896902,18.140676],[80.921397,18.151425],[80.934523,18.1553],[80.951473,18.153052],[80.959121,18.148247],[80.961394,18.139823],[80.957054,18.130134],[80.949199,18.117215],[80.941861,18.102565],[80.93752,18.086312],[80.93814,18.066159],[80.941551,18.048175],[80.947959,18.028616],[80.955193,18.012777],[80.974004,17.980195],[80.978964,17.963943],[80.985579,17.840462],[80.999945,17.80695],[81.015448,17.78522],[81.029401,17.776977],[81.044904,17.776073],[81.057926,17.782326],[81.082937,17.799896],[81.108672,17.811755],[81.135544,17.829946],[81.14774,17.83656],[81.157248,17.837904],[81.167377,17.836198],[81.177609,17.831496],[81.203033,17.816613],[81.221637,17.808887],[81.245201,17.803694],[81.274657,17.803849],[81.319409,17.808939],[81.39403,17.806691],[81.449943,17.794728],[81.460175,17.790465],[81.472681,17.787235],[81.479812,17.787519],[81.486944,17.792739],[81.491905,17.800619],[81.498313,17.817957],[81.502757,17.824209],[81.511232,17.826277],[81.524254,17.823486],[81.557844,17.803384],[81.578411,17.79695],[81.60611,17.811368],[81.622749,17.828292],[81.640319,17.842296],[81.655822,17.850875],[81.690549,17.855086],[81.704398,17.861029],[81.716594,17.873354],[81.724965,17.884723],[81.739435,17.897642],[81.758969,17.908933],[81.778595,17.894371],[81.786569,17.863122],[81.775781,17.833207],[81.708457,17.799574],[81.628586,17.763421],[81.573892,17.70453],[81.535249,17.637689],[81.52922,17.58843],[81.496388,17.495938],[81.469526,17.420487],[81.408339,17.370643],[81.290443,17.345004],[81.253134,17.335032],[81.214333,17.323635],[81.188963,17.299415],[81.144193,17.249538],[81.059128,17.222457],[80.99048,17.21818],[80.930786,17.19252],[80.893078,17.155634],[80.881564,17.120864],[80.875576,17.091811],[80.877879,17.082125],[80.855771,17.053066],[80.829519,17.046021],[80.722664,17.065835],[80.669698,17.079924],[80.641603,17.116903],[80.590939,17.139791],[80.541657,17.127467],[80.501756,17.10797],[80.494201,17.059388],[80.467415,17.035749],[80.442003,17.032466],[80.419338,17.053479],[80.39736,17.079085],[80.38431,17.062015],[80.386371,17.019332],[80.377442,16.99306],[80.38431,16.975982],[80.435821,16.951018],[80.474283,16.936564],[80.505877,16.943791],[80.525794,16.952332],[80.559448,16.949047],[80.586234,16.933936],[80.595163,16.906996],[80.582113,16.887281],[80.56563,16.861648],[80.569751,16.837984],[80.596536,16.81366],[80.59791,16.793278],[80.560562,16.783592],[80.506146,16.792487],[80.448136,16.822778],[80.393136,16.838522],[80.350986,16.862136],[80.329119,16.889756],[80.301231,16.94128],[80.280555,16.997387],[80.254109,17.023596],[80.220451,17.033251],[80.191601,17.031871],[80.153134,17.023136],[80.110821,16.997847],[80.077643,16.972555],[80.040619,16.93622],[80.012698,16.902147],[80.002428,16.871004],[80.023724,16.853535],[80.045629,16.838976],[80.073334,16.822862],[80.052989,16.785224],[80.046641,16.759467],[80.046153,16.747626],[80.042979,16.738552],[80.028819,16.725043],[80.025808,16.713202],[79.97169,16.654853],[79.963471,16.636501],[79.9581,16.630439],[79.947195,16.628201],[79.914561,16.628363],[79.909679,16.631293],[79.889089,16.691026],[79.882335,16.703233],[79.861501,16.70661],[79.826264,16.692084],[79.812592,16.711493],[79.7942,16.721788],[79.771658,16.727118],[79.751964,16.723741],[79.745616,16.716498],[79.730479,16.693793],[79.720876,16.689032],[79.679698,16.689032],[79.668061,16.686469],[79.646251,16.674018],[79.634695,16.669135],[79.62379,16.66828],[79.605724,16.671658],[79.59433,16.669135],[79.591807,16.666775],[79.589366,16.662299],[79.587494,16.656806],[79.586925,16.651435],[79.584972,16.648546],[79.574799,16.646837],[79.570242,16.644884],[79.557384,16.633734],[79.550548,16.629706],[79.542491,16.628201],[79.53297,16.630398],[79.516531,16.639838],[79.504324,16.641872],[79.496349,16.640163],[79.477061,16.631781],[79.44101,16.609565],[79.440359,16.606472],[79.435069,16.603461],[79.417735,16.590196],[79.406261,16.587226],[79.337983,16.585232],[79.313406,16.579372],[79.298757,16.57807],[79.283621,16.575222],[79.265636,16.569607],[79.247813,16.554023],[79.233409,16.523627],[79.217377,16.504462],[79.213471,16.493232],[79.2199,16.473334],[79.214773,16.429714],[79.21046,16.40823],[79.208263,16.388699],[79.211518,16.377265],[79.218761,16.360907],[79.229991,16.341742],[79.233409,16.330512],[79.226573,16.289496],[79.214773,16.244493],[79.210053,16.236599],[79.201427,16.228624],[79.184093,16.221015],[79.160574,16.219346],[79.136322,16.227851],[79.110281,16.231269],[79.091563,16.228827],[79.042898,16.245673],[79.021658,16.247138],[78.997162,16.230292],[78.922862,16.189765],[78.908946,16.161444],[78.907644,16.155626],[78.905772,16.150743],[78.902599,16.146552],[78.897716,16.142768],[78.889415,16.138983],[78.881847,16.138292],[78.874766,16.140326],[78.860281,16.149278],[78.853445,16.152167],[78.846934,16.150743],[78.841238,16.14293],[78.839122,16.124823],[78.845795,16.085476],[78.839447,16.066718],[78.819021,16.048407],[78.791108,16.034532],[78.760916,16.027696],[78.73406,16.0303],[78.684174,16.046332],[78.656505,16.067572],[78.6456,16.071601],[78.629161,16.071112],[78.581554,16.056179],[78.570404,16.055365],[78.559662,16.056708],[78.549327,16.060126],[78.539561,16.065538],[78.532644,16.072089],[78.519623,16.086941],[78.511485,16.091986],[78.499766,16.093777],[78.464285,16.085761],[78.399994,16.083441],[78.378835,16.075873],[78.353526,16.05268],[78.341563,16.059434],[78.332042,16.052069],[78.316335,16.02794],[78.299815,16.022813],[78.280854,16.027615],[78.261974,16.035183],[78.244395,16.03852],[78.251964,16.020575],[78.255951,16.005683],[78.254161,15.991767],[78.244395,15.976426],[78.236908,15.969591],[78.235281,15.950466],[78.213145,15.92768],[78.185069,15.908718],[78.165701,15.900702],[78.153575,15.897162],[78.141368,15.888129],[78.131928,15.876166],[78.123953,15.849921],[78.114268,15.839871],[78.100352,15.829657],[78.087494,15.832953],[77.950125,15.899766],[77.939952,15.903103],[77.914806,15.908149],[77.903412,15.912787],[77.8956,15.917996],[77.88795,15.919135],[77.877208,15.911566],[77.864757,15.899848],[77.857595,15.895575],[77.849864,15.893866],[77.794851,15.889268],[77.749034,15.897569],[77.686046,15.893866],[77.660574,15.895575],[77.641205,15.900662],[77.58253,15.928046],[77.563243,15.932318],[77.492198,15.9383],[77.446467,15.95298],[77.457009,15.966752],[77.473959,15.983495],[77.479953,15.993908],[77.483674,16.002073],[77.480883,16.045894],[77.4814,16.068606],[77.485121,16.092997],[77.485121,16.110774],[77.479023,16.164414],[77.480263,16.183819],[77.483984,16.199451],[77.488221,16.210458],[77.490185,16.222757],[77.488532,16.250455],[77.490805,16.261592],[77.495973,16.270506],[77.501347,16.275467],[77.530596,16.292572],[77.540001,16.299522],[77.546409,16.307532],[77.551783,16.317686],[77.55261,16.332156],[77.547649,16.343008],[77.538244,16.350191],[77.53318,16.361043],[77.493286,16.378174],[77.473132,16.381068],[77.410603,16.379362],[77.393964,16.381068],[77.293711,16.406518],[77.28472,16.4152],[77.257435,16.449358],[77.260328,16.454707],[77.273558,16.465145],[77.311591,16.485454],[77.344974,16.510259],[77.370916,16.524289],[77.378667,16.532221],[77.383112,16.542763],[77.383938,16.556173],[77.389519,16.565914],[77.396961,16.571702],[77.418045,16.579763],[77.427243,16.585732],[77.431998,16.593613],[77.435615,16.604956],[77.439439,16.622138],[77.444297,16.633042],[77.44626,16.640768],[77.44533,16.645677],[77.438819,16.65056],[77.431998,16.65162],[77.424866,16.650612],[77.413601,16.646891],[77.41112,16.647821],[77.411534,16.652808],[77.417011,16.663479],[77.424453,16.670998],[77.441299,16.684124],[77.445537,16.69017],[77.44409,16.695984],[77.435615,16.705544],[77.415461,16.717326],[77.410914,16.720582],[77.40957,16.726395],[77.40957,16.737842],[77.414841,16.779596],[77.418975,16.789647],[77.424763,16.795383],[77.431584,16.799569],[77.434375,16.812773],[77.433444,16.934755],[77.435718,16.954934],[77.442126,16.974726],[77.451221,16.992581],[77.46414,17.011546],[77.467758,17.025809],[77.465174,17.042578],[77.440989,17.081361],[77.433548,17.096838],[77.428587,17.135983],[77.425176,17.142339],[77.415564,17.149186],[77.405953,17.152855],[77.387349,17.15779],[77.378151,17.161873],[77.370399,17.169159],[77.366368,17.180476],[77.365335,17.194093],[77.37443,17.222567],[77.496386,17.374573],[77.507755,17.396329],[77.51623,17.41948],[77.525635,17.430435],[77.536177,17.435396],[77.548269,17.436119],[77.560982,17.438497],[77.570594,17.445008],[77.578345,17.455498],[77.581032,17.471854],[77.589714,17.481595],[77.599326,17.486917],[77.648005,17.497563],[77.651622,17.499216],[77.653173,17.500069],[77.682008,17.554975],[77.685832,17.567171],[77.683042,17.574044],[77.674257,17.577067],[77.655033,17.572132],[77.642321,17.566086],[77.620203,17.552779],[77.608628,17.548206],[77.599119,17.54681],[77.592608,17.550221],[77.588784,17.554174],[77.582583,17.578772],[77.54951,17.57407],[77.535867,17.573734],[77.515507,17.576369],[77.503414,17.576137],[77.492872,17.57761],[77.484914,17.581098],[77.469928,17.592105],[77.456699,17.599055],[77.423006,17.612517],[77.411534,17.630785],[77.423936,17.65267],[77.452358,17.689334],[77.463623,17.713415],[77.470548,17.720288],[77.480883,17.726541],[77.516127,17.740649],[77.525429,17.746281],[77.53132,17.754007],[77.533697,17.76318],[77.530906,17.777597],[77.526049,17.786434],[77.519641,17.793927],[77.506618,17.805141],[77.502277,17.80974],[77.500314,17.812298],[77.500107,17.815786],[77.501864,17.821858],[77.507859,17.834726],[77.515817,17.845578],[77.523465,17.852115],[77.530286,17.855319],[77.539691,17.858626],[77.549613,17.863277],[77.559225,17.869866],[77.61979,17.92565],[77.62413,17.932265],[77.626714,17.942187],[77.625784,17.957457],[77.62134,17.986835],[77.611211,18.017221],[77.60346,18.033732],[77.594778,18.044609],[77.562946,18.070784],[77.559122,18.078354],[77.557675,18.086157],[77.560982,18.095769],[77.565736,18.100885],[77.572454,18.10396],[77.585477,18.106466],[77.591678,18.108301],[77.596535,18.110885],[77.599946,18.114838],[77.600979,18.125121],[77.590748,18.175454],[77.569767,18.223668],[77.568527,18.233745],[77.570904,18.249584],[77.575658,18.261909],[77.582066,18.274182],[77.583616,18.284491],[77.583306,18.291545],[77.551163,18.307875]]]}}]}
