{"type":"FeatureCollection","features":[{"type":"Feature","properties":{"id":"IR-TKM-SAHRA","country":"IR","name_en":"Turkmen Sahra"},"geometry":{"type":"Polygon","coordinates":[[[53.78,36.8],[53.88,37.18],[54.02,37.38],[54.35,37.36],[54.7,37.48],[55.02,37.82],[55.34,38.02],[55.73,38.11],[56.08,38.1],[56.17,37.96],[56.13,37.76],[55.95,37.56],[55.72,37.42],[55.5,37.34],[55.2,37.2],[54.84,37.08],[54.5,36.97],[54.2,36.86],[53.96,36.82],[53.78,36.8]]]}},{"type":"Feature","properties":{"id":"AF-TKM-JOWZJAN","country":"AF","name_en":"Jowzjan Turkmen core"},"geometry":{"type":"Polygon","coordinates":[[[65.12,36.04],[65.12,36.62],[65.18,37.18],[65.48,37.48],[65.9,37.55],[66.3,37.5],[66.53,37.28],[66.45,36.9],[66.34,36.48],[65.95,36.27],[65.52,36.1],[65.12,36.04]]]}},{"type":"Feature","properties":{"id":"AF-TKM-NORTH-BELT","country":"AF","name_en":"Northern Afghanistan Turkmen belt"},"geometry":{"type":"MultiPolygon","coordinates":[[[[63.94,35.84],[63.92,36.2],[64.16,36.48],[64.55,36.7],[64.92,36.94],[65.22,37.2],[65.46,37.08],[65.32,36.62],[65.03,36.24],[64.55,35.97],[63.94,35.84]]],[[[66.28,36.62],[66.34,37.34],[66.92,37.32],[67.55,37.16],[68.16,37.03],[68.75,37.13],[69.42,37.03],[69.38,36.66],[68.82,36.56],[68.18,36.51],[67.55,36.5],[66.86,36.54],[66.28,36.62]]]]}},{"type":"Feature","properties":{"id":"UZ-TKM-KHOREZM","country":"UZ","name_en":"Khorezm Turkmen-speaking area"},"geometry":{"type":"Polygon","coordinates":[[[60.14,40.62],[60.08,41.03],[60.18,41.48],[60.55,41.76],[61.05,41.74],[61.58,41.6],[62.18,41.25],[62.35,40.86],[62.13,40.6],[61.62,40.53],[61.08,40.55],[60.55,40.57],[60.14,40.62]]]}},{"type":"Feature","properties":{"id":"UZ-TKM-SOUTH-KARAKALPAK","country":"UZ","name_en":"Southern Karakalpakstan Turkmen-speaking area"},"geometry":{"type":"Polygon","coordinates":[[[58.05,41.02],[58,41.45],[58.26,41.86],[58.78,42.08],[59.42,42.12],[60.03,41.98],[60.4,41.66],[60.3,41.24],[59.82,41.05],[59.2,40.99],[58.58,40.98],[58.05,41.02]]]}}]}
