{"type":"FeatureCollection","features":[{"type":"Feature","properties":{"id":"PH-MNL","country":"PH","name_en":"Las Pinas"},"geometry":{"type":"Polygon","coordinates":[[[120.960804,14.49523],[120.970388,14.501899],[120.973393,14.505999],[120.987216,14.489503],[120.997576,14.485187],[120.998439,14.478712],[121.008367,14.47051],[121.010957,14.458424],[121.021749,14.451517],[121.025202,14.442884],[121.032972,14.438567],[121.031245,14.432956],[121.031677,14.426913],[121.021749,14.414826],[121.01959,14.401876],[121.014196,14.39706],[121.012903,14.401137],[120.988411,14.4405],[120.975561,14.448927],[120.972906,14.477101],[120.960804,14.49523]]]}},{"type":"Feature","properties":{"id":"PH-MNL","country":"PH","name_en":"Parañaque"},"geometry":{"type":"Polygon","coordinates":[[[120.973393,14.505999],[120.980317,14.515448],[120.984386,14.534003],[121.005777,14.531806],[121.004914,14.517993],[121.007504,14.509791],[121.021317,14.511518],[121.032108,14.505906],[121.044627,14.507201],[121.057145,14.502021],[121.05585,14.464899],[121.05585,14.449359],[121.032972,14.438567],[121.025202,14.442884],[121.021749,14.451517],[121.010957,14.458424],[121.008367,14.47051],[120.998439,14.478712],[120.997576,14.485187],[120.987216,14.489503],[120.973393,14.505999]]]}},{"type":"Feature","properties":{"id":"PH-MNL","country":"PH","name_en":"Pasay"},"geometry":{"type":"Polygon","coordinates":[[[120.984386,14.534003],[120.980154,14.55744],[121.006209,14.557705],[121.008799,14.549504],[121.017432,14.546482],[121.018295,14.537417],[121.022612,14.529647],[121.032108,14.527489],[121.044627,14.507201],[121.032108,14.505906],[121.021317,14.511518],[121.007504,14.509791],[121.004914,14.517993],[121.005777,14.531806],[120.984386,14.534003]]]}},{"type":"Feature","properties":{"id":"PH-MNL","country":"PH","name_en":"Metro Manila"},"geometry":{"type":"Polygon","coordinates":[[[120.980154,14.55744],[120.958832,14.591783],[120.950206,14.612779],[120.947584,14.627864],[120.976856,14.628281],[120.986353,14.629145],[120.991101,14.63044],[121.001029,14.627418],[120.999302,14.618137],[121.02995,14.597418],[121.037288,14.588785],[121.026497,14.574972],[121.006209,14.557705],[120.980154,14.55744]]]}},{"type":"Feature","properties":{"id":"PH-MNL","country":"PH","name_en":"Navotas"},"geometry":{"type":"Polygon","coordinates":[[[120.947584,14.627864],[120.943126,14.65351],[120.936534,14.667426],[120.916214,14.694389],[120.921604,14.701879],[120.933964,14.693431],[120.928942,14.68785],[120.936712,14.679217],[120.944913,14.672742],[120.955273,14.653318],[120.959158,14.643389],[120.965201,14.642958],[120.968655,14.636483],[120.976856,14.628281],[120.947584,14.627864]]]}},{"type":"Feature","properties":{"id":"PH-MNL","country":"PH","name_en":"Muntinlupa"},"geometry":{"type":"Polygon","coordinates":[[[121.014842,14.359142],[121.017281,14.387331],[121.014196,14.39706],[121.01959,14.401876],[121.021749,14.414826],[121.031677,14.426913],[121.031245,14.432956],[121.032972,14.438567],[121.05585,14.449359],[121.05585,14.464899],[121.064051,14.47051],[121.072684,14.469647],[121.134708,14.454146],[121.143438,14.388166],[121.067111,14.384989],[121.061461,14.378998],[121.056713,14.378135],[121.052396,14.380293],[121.038915,14.372701],[121.027792,14.363459],[121.014842,14.359142]]]}},{"type":"Feature","properties":{"id":"PH-MNL","country":"PH","name_en":"Caloocan"},"geometry":{"type":"MultiPolygon","coordinates":[[[[121.05828,14.766693],[121.108468,14.751973],[121.115849,14.752828],[121.112829,14.743534],[121.102469,14.740944],[121.098152,14.732743],[121.089087,14.727995],[121.065778,14.7267],[121.05067,14.724973],[121.036425,14.715476],[121.026065,14.708138],[121.025634,14.694757],[121.021749,14.697994],[121.016569,14.697994],[121.010957,14.703174],[121.011821,14.713966],[121.017432,14.714829],[121.018727,14.724757],[121.017864,14.730369],[121.009031,14.739478],[121.031318,14.748824],[121.04037,14.763831],[121.05828,14.766693]]],[[[120.968655,14.636483],[120.971245,14.641663],[120.971676,14.650728],[120.980309,14.652454],[120.999734,14.653318],[121.008367,14.660656],[121.004482,14.664541],[121.010526,14.673174],[121.018295,14.674037],[121.02477,14.678785],[121.035562,14.679217],[121.023044,14.666699],[121.009231,14.649864],[121.001461,14.636051],[121.001029,14.627418],[120.991101,14.63044],[120.986353,14.629145],[120.976856,14.628281],[120.968655,14.636483]]]]}},{"type":"Feature","properties":{"id":"PH-MNL","country":"PH","name_en":"Malabon"},"geometry":{"type":"Polygon","coordinates":[[[120.933964,14.693431],[120.95485,14.679156],[120.953268,14.688949],[120.963475,14.685692],[120.969086,14.674037],[120.972971,14.667131],[120.981173,14.666267],[120.994123,14.660224],[121.004482,14.664541],[121.008367,14.660656],[120.999734,14.653318],[120.980309,14.652454],[120.971676,14.650728],[120.971245,14.641663],[120.968655,14.636483],[120.965201,14.642958],[120.959158,14.643389],[120.955273,14.653318],[120.944913,14.672742],[120.936712,14.679217],[120.928942,14.68785],[120.933964,14.693431]]]}},{"type":"Feature","properties":{"id":"PH-MNL","country":"PH","name_en":"Valenzuela City"},"geometry":{"type":"Polygon","coordinates":[[[120.967167,14.707126],[120.98962,14.715679],[120.998173,14.734924],[121.009031,14.739478],[121.017864,14.730369],[121.018727,14.724757],[121.017432,14.714829],[121.011821,14.713966],[121.010957,14.703174],[121.016569,14.697994],[121.021749,14.697994],[121.025634,14.694757],[121.025634,14.688714],[121.037288,14.68526],[121.035562,14.679217],[121.02477,14.678785],[121.018295,14.674037],[121.010526,14.673174],[121.004482,14.664541],[120.994123,14.660224],[120.981173,14.666267],[120.972971,14.667131],[120.969086,14.674037],[120.963475,14.685692],[120.953268,14.688949],[120.931884,14.721025],[120.953268,14.721025],[120.967167,14.707126]]]}},{"type":"Feature","properties":{"id":"PH-MNL","country":"PH","name_en":"Quezon City"},"geometry":{"type":"Polygon","coordinates":[[[121.129256,14.76123],[121.154268,14.758427],[121.143476,14.742455],[121.137433,14.73857],[121.13657,14.726052],[121.146066,14.718714],[121.130527,14.688929],[121.12621,14.663462],[121.11844,14.660008],[121.113692,14.658282],[121.102901,14.644469],[121.095131,14.644469],[121.098152,14.636267],[121.094267,14.629792],[121.088656,14.617706],[121.092109,14.608641],[121.103764,14.597418],[121.099016,14.595691],[121.095994,14.584468],[121.084771,14.58749],[121.071389,14.583605],[121.071389,14.593965],[121.069663,14.599576],[121.064051,14.599144],[121.061893,14.602166],[121.051101,14.603029],[121.048943,14.600439],[121.044627,14.603461],[121.034698,14.606914],[121.02995,14.597418],[120.999302,14.618137],[121.001029,14.627418],[121.001461,14.636051],[121.009231,14.649864],[121.023044,14.666699],[121.035562,14.679217],[121.037288,14.68526],[121.025634,14.688714],[121.025634,14.694757],[121.026065,14.708138],[121.036425,14.715476],[121.05067,14.724973],[121.065778,14.7267],[121.089087,14.727995],[121.098152,14.732743],[121.102469,14.740944],[121.112829,14.743534],[121.115849,14.752828],[121.123188,14.753678],[121.129256,14.76123]]]}},{"type":"Feature","properties":{"id":"PH-MNL","country":"PH","name_en":"Taguig City"},"geometry":{"type":"Polygon","coordinates":[[[121.125347,14.524899],[121.134708,14.454146],[121.072684,14.469647],[121.064051,14.47051],[121.05585,14.464899],[121.057145,14.502021],[121.044627,14.507201],[121.032108,14.527489],[121.041605,14.532237],[121.05585,14.537849],[121.057145,14.544324],[121.051533,14.549504],[121.051965,14.554252],[121.06103,14.552957],[121.065346,14.557274],[121.073116,14.55123],[121.067936,14.54346],[121.068368,14.539144],[121.069663,14.531374],[121.074411,14.530511],[121.077433,14.534827],[121.084771,14.535691],[121.086929,14.541302],[121.091677,14.543029],[121.094699,14.540871],[121.10549,14.541302],[121.109375,14.540871],[121.125347,14.524899]]]}},{"type":"Feature","properties":{"id":"PH-MNL","country":"PH","name_en":"Marikina"},"geometry":{"type":"Polygon","coordinates":[[[121.12621,14.663462],[121.149951,14.655692],[121.15211,14.645764],[121.147361,14.625044],[121.130958,14.627634],[121.122325,14.621159],[121.11844,14.609073],[121.113692,14.611663],[121.105059,14.613821],[121.096857,14.615116],[121.092109,14.608641],[121.088656,14.617706],[121.094267,14.629792],[121.098152,14.636267],[121.095131,14.644469],[121.102901,14.644469],[121.113692,14.658282],[121.11844,14.660008],[121.12621,14.663462]]]}},{"type":"Feature","properties":{"id":"PH-MNL","country":"PH","name_en":"Pasig"},"geometry":{"type":"Polygon","coordinates":[[[121.11844,14.609073],[121.125778,14.594828],[121.124052,14.57454],[121.118872,14.565907],[121.124483,14.556842],[121.11837,14.548291],[121.125347,14.524899],[121.109375,14.540871],[121.10549,14.541302],[121.094699,14.540871],[121.091677,14.543029],[121.090814,14.547345],[121.086497,14.549504],[121.080454,14.547777],[121.078728,14.55123],[121.079591,14.556842],[121.064483,14.564612],[121.069231,14.571087],[121.072684,14.580583],[121.071389,14.583605],[121.084771,14.58749],[121.095994,14.584468],[121.099016,14.595691],[121.103764,14.597418],[121.092109,14.608641],[121.096857,14.615116],[121.105059,14.613821],[121.113692,14.611663],[121.11844,14.609073]]]}},{"type":"Feature","properties":{"id":"PH-MNL","country":"PH","name_en":"Makati"},"geometry":{"type":"Polygon","coordinates":[[[121.074411,14.530511],[121.069663,14.531374],[121.068368,14.539144],[121.067936,14.54346],[121.073116,14.55123],[121.065346,14.557274],[121.06103,14.552957],[121.051965,14.554252],[121.051533,14.549504],[121.057145,14.544324],[121.05585,14.537849],[121.041605,14.532237],[121.032108,14.527489],[121.022612,14.529647],[121.018295,14.537417],[121.017432,14.546482],[121.008799,14.549504],[121.006209,14.557705],[121.026497,14.574972],[121.036857,14.568928],[121.044627,14.562453],[121.064483,14.564612],[121.079591,14.556842],[121.078728,14.55123],[121.080454,14.547777],[121.076569,14.543029],[121.077433,14.534827],[121.074411,14.530511]]]}},{"type":"Feature","properties":{"id":"PH-MNL","country":"PH","name_en":"Pateros"},"geometry":{"type":"Polygon","coordinates":[[[121.077433,14.534827],[121.076569,14.543029],[121.080454,14.547777],[121.086497,14.549504],[121.090814,14.547345],[121.091677,14.543029],[121.086929,14.541302],[121.084771,14.535691],[121.077433,14.534827]]]}},{"type":"Feature","properties":{"id":"PH-MNL","country":"PH","name_en":"Mandaluyong"},"geometry":{"type":"Polygon","coordinates":[[[121.044627,14.562453],[121.036857,14.568928],[121.026497,14.574972],[121.037288,14.588785],[121.044627,14.5849],[121.057145,14.588353],[121.062756,14.594396],[121.071389,14.593965],[121.071389,14.583605],[121.072684,14.580583],[121.069231,14.571087],[121.064483,14.564612],[121.044627,14.562453]]]}},{"type":"Feature","properties":{"id":"PH-MNL","country":"PH","name_en":"San Juan"},"geometry":{"type":"Polygon","coordinates":[[[121.034698,14.606914],[121.044627,14.603461],[121.048943,14.600439],[121.051101,14.603029],[121.061893,14.602166],[121.064051,14.599144],[121.069663,14.599576],[121.071389,14.593965],[121.062756,14.594396],[121.057145,14.588353],[121.044627,14.5849],[121.037288,14.588785],[121.02995,14.597418],[121.034698,14.606914]]]}},{"type":"Feature","properties":{"id":"PH-CAV","country":"PH","name_en":"Cavite"},"geometry":{"type":"Polygon","coordinates":[[[120.59668,14.218797],[120.612478,14.237047],[120.621267,14.253404],[120.627452,14.269599],[120.643321,14.277086],[120.68336,14.28384],[120.697602,14.289496],[120.713145,14.298529],[120.725352,14.309556],[120.730479,14.321357],[120.735606,14.327216],[120.76002,14.337144],[120.768321,14.34219],[120.789561,14.375312],[120.87794,14.458889],[120.886078,14.462388],[120.897472,14.463121],[120.9192,14.461982],[120.926117,14.464667],[120.94337,14.4831],[120.960804,14.49523],[120.972906,14.477101],[120.975561,14.448927],[120.988411,14.4405],[121.012903,14.401137],[121.014196,14.39706],[121.017281,14.387331],[121.014842,14.359142],[121.014247,14.336335],[121.014764,14.32817],[121.024582,14.32295],[121.035951,14.324759],[121.04856,14.328118],[121.061996,14.327343],[121.074708,14.315871],[121.069851,14.299438],[121.057448,14.279594],[121.047113,14.2582],[121.057552,14.240785],[121.028613,14.172365],[121.032954,14.143995],[121.023859,14.126528],[120.983448,14.104927],[120.934148,14.086531],[120.898285,14.078779],[120.868933,14.076092],[120.860561,14.078159],[120.844231,14.087047],[120.815396,14.109888],[120.810228,14.110715],[120.795035,14.109475],[120.788421,14.110405],[120.780049,14.115211],[120.763306,14.127975],[120.753488,14.133194],[120.744909,14.135313],[120.727029,14.136864],[120.717624,14.139551],[120.705429,14.147354],[120.694163,14.158309],[120.686825,14.169626],[120.686102,14.178618],[120.686722,14.192364],[120.677627,14.203991],[120.663984,14.212208],[120.650962,14.21598],[120.634425,14.214223],[120.623366,14.209676],[120.611377,14.209624],[120.596805,14.218719],[120.59668,14.218797]]]}},{"type":"Feature","properties":{"id":"PH-LAG","country":"PH","name_en":"Laguna"},"geometry":{"type":"Polygon","coordinates":[[[121.466209,14.562884],[121.496491,14.518546],[121.52233,14.471727],[121.590336,14.313287],[121.597984,14.281764],[121.600464,14.249828],[121.59447,14.219494],[121.581137,14.198772],[121.564911,14.180272],[121.550028,14.156397],[121.531838,14.112007],[121.519849,14.091078],[121.503726,14.074542],[121.481505,14.065137],[121.437373,14.060589],[121.416496,14.050977],[121.343942,14.000851],[121.264464,13.961525],[121.263741,13.984521],[121.250615,13.991963],[121.234285,13.99527],[121.223743,14.005915],[121.20545,14.111645],[121.180955,14.138517],[121.129692,14.149369],[121.073261,14.149524],[121.032954,14.143995],[121.028613,14.172365],[121.057552,14.240785],[121.047113,14.2582],[121.057448,14.279594],[121.069851,14.299438],[121.074708,14.315871],[121.061996,14.327343],[121.04856,14.328118],[121.035951,14.324759],[121.024582,14.32295],[121.014764,14.32817],[121.014247,14.336335],[121.014842,14.359142],[121.027792,14.363459],[121.038915,14.372701],[121.052396,14.380293],[121.056713,14.378135],[121.061461,14.378998],[121.067111,14.384989],[121.143438,14.388166],[121.134708,14.454146],[121.125347,14.524899],[121.130527,14.527057],[121.139407,14.527408],[121.151603,14.519889],[121.172273,14.502423],[121.20545,14.420076],[121.215475,14.38367],[121.226534,14.319617],[121.242347,14.301815],[121.251545,14.316491],[121.254956,14.33649],[121.26281,14.349564],[121.252992,14.360467],[121.237696,14.393954],[121.234388,14.431936],[121.234285,14.467851],[121.246791,14.502474],[121.26095,14.51436],[121.277383,14.509037],[121.285858,14.489323],[121.29423,14.484207],[121.303325,14.480563],[121.313557,14.473716],[121.323169,14.465939],[121.3303,14.455242],[121.334434,14.443021],[121.338051,14.416459],[121.334537,14.389975],[121.320998,14.344861],[121.306322,14.31954],[121.309216,14.290549],[121.346733,14.319359],[121.388384,14.345094],[121.371744,14.3684],[121.374845,14.397003],[121.359549,14.466456],[121.366783,14.501286],[121.385904,14.53224],[121.427968,14.556528],[121.460525,14.571514],[121.466209,14.562884]]]}},{"type":"Feature","properties":{"id":"PH-RIZ","country":"PH","name_en":"Rizal"},"geometry":{"type":"Polygon","coordinates":[[[121.342082,14.889272],[121.345803,14.792844],[121.354588,14.747162],[121.374018,14.703444],[121.460525,14.571514],[121.427968,14.556528],[121.385904,14.53224],[121.366783,14.501286],[121.359549,14.466456],[121.374845,14.397003],[121.371744,14.3684],[121.388384,14.345094],[121.346733,14.319359],[121.309216,14.290549],[121.306322,14.31954],[121.320998,14.344861],[121.334537,14.389975],[121.338051,14.416459],[121.334434,14.443021],[121.3303,14.455242],[121.323169,14.465939],[121.313557,14.473716],[121.303325,14.480563],[121.29423,14.484207],[121.285858,14.489323],[121.277383,14.509037],[121.26095,14.51436],[121.246791,14.502474],[121.234285,14.467851],[121.234388,14.431936],[121.237696,14.393954],[121.252992,14.360467],[121.26281,14.349564],[121.254956,14.33649],[121.251545,14.316491],[121.242347,14.301815],[121.226534,14.319617],[121.215475,14.38367],[121.20545,14.420076],[121.172273,14.502423],[121.151603,14.519889],[121.139407,14.527408],[121.130527,14.527057],[121.125347,14.524899],[121.11837,14.548291],[121.124483,14.556842],[121.118872,14.565907],[121.124052,14.57454],[121.125778,14.594828],[121.11844,14.609073],[121.122325,14.621159],[121.130958,14.627634],[121.147361,14.625044],[121.15211,14.645764],[121.149951,14.655692],[121.12621,14.663462],[121.130527,14.688929],[121.146066,14.718714],[121.13657,14.726052],[121.137433,14.73857],[121.143476,14.742455],[121.154268,14.758427],[121.166786,14.77483],[121.187074,14.799434],[121.20576,14.826382],[121.24276,14.833875],[121.268392,14.848551],[121.286892,14.872116],[121.308079,14.890461],[121.342082,14.889272]]]}},{"type":"Feature","properties":{"id":"PH-BTG","country":"PH","name_en":"Batangas"},"geometry":{"type":"MultiPolygon","coordinates":[[[[121.454581,13.819219],[121.433442,13.796373],[121.440766,13.726386],[121.43629,13.700995],[121.445811,13.700914],[121.452322,13.699449],[121.464122,13.69477],[121.434337,13.66356],[121.430024,13.656928],[121.388845,13.666734],[121.374766,13.667467],[121.355642,13.657131],[121.298106,13.614895],[121.278819,13.595038],[121.26352,13.600043],[121.249197,13.608629],[121.244965,13.61225],[121.217784,13.623236],[121.2046,13.625718],[121.186697,13.626532],[121.177989,13.629096],[121.169444,13.634589],[121.158702,13.639472],[121.142589,13.640204],[121.110118,13.632961],[121.094493,13.626899],[121.080414,13.619086],[121.070486,13.622504],[121.047537,13.627265],[121.03891,13.632758],[121.033946,13.641832],[121.037364,13.647121],[121.043224,13.652981],[121.046397,13.663764],[121.048839,13.6883],[121.052745,13.705878],[121.053477,13.722113],[121.039806,13.758694],[121.035899,13.7626],[121.016287,13.775295],[121.003754,13.780911],[120.990977,13.783637],[120.980968,13.780463],[120.903087,13.692939],[120.89503,13.687974],[120.887462,13.693508],[120.882335,13.705227],[120.880707,13.716864],[120.88502,13.722113],[120.89324,13.727281],[120.898204,13.738837],[120.901866,13.750393],[120.905772,13.755601],[120.918712,13.757025],[120.926036,13.761664],[120.928966,13.77025],[120.929047,13.783596],[120.912608,13.800035],[120.90919,13.804633],[120.908702,13.816107],[120.91391,13.837348],[120.915375,13.8487],[120.914887,13.864936],[120.912364,13.881781],[120.906261,13.89647],[120.89503,13.90644],[120.87672,13.912258],[120.786876,13.923326],[120.745942,13.933783],[120.723643,13.934394],[120.704845,13.927436],[120.697439,13.913886],[120.700938,13.896145],[120.714366,13.87637],[120.722911,13.855414],[120.70338,13.851711],[120.662283,13.85928],[120.652599,13.845526],[120.656261,13.827094],[120.664887,13.806627],[120.669688,13.786933],[120.663422,13.775377],[120.649669,13.784247],[120.628103,13.810858],[120.620128,13.846625],[120.618419,13.931627],[120.601329,13.969143],[120.616873,13.971666],[120.628917,13.981269],[120.634776,13.991604],[120.631684,13.996487],[120.619884,14.002916],[120.617442,14.01789],[120.621837,14.076565],[120.619477,14.104234],[120.607758,14.124905],[120.580333,14.133002],[120.580333,14.140448],[120.595714,14.147935],[120.597423,14.156928],[120.588878,14.166164],[120.573497,14.174547],[120.583018,14.174465],[120.58961,14.176011],[120.601329,14.181383],[120.601329,14.188218],[120.58725,14.200263],[120.595958,14.217963],[120.59668,14.218797],[120.596805,14.218719],[120.611377,14.209624],[120.623366,14.209676],[120.634425,14.214223],[120.650962,14.21598],[120.663984,14.212208],[120.677627,14.203991],[120.686722,14.192364],[120.686102,14.178618],[120.686825,14.169626],[120.694163,14.158309],[120.705429,14.147354],[120.717624,14.139551],[120.727029,14.136864],[120.744909,14.135313],[120.753488,14.133194],[120.763306,14.127975],[120.780049,14.115211],[120.788421,14.110405],[120.795035,14.109475],[120.810228,14.110715],[120.815396,14.109888],[120.844231,14.087047],[120.860561,14.078159],[120.868933,14.076092],[120.898285,14.078779],[120.934148,14.086531],[120.983448,14.104927],[121.023859,14.126528],[121.032954,14.143995],[121.073261,14.149524],[121.129692,14.149369],[121.180955,14.138517],[121.20545,14.111645],[121.223743,14.005915],[121.234285,13.99527],[121.250615,13.991963],[121.263741,13.984521],[121.264464,13.961525],[121.273042,13.948296],[121.297227,13.933052],[121.306012,13.921631],[121.312833,13.907007],[121.319758,13.898428],[121.342392,13.884011],[121.395516,13.842204],[121.410398,13.837089],[121.425178,13.836933],[121.438924,13.832231],[121.450913,13.823756],[121.454581,13.819219]]],[[[121.088634,13.530341],[121.072113,13.535834],[121.043468,13.561225],[121.043468,13.567572],[121.05128,13.567776],[121.058116,13.56509],[121.066905,13.567206],[121.077485,13.572252],[121.085785,13.570624],[121.091319,13.562323],[121.094249,13.537055],[121.088634,13.530341]]],[[[120.909841,13.658922],[120.927094,13.658067],[120.936046,13.651597],[120.935069,13.63817],[120.923025,13.629421],[120.910248,13.62755],[120.875499,13.634833],[120.840831,13.655626],[120.836925,13.6612],[120.827322,13.684068],[120.826427,13.688259],[120.828461,13.690334],[120.838959,13.676947],[120.845795,13.672105],[120.882498,13.659451],[120.909841,13.658922]]]]}},{"type":"Feature","properties":{"id":"PH-QUE","country":"PH","name_en":"Quezon"},"geometry":{"type":"MultiPolygon","coordinates":[[[[121.446178,15.207934],[121.468435,15.196112],[121.481456,15.182522],[121.487559,15.163316],[121.508149,15.062812],[121.51531,15.051663],[121.527843,15.040758],[121.560069,14.989651],[121.56658,14.972805],[121.570649,14.94599],[121.581798,14.919664],[121.597341,14.894843],[121.615001,14.87287],[121.60963,14.86994],[121.59962,14.862006],[121.594493,14.859198],[121.635753,14.811591],[121.642263,14.800849],[121.649913,14.792182],[121.712657,14.744371],[121.724946,14.73078],[121.726085,14.72016],[121.707367,14.715806],[121.670909,14.714342],[121.649181,14.710517],[121.629161,14.702826],[121.613943,14.689887],[121.608084,14.674262],[121.608165,14.630194],[121.610688,14.612616],[121.647227,14.492255],[121.651378,14.456122],[121.662446,14.417385],[121.670177,14.401109],[121.682384,14.385443],[121.724864,14.345893],[121.734711,14.328681],[121.736095,14.314887],[121.731619,14.280422],[121.73585,14.273139],[121.754649,14.255764],[121.758962,14.246568],[121.757172,14.230618],[121.752126,14.215725],[121.743663,14.203437],[121.731619,14.195054],[121.731619,14.188218],[121.744884,14.177151],[121.78004,14.126166],[121.847667,14.078355],[121.917247,14.009508],[121.93629,13.995185],[122.087901,13.937812],[122.231944,13.90644],[122.233165,13.933051],[122.222016,13.952094],[122.183442,13.988959],[122.202403,13.994574],[122.293305,13.97012],[122.298513,13.972561],[122.300141,13.985582],[122.296397,14.002753],[122.299815,14.007554],[122.313731,14.010077],[122.313731,14.016303],[122.290782,14.023098],[122.251964,14.067694],[122.235362,14.078355],[122.208669,14.087633],[122.186209,14.110541],[122.170177,14.139635],[122.162934,14.167792],[122.173188,14.160224],[122.175548,14.155951],[122.177257,14.146674],[122.183442,14.146674],[122.184093,14.169867],[122.195567,14.183783],[122.231944,14.20185],[122.244395,14.196031],[122.247569,14.212795],[122.247813,14.236151],[122.25172,14.250312],[122.263682,14.247382],[122.266612,14.227607],[122.264008,14.203681],[122.259288,14.188218],[122.266856,14.17886],[122.268891,14.167304],[122.269542,14.154242],[122.272797,14.140448],[122.271495,14.136664],[122.273204,14.132514],[122.279633,14.126166],[122.284353,14.125881],[122.288585,14.130194],[122.291759,14.136054],[122.293305,14.140448],[122.298513,14.12934],[122.300304,14.11758],[122.300141,14.092027],[122.309986,14.09628],[122.309982,14.096142],[122.309465,14.080123],[122.329929,14.077952],[122.357111,14.087719],[122.376748,14.100277],[122.40455,14.126787],[122.420156,14.139137],[122.435659,14.147871],[122.459637,14.153813],[122.47979,14.150816],[122.815894,13.99372],[122.754709,13.979147],[122.615079,13.963954],[122.560922,13.936566],[122.558003,13.933281],[122.555919,13.937893],[122.542979,13.952582],[122.540294,13.958564],[122.536876,13.961127],[122.51588,13.934394],[122.459483,13.937893],[122.434906,13.94599],[122.41627,13.961656],[122.413097,13.948065],[122.420665,13.932278],[122.433849,13.919338],[122.447276,13.913886],[122.450857,13.906195],[122.499766,13.837795],[122.509613,13.820014],[122.5088,13.807766],[122.502696,13.793158],[122.503917,13.771918],[122.512462,13.735785],[122.490571,13.740627],[122.485525,13.721625],[122.491384,13.677069],[122.497569,13.652045],[122.51295,13.630439],[122.549978,13.59516],[122.621755,13.55272],[122.635997,13.537095],[122.632335,13.520697],[122.609548,13.531968],[122.567149,13.56387],[122.572927,13.548041],[122.598888,13.508287],[122.642833,13.457587],[122.654307,13.440416],[122.663259,13.420478],[122.672699,13.379299],[122.677013,13.341946],[122.677013,13.300971],[122.678884,13.289862],[122.682953,13.282294],[122.687673,13.276109],[122.690684,13.269599],[122.692556,13.248765],[122.692231,13.236802],[122.690684,13.228664],[122.685232,13.225246],[122.675792,13.222113],[122.667166,13.218085],[122.663259,13.211615],[122.653168,13.200995],[122.630138,13.188056],[122.604828,13.177558],[122.588145,13.174018],[122.570974,13.184556],[122.505056,13.239203],[122.507579,13.259467],[122.518077,13.294867],[122.519298,13.310614],[122.50115,13.368069],[122.402599,13.496161],[122.400238,13.502875],[122.398448,13.515815],[122.395193,13.522895],[122.375987,13.540839],[122.369477,13.549791],[122.341319,13.561103],[122.334972,13.574693],[122.319021,13.592231],[122.258556,13.592027],[122.259288,13.606024],[122.241547,13.611965],[122.20753,13.614325],[122.194021,13.622789],[122.189952,13.631049],[122.186371,13.648017],[122.180431,13.656928],[122.172211,13.666693],[122.118419,13.752102],[122.09311,13.780585],[122.059906,13.804633],[122.053722,13.785142],[122.03891,13.789618],[122.021983,13.803127],[122.0088,13.810858],[121.989431,13.810045],[121.98585,13.812079],[121.94988,13.84455],[121.937022,13.851793],[121.924815,13.855373],[121.913585,13.857123],[121.903005,13.860541],[121.882335,13.877997],[121.87086,13.885728],[121.85963,13.891303],[121.827159,13.899726],[121.812999,13.914944],[121.801768,13.933092],[121.786306,13.948676],[121.778005,13.949042],[121.740245,13.9619],[121.724864,13.969143],[121.718435,13.955308],[121.70102,13.94477],[121.69752,13.931301],[121.689952,13.925971],[121.642263,13.913886],[121.636892,13.909613],[121.581948,13.996386],[121.498413,13.957229],[121.549327,13.87816],[121.530528,13.864976],[121.523285,13.861884],[121.51588,13.860012],[121.499034,13.859076],[121.494395,13.8581],[121.48463,13.851793],[121.454581,13.819219],[121.450913,13.823756],[121.438924,13.832231],[121.425178,13.836933],[121.410398,13.837089],[121.395516,13.842204],[121.342392,13.884011],[121.319758,13.898428],[121.312833,13.907007],[121.306012,13.921631],[121.297227,13.933052],[121.273042,13.948296],[121.264464,13.961525],[121.343942,14.000851],[121.416496,14.050977],[121.437373,14.060589],[121.481505,14.065137],[121.503726,14.074542],[121.519849,14.091078],[121.531838,14.112007],[121.550028,14.156397],[121.564911,14.180272],[121.581137,14.198772],[121.59447,14.219494],[121.600464,14.249828],[121.597984,14.281764],[121.590336,14.313287],[121.52233,14.471727],[121.496491,14.518546],[121.466209,14.562884],[121.460525,14.571514],[121.374018,14.703444],[121.354588,14.747162],[121.345803,14.792844],[121.342082,14.889272],[121.336915,14.998103],[121.330093,15.032364],[121.336294,15.030452],[121.343012,15.02916],[121.349937,15.028592],[121.356758,15.028747],[121.355931,15.05536],[121.373501,15.079235],[121.394585,15.102799],[121.404404,15.128328],[121.403164,15.137113],[121.396239,15.160677],[121.394275,15.159127],[121.390038,15.157318],[121.385904,15.157266],[121.38456,15.160987],[121.387351,15.167188],[121.392105,15.169514],[121.396652,15.170185],[121.39903,15.171529],[121.403474,15.189409],[121.409468,15.202018],[121.419907,15.208064],[121.438097,15.206256],[121.446055,15.207909],[121.446178,15.207934]]],[[[122.104747,14.102607],[122.14975,14.072699],[122.172699,14.053534],[122.183442,14.030585],[122.177013,14.007066],[122.158376,14.006781],[122.136078,14.019232],[122.098969,14.05036],[122.033376,14.092027],[121.993175,14.127631],[121.981456,14.133002],[121.96518,14.142971],[121.945811,14.165758],[121.929861,14.191148],[121.923513,14.208686],[121.926606,14.221259],[121.934337,14.229438],[121.945079,14.232611],[121.957774,14.229967],[121.964041,14.226142],[121.96811,14.221381],[121.975841,14.210435],[122.104747,14.102607]]],[[[122.235362,14.797756],[122.24822,14.788153],[122.257009,14.767035],[122.256602,14.745917],[122.242198,14.736314],[122.241547,14.741116],[122.162934,14.797756],[122.135509,14.802558],[122.121267,14.806871],[122.115245,14.814846],[122.111176,14.826117],[122.104991,14.837836],[122.105724,14.84394],[122.122081,14.838772],[122.124848,14.842475],[122.135753,14.852362],[122.138438,14.838935],[122.146007,14.833645],[122.157074,14.834296],[122.16977,14.838772],[122.203868,14.838772],[122.196951,14.832913],[122.192638,14.824774],[122.192393,14.814927],[122.197113,14.803941],[122.206309,14.796617],[122.21697,14.795152],[122.235362,14.797756]]],[[[122.005382,15.010688],[122.029063,15.009182],[122.048188,14.999457],[122.057872,14.983303],[122.053071,14.962226],[122.031505,14.987738],[122.020356,14.99372],[122.005382,14.99018],[121.995128,14.980129],[121.992686,14.969184],[121.996349,14.963528],[122.005382,14.969062],[122.013194,14.94481],[122.012869,14.932929],[122.003591,14.925238],[121.97169,14.905585],[121.96811,14.902574],[121.969574,14.897773],[121.971528,14.862047],[121.973643,14.852118],[121.978038,14.838772],[121.996593,14.841376],[122.0088,14.824612],[122.01588,14.799465],[122.02589,14.736314],[122.023692,14.722602],[122.004161,14.673651],[121.984874,14.656928],[121.961192,14.644761],[121.940196,14.640082],[121.916677,14.649075],[121.908702,14.670966],[121.91033,14.697821],[121.916026,14.722073],[121.934906,14.725775],[121.933849,14.76496],[121.919444,14.810248],[121.898936,14.831855],[121.883637,14.836412],[121.879161,14.848334],[121.881847,14.883694],[121.877452,14.894436],[121.855724,14.926947],[121.847667,14.935533],[121.831391,14.940579],[121.821788,14.940334],[121.81837,14.946031],[121.826427,15.012152],[121.833263,15.035305],[121.844249,15.045396],[121.874278,15.027777],[121.893728,15.024563],[121.902354,15.041693],[121.909923,15.050198],[121.927989,15.052232],[121.969412,15.047187],[121.984874,15.037991],[121.993826,15.042914],[122.005138,15.038642],[122.011241,15.027167],[122.005382,15.010688]]],[[[122.411794,14.725816],[122.418468,14.719957],[122.419607,14.705146],[122.397797,14.685858],[122.374848,14.681464],[122.354015,14.679511],[122.319347,14.683498],[122.316417,14.69892],[122.341563,14.712592],[122.364268,14.720608],[122.380626,14.728705],[122.396983,14.732245],[122.411794,14.725816]]]]}},{"type":"Feature","properties":{"id":"PH-QUE","country":"PH","name_en":"Lucena"},"geometry":{"type":"Polygon","coordinates":[[[121.636892,13.909613],[121.621755,13.893459],[121.613129,13.893052],[121.595958,13.897406],[121.591075,13.896796],[121.577891,13.888007],[121.549327,13.87816],[121.498413,13.957229],[121.581948,13.996386],[121.636892,13.909613]]]}},{"type":"Feature","properties":{"id":"PH-BUL","country":"PH","name_en":"Bulacan"},"geometry":{"type":"Polygon","coordinates":[[[120.916214,14.694389],[120.906912,14.706732],[120.902354,14.71894],[120.894298,14.725084],[120.847179,14.74372],[120.843923,14.749091],[120.843435,14.755683],[120.840587,14.761217],[120.830089,14.763617],[120.731619,14.766669],[120.669688,14.777289],[120.663829,14.778957],[120.666671,14.783026],[120.672976,14.788658],[120.678247,14.794911],[120.717624,14.880591],[120.726512,14.894027],[120.755968,14.912268],[120.829865,14.93666],[120.853326,14.961413],[120.859424,14.969164],[120.876477,14.977742],[120.883919,14.984719],[120.885779,14.992263],[120.882472,14.998103],[120.877718,15.001669],[120.875134,15.00265],[120.882059,15.007456],[120.898698,15.011125],[120.905106,15.015156],[120.913271,15.028592],[120.940866,15.110189],[120.9419,15.126571],[120.938799,15.14321],[120.935079,15.148481],[120.923503,15.159075],[120.919782,15.166516],[120.920299,15.179849],[120.925053,15.19437],[120.937662,15.220673],[121.076465,15.256692],[121.117703,15.260051],[121.163592,15.244961],[121.252269,15.182536],[121.302601,15.181451],[121.309526,15.153442],[121.309113,15.133599],[121.2933,15.090707],[121.293713,15.074067],[121.303945,15.058874],[121.330093,15.032364],[121.336915,14.998103],[121.342082,14.889272],[121.308079,14.890461],[121.286892,14.872116],[121.268392,14.848551],[121.24276,14.833875],[121.20576,14.826382],[121.187074,14.799434],[121.166786,14.77483],[121.154268,14.758427],[121.129256,14.76123],[121.123188,14.753678],[121.115849,14.752828],[121.108468,14.751973],[121.05828,14.766693],[121.04037,14.763831],[121.031318,14.748824],[121.009031,14.739478],[120.998173,14.734924],[120.98962,14.715679],[120.967167,14.707126],[120.953268,14.721025],[120.931884,14.721025],[120.953268,14.688949],[120.95485,14.679156],[120.933964,14.693431],[120.921604,14.701879],[120.916214,14.694389]]]}},{"type":"Feature","properties":{"id":"PH-BAN","country":"PH","name_en":"Bataan"},"geometry":{"type":"Polygon","coordinates":[[[120.545421,14.827094],[120.546153,14.787828],[120.536469,14.723212],[120.539317,14.702826],[120.57838,14.65941],[120.582205,14.648261],[120.576915,14.636949],[120.574962,14.621649],[120.593923,14.550727],[120.597911,14.505601],[120.58839,14.466986],[120.564626,14.44123],[120.526215,14.434638],[120.516856,14.437201],[120.509776,14.440823],[120.502208,14.443183],[120.491466,14.442084],[120.488455,14.437934],[120.486827,14.430732],[120.481456,14.423977],[120.467052,14.421047],[120.463227,14.424262],[120.46046,14.431545],[120.455903,14.438788],[120.410167,14.452053],[120.40211,14.455756],[120.382009,14.480292],[120.376801,14.508205],[120.381602,14.568101],[120.37794,14.602037],[120.367361,14.620754],[120.326427,14.647528],[120.315196,14.641303],[120.304942,14.64057],[120.296886,14.644843],[120.292247,14.653754],[120.285411,14.653754],[120.253184,14.698635],[120.242361,14.729641],[120.260916,14.74372],[120.272634,14.747056],[120.265147,14.754584],[120.243907,14.767035],[120.247325,14.778062],[120.255382,14.787055],[120.264659,14.795152],[120.271739,14.803941],[120.27768,14.80272],[120.28248,14.806081],[120.296771,14.802353],[120.320439,14.825607],[120.34204,14.842092],[120.366328,14.851859],[120.398057,14.855114],[120.422448,14.864003],[120.441879,14.885965],[120.454901,14.914129],[120.460069,14.941517],[120.469164,14.926738],[120.475778,14.889944],[120.48322,14.872322],[120.497793,14.857491],[120.533449,14.836562],[120.545421,14.827094]]]}},{"type":"Feature","properties":{"id":"PH-NUE","country":"PH","name_en":"Nueva Ecija"},"geometry":{"type":"Polygon","coordinates":[[[120.862008,15.165069],[120.845368,15.166516],[120.841131,15.172666],[120.841441,15.189822],[120.83927,15.196024],[120.830796,15.200985],[120.813226,15.203568],[120.804544,15.206772],[120.790385,15.215661],[120.779636,15.225634],[120.774158,15.23938],[120.776329,15.259534],[120.78222,15.288524],[120.777155,15.302167],[120.765166,15.311055],[120.750697,15.325938],[120.744186,15.340614],[120.742739,15.356117],[120.745219,15.373274],[120.755141,15.413788],[120.755245,15.426087],[120.74956,15.453166],[120.748837,15.48753],[120.747286,15.499829],[120.743152,15.512283],[120.737571,15.524892],[120.73323,15.538018],[120.73261,15.551816],[120.739948,15.566544],[120.752557,15.58184],[120.762789,15.596929],[120.763099,15.611244],[120.751731,15.617083],[120.710906,15.619409],[120.69592,15.622354],[120.662227,15.657908],[120.642487,15.710773],[120.627294,15.818725],[120.737158,15.84508],[120.767647,15.844305],[120.78253,15.835468],[120.793899,15.821877],[120.811779,15.792318],[120.823974,15.790303],[120.838754,15.804669],[120.851983,15.824616],[120.859734,15.839034],[120.875754,15.885181],[120.884332,15.899598],[120.893841,15.909313],[120.902626,15.91536],[120.910791,15.922698],[120.919059,15.936547],[120.925984,15.97763],[120.916992,16.019539],[120.886503,16.100671],[120.910171,16.121445],[120.94438,16.132917],[120.981381,16.136948],[121.01373,16.135811],[121.094965,16.117828],[121.13796,16.101291],[121.167519,16.080931],[121.184779,16.049822],[121.19129,16.014578],[121.194804,15.942335],[121.207413,15.898203],[121.250615,15.820068],[121.267255,15.77759],[121.361099,15.507943],[121.368437,15.470684],[121.36575,15.435441],[121.33216,15.327902],[121.302601,15.181451],[121.252269,15.182536],[121.163592,15.244961],[121.117703,15.260051],[121.076465,15.256692],[120.937662,15.220673],[120.927947,15.217108],[120.916062,15.215196],[120.906346,15.211113],[120.897148,15.186619],[120.881438,15.173183],[120.862008,15.165069]]]}},{"type":"Feature","properties":{"id":"PH-MAD","country":"PH","name_en":"Marinduque"},"geometry":{"type":"Polygon","coordinates":[[[122.101573,13.416693],[122.105479,13.408433],[122.123709,13.395209],[122.128917,13.386298],[122.120291,13.356635],[122.062022,13.29857],[122.039561,13.269599],[122.049083,13.248358],[122.040294,13.230699],[122.0088,13.204779],[121.993175,13.201606],[121.976736,13.21308],[121.962576,13.228013],[121.953868,13.2355],[121.942882,13.24018],[121.90919,13.269599],[121.900727,13.271959],[121.883474,13.273179],[121.875011,13.276435],[121.864919,13.284369],[121.847667,13.310614],[121.817231,13.341946],[121.813731,13.35224],[121.817882,13.3758],[121.817231,13.38288],[121.814138,13.397528],[121.814301,13.450507],[121.817231,13.46483],[121.824392,13.474066],[121.850759,13.520941],[121.853852,13.530341],[121.855642,13.558417],[121.858653,13.565497],[121.873057,13.568508],[121.887543,13.554755],[121.90919,13.522895],[121.913748,13.528632],[121.925059,13.538642],[121.929698,13.544623],[121.944998,13.528998],[121.968028,13.523749],[121.989024,13.530463],[121.997895,13.550767],[122.010997,13.542141],[122.020193,13.533637],[122.023448,13.523179],[122.019054,13.509223],[122.033946,13.514635],[122.045177,13.509223],[122.048676,13.498765],[122.039561,13.489325],[122.043793,13.485338],[122.054698,13.478095],[122.059906,13.475735],[122.075206,13.485419],[122.09669,13.479682],[122.115245,13.464993],[122.122081,13.44774],[122.118419,13.443101],[122.111339,13.441392],[122.101573,13.440904],[122.100841,13.433905],[122.101573,13.416693]]]}},{"type":"Feature","properties":{"id":"PH-MDR","country":"PH","name_en":"Oriental Mindoro"},"geometry":{"type":"Polygon","coordinates":[[[120.893386,13.504687],[120.915375,13.516669],[120.928396,13.50495],[120.936778,13.507514],[120.944835,13.512844],[120.950206,13.530341],[120.964366,13.526353],[120.969005,13.527167],[120.977387,13.530341],[120.978689,13.526516],[120.984386,13.522895],[120.979666,13.514146],[120.973888,13.507758],[120.966563,13.503974],[120.957042,13.502997],[120.963064,13.49433],[120.973155,13.482733],[120.98463,13.472602],[120.994884,13.468248],[121.003917,13.459662],[121.026866,13.421576],[121.042735,13.413031],[121.108653,13.415961],[121.125255,13.404771],[121.121593,13.372016],[121.128266,13.372016],[121.130138,13.378363],[121.132823,13.393622],[121.135102,13.399359],[121.139334,13.405422],[121.141124,13.407416],[121.148774,13.413031],[121.158865,13.417548],[121.171641,13.421454],[121.18336,13.428127],[121.190278,13.440904],[121.197113,13.440904],[121.217784,13.40412],[121.333751,13.310614],[121.376231,13.245103],[121.3921,13.2355],[121.41391,13.232733],[121.430512,13.22427],[121.440766,13.209418],[121.443614,13.18769],[121.440684,13.177436],[121.435557,13.166693],[121.432628,13.156073],[121.43629,13.146064],[121.44752,13.138983],[121.458995,13.139716],[121.470225,13.143744],[121.481212,13.146064],[121.504649,13.145168],[121.527029,13.140774],[121.544444,13.130316],[121.552989,13.111314],[121.549164,13.090644],[121.535899,13.07685],[121.50172,13.054267],[121.489513,13.03677],[121.483165,13.014716],[121.481944,12.990871],[121.492442,12.929511],[121.492035,12.913316],[121.483084,12.872138],[121.48463,12.85871],[121.477794,12.85871],[121.483409,12.831122],[121.485606,12.768459],[121.495128,12.745429],[121.522472,12.711493],[121.526134,12.704495],[121.527354,12.692206],[121.530935,12.676011],[121.536388,12.660346],[121.546397,12.64411],[121.547374,12.636908],[121.545665,12.611233],[121.542735,12.609036],[121.538259,12.609198],[121.5324,12.605455],[121.493419,12.549262],[121.481456,12.539008],[121.456716,12.522935],[121.448985,12.520819],[121.442393,12.522406],[121.437836,12.521633],[121.43629,12.512397],[121.436778,12.495917],[121.438975,12.489244],[121.443614,12.482001],[121.43629,12.474514],[121.430024,12.482001],[121.42628,12.475084],[121.424653,12.470038],[121.425629,12.464097],[121.430024,12.454657],[121.411876,12.443183],[121.412446,12.414984],[121.425304,12.384223],[121.443614,12.365302],[121.443614,12.358466],[121.403331,12.369818],[121.384288,12.368598],[121.381602,12.35102],[121.387218,12.344713],[121.388927,12.336371],[121.386974,12.32689],[121.381602,12.317532],[121.390391,12.313056],[121.394542,12.307685],[121.395844,12.300238],[121.395763,12.289537],[121.365733,12.307766],[121.354747,12.324123],[121.34018,12.316636],[121.316417,12.296373],[121.303396,12.293402],[121.29127,12.2862],[121.27296,12.269029],[121.247813,12.219916],[121.247514,13.031195],[121.232011,13.055793],[121.195011,13.077497],[120.779222,13.255109],[120.891774,13.402903],[120.899008,13.423005],[120.899525,13.449102],[120.894564,13.498453],[120.893386,13.504687]]]}},{"type":"Feature","properties":{"id":"PH-MDC","country":"PH","name_en":"Occidental Mindoro"},"geometry":{"type":"MultiPolygon","coordinates":[[[[121.247813,12.219916],[121.244965,12.214423],[121.230154,12.214342],[121.207774,12.236029],[121.193696,12.241767],[121.131684,12.241767],[121.113617,12.251288],[121.099132,12.274644],[121.093272,12.303697],[121.101085,12.330512],[121.106944,12.314358],[121.115977,12.305243],[121.128184,12.303656],[121.142589,12.310045],[121.134939,12.313463],[121.128184,12.312934],[121.121593,12.310045],[121.115408,12.327541],[121.114757,12.330512],[121.094412,12.345404],[121.08725,12.343248],[121.08725,12.323676],[121.071137,12.332506],[121.050629,12.349433],[121.032888,12.368109],[121.020518,12.389797],[120.994884,12.413723],[120.986827,12.416205],[120.98113,12.422675],[120.938975,12.493964],[120.926036,12.501858],[120.916352,12.512397],[120.918468,12.536282],[120.929047,12.577582],[120.927908,12.597602],[120.92213,12.617092],[120.912446,12.634711],[120.885916,12.664984],[120.868663,12.699652],[120.854503,12.715318],[120.832205,12.724026],[120.812266,12.72427],[120.797862,12.729438],[120.792491,12.75259],[120.791352,12.763861],[120.786306,12.78262],[120.785167,12.79385],[120.781993,12.805569],[120.76531,12.831448],[120.766449,12.840522],[120.770844,12.847113],[120.77589,12.852729],[120.778982,12.85871],[120.779633,12.867906],[120.776703,12.916083],[120.767426,12.946845],[120.758311,13.002387],[120.740977,13.033271],[120.696951,13.092108],[120.664887,13.155911],[120.642345,13.183254],[120.594574,13.199205],[120.576345,13.221422],[120.559825,13.228664],[120.525157,13.225653],[120.514822,13.230536],[120.526215,13.249172],[120.499766,13.273342],[120.479991,13.3015],[120.467784,13.333482],[120.459727,13.403713],[120.452485,13.420233],[120.439952,13.427232],[120.432628,13.426703],[120.41505,13.423],[120.408214,13.420478],[120.400157,13.415025],[120.395763,13.409491],[120.392426,13.404202],[120.387869,13.399359],[120.368175,13.383368],[120.355968,13.38052],[120.340099,13.386298],[120.327647,13.396877],[120.316905,13.4112],[120.309337,13.427639],[120.306651,13.444322],[120.310557,13.466986],[120.321544,13.487779],[120.337657,13.505316],[120.356619,13.518378],[120.380138,13.526353],[120.403168,13.52733],[120.47169,13.511542],[120.531912,13.509223],[120.544688,13.510932],[120.555186,13.513495],[120.56544,13.513129],[120.584727,13.501858],[120.595388,13.498928],[120.614431,13.496161],[120.653331,13.496568],[120.676524,13.492987],[120.690196,13.481879],[120.706391,13.490383],[120.719249,13.485175],[120.737315,13.468248],[120.754568,13.466742],[120.77003,13.470689],[120.799327,13.481879],[120.888194,13.501858],[120.893386,13.504687],[120.894564,13.498453],[120.899525,13.449102],[120.899008,13.423005],[120.891774,13.402903],[120.779222,13.255109],[121.195011,13.077497],[121.232011,13.055793],[121.247514,13.031195],[121.247813,12.219916]]],[[[120.260916,13.711575],[120.269298,13.707343],[120.277192,13.706041],[120.283051,13.70246],[120.285411,13.691392],[120.268565,13.678697],[120.264334,13.673733],[120.257823,13.682115],[120.250824,13.693793],[120.243175,13.704047],[120.233897,13.708441],[120.219493,13.711249],[120.213634,13.718248],[120.210216,13.7272],[120.203461,13.735785],[120.192882,13.74258],[120.182791,13.746731],[120.171886,13.748847],[120.158865,13.749416],[120.152517,13.752631],[120.141124,13.76675],[120.108246,13.776842],[120.092296,13.794501],[120.082856,13.817939],[120.079926,13.842231],[120.081309,13.852932],[120.085704,13.860785],[120.093028,13.865302],[120.103689,13.866278],[120.118337,13.860826],[120.142833,13.8487],[120.164073,13.834906],[120.168712,13.82453],[120.18336,13.828803],[120.202647,13.824612],[120.222179,13.815416],[120.237641,13.804633],[120.271739,13.752509],[120.266775,13.741278],[120.257335,13.7331],[120.252696,13.724433],[120.260916,13.711575]]],[[[121.115977,12.196763],[121.128266,12.174994],[121.131033,12.164374],[121.127696,12.159857],[121.118907,12.158108],[121.108653,12.162502],[121.099376,12.16942],[121.090099,12.174262],[121.083669,12.183498],[121.0796,12.197699],[121.069591,12.211371],[121.051606,12.220933],[121.039561,12.251532],[121.059906,12.278388],[121.088145,12.267076],[121.097911,12.244696],[121.105235,12.211168],[121.110118,12.203111],[121.114106,12.199164],[121.115977,12.196763]]]]}},{"type":"Feature","properties":{"id":"PH-AUR","country":"PH","name_en":"Aurora"},"geometry":{"type":"Polygon","coordinates":[[[122.24464,16.510565],[122.23878,16.504055],[122.234223,16.495103],[122.232188,16.486518],[122.231944,16.466498],[122.229177,16.461615],[122.211436,16.449408],[122.204275,16.43476],[122.205333,16.423896],[122.217621,16.394761],[122.224132,16.408515],[122.225108,16.415269],[122.231944,16.415269],[122.224946,16.380764],[122.191905,16.317369],[122.197113,16.291693],[122.214529,16.307074],[122.231944,16.319037],[122.228689,16.304633],[122.203868,16.263821],[122.20338,16.257473],[122.205333,16.242499],[122.203868,16.236518],[122.198741,16.23371],[122.182465,16.232001],[122.177257,16.230292],[122.149425,16.195543],[122.115245,16.168891],[122.083995,16.137356],[122.080414,16.135321],[122.076996,16.132717],[122.073578,16.127265],[122.071788,16.11933],[122.072439,16.111558],[122.073578,16.104926],[122.073578,16.099921],[122.059255,16.077786],[122.016124,16.051459],[121.997895,16.031073],[121.99171,16.03852],[122.011567,16.065741],[122.021658,16.08393],[122.02589,16.103705],[122.033458,16.117133],[122.081065,16.148383],[122.087576,16.164455],[122.092784,16.187323],[122.101573,16.20775],[122.132579,16.225491],[122.14088,16.244086],[122.135265,16.260728],[122.107758,16.263821],[122.087413,16.255316],[122.077403,16.241278],[122.073985,16.224026],[122.073578,16.205756],[122.066905,16.190131],[122.050548,16.180854],[122.012218,16.168891],[121.954763,16.139146],[121.940196,16.134711],[121.903982,16.129828],[121.868175,16.120429],[121.855968,16.111314],[121.844086,16.100002],[121.829926,16.090399],[121.799978,16.083238],[121.788422,16.077216],[121.77768,16.073188],[121.769542,16.075751],[121.761078,16.079983],[121.752289,16.07689],[121.684418,16.021145],[121.678722,16.010728],[121.642263,15.969631],[121.593272,15.944892],[121.57781,15.932074],[121.567393,15.915717],[121.560069,15.895209],[121.552989,15.852932],[121.554861,15.828925],[121.570649,15.793769],[121.574555,15.774359],[121.585216,15.765448],[121.608653,15.763088],[121.631847,15.757025],[121.642263,15.736884],[121.636567,15.72248],[121.594493,15.67475],[121.611095,15.671088],[121.619802,15.667467],[121.629161,15.661119],[121.590994,15.640448],[121.573741,15.627265],[121.56658,15.610256],[121.561534,15.591376],[121.549001,15.576402],[121.495616,15.532457],[121.487559,15.520413],[121.479259,15.456204],[121.472911,15.43769],[121.464122,15.421536],[121.42628,15.373765],[121.408865,15.377753],[121.397716,15.382717],[121.389903,15.377875],[121.381602,15.352688],[121.379161,15.308173],[121.391124,15.266262],[121.413748,15.231635],[121.443614,15.209296],[121.446178,15.207934],[121.446055,15.207909],[121.438097,15.206256],[121.419907,15.208064],[121.409468,15.202018],[121.403474,15.189409],[121.39903,15.171529],[121.396652,15.170185],[121.392105,15.169514],[121.387351,15.167188],[121.38456,15.160987],[121.385904,15.157266],[121.390038,15.157318],[121.394275,15.159127],[121.396239,15.160677],[121.403164,15.137113],[121.404404,15.128328],[121.394585,15.102799],[121.373501,15.079235],[121.355931,15.05536],[121.356758,15.028747],[121.349937,15.028592],[121.343012,15.02916],[121.336294,15.030452],[121.330093,15.032364],[121.303945,15.058874],[121.293713,15.074067],[121.2933,15.090707],[121.309113,15.133599],[121.309526,15.153442],[121.302601,15.181451],[121.33216,15.327902],[121.36575,15.435441],[121.368437,15.470684],[121.361099,15.507943],[121.267255,15.77759],[121.447709,15.9243],[121.808307,16.2187],[121.872386,16.281901],[122.037544,16.507623],[122.24464,16.510565]]]}}]}
